show_name,parent_category,middle_category,child_category,address,tel,google_url
ICON,飲食,外国料理,その他,渋谷区代々木代々木1-41-4,080-7399-3894,
ai's,飲食,外国料理,イタリア料理,渋谷区広尾1-1-38スクエアサイドビル1F,03-6712-6201,
あいと電氣餅店,飲食,喫茶店・カフェ,その他,渋谷区富ヶ谷1-3-4川端ハイツ　1F,03-5738-7849,https://liff.line.me/1645278921-kWRPP32q/?accountId=denkimochi
Irish Pub Banshee,飲食,その他(バー・クラブ・スナックなど),その他,渋谷区宇田川町33-8エミリアビル1階,03-6809-0580,
アウルセカンドフロア,飲食,その他(バー・クラブ・スナックなど),カフェバー,渋谷区幡ヶ谷2-47-11田口ビル2F,080-9155-2960,
あおさんかく,飲食,日本料理,その他,渋谷区本町5-38-10SKプラネット101,03-6300-4923,
青山煮干しラーメンハレルヤ,飲食,日本料理,ラーメン,渋谷区渋谷2-9-10青山台ビルB1,03-6433-5083,https://instagram.com/kidzhareruya?igshid=OGQ5ZDc2ODk2ZA==
赤垣,飲食,日本料理,うなぎ,渋谷区初台1-38-11赤垣,080-6519-0307,
赤札屋代々木店,飲食,居酒屋,居酒屋,渋谷区千駄ヶ谷4-29-12北参道ダイヤモンドパレス101,03-6459-2762,
akarimado,飲食,居酒屋,居酒屋,渋谷区幡ヶ谷2-8-15KODAビル幡ヶ谷1階,03-6273-6200,
あきさば,飲食,ステーキ・焼肉,焼肉,渋谷区神宮前6丁目19-14神宮前ハッピービル,090-4220-2411,
アキッチョ笹塚バンブー,飲食,外国料理,イタリア料理,渋谷区笹塚2-10-6今井ビル103,03-6276-0122,
Aquavit,飲食,その他(バー・クラブ・スナックなど),バー,渋谷区宇田川町31-4シノダビルB1,090-1705-2834,
AKUBI-台湾火鍋&クラフトビール-,飲食,外国料理,その他,渋谷区猿楽町2-13F93daikanyama 1F,03-6433-7987,
アサッテムニュ,飲食,外国料理,その他,渋谷区千駄ヶ谷3-17-5グエル・サカエ北参道 1F,03-6434-5436,
アジアンダイニングバー謝々ホテル,飲食,居酒屋,ダイニング・バー,渋谷区元代々木町2-9シティーハウス代々木公園1.2階,03-3467-7314,
アジアンキッチンラーイマーイ,飲食,外国料理,その他,渋谷区神宮前4-9-5,03-6434-0756,
asianstandAMA,飲食,外国料理,東南アジア料理,渋谷区代々木1-33-11階,03-6455-5127,
Asian dining and bar sathi,飲食,外国料理,インド料理,渋谷区猿楽町23-6Scott side 代官山2f,03-3476-7080,
Asian dining and bar bharat,飲食,外国料理,インド料理,渋谷区笹塚3丁目9番7号,03-3370-6577,
AsianDiningMomoCaveTokyo,飲食,外国料理,無国籍料理,渋谷区代々木4-5-1,03-3377-8455,
アジアンパーム  渋谷本町店,飲食,外国料理,東南アジア料理,渋谷区本町2-14-4SHビル1階,03-3372-9050,
アジアン屋台バル　クアトロ,飲食,居酒屋,居酒屋,渋谷区恵比寿南1-7-8ニューライフ恵比寿102,03-3714-9196,
味の店　たけ,飲食,日本料理,その他,渋谷区富ヶ谷2-21-13,03-3467-7441,
アスタリスク1103,飲食,喫茶店・カフェ,喫茶店・カフェ,渋谷区渋谷1-10-3スタープラザ青山　1F,03-6805-0656,
as always,飲食,居酒屋,ビアホール,渋谷区東3-20-8オリエンタルビル1F,03-6419-3039,https://www.instagram.com/as_always_goro
あそぼうよ,飲食,居酒屋,居酒屋,渋谷区恵比寿1-26-12　フラット16 1F,080-9713-5100,
UPLIGHT COFFEE,飲食,喫茶店・カフェ,喫茶店・カフェ,渋谷区渋谷2-23-16渋谷駅東口地下広場 B2F,03-6324-2739,
アテド,飲食,居酒屋,居酒屋,渋谷区神泉町12-6,090-4397-0602,https://atedo.amebaownd.com/
ADENIAアデニア,飲食,外国料理,フランス料理,渋谷区鉢山町1番7号,03-5489-5151,
アデージョ,飲食,その他(バー・クラブ・スナックなど),スナック・パブ・キャバレー,渋谷区道玄坂2丁目8-8コスモ渋谷館505,03-3770-7769,
アトリア参宮橋,飲食,喫茶店・カフェ,喫茶店・カフェ,渋谷区代々木4-50-13,03-6276-6777,
アトリエレカイユ,飲食,外国料理,フランス料理,渋谷区千駄ヶ谷3-27-4小林ビル1階,03-6434-0234,
あなくま,飲食,居酒屋,ダイニング・バー,渋谷区上原3-26-5幸信ビル101,03-5941-6122,
ANANAS COFFEE,飲食,喫茶店・カフェ,喫茶店・カフェ,渋谷区神山町7-15イムーブル渋谷神山町4F,080-3816-1858,
嗟哉,飲食,日本料理,ラーメン,渋谷区本町2-4-3,03-3375-8117,
anise_scone,飲食,喫茶店・カフェ,その他,渋谷区本町2-7-12,090-7807-6962,
アネモネ,飲食,その他(バー・クラブ・スナックなど),バー,渋谷区神泉町12-7Foursビル1F,03-6455-1955,
アバスク　イチャスエタメンディ,飲食,外国料理,スペイン料理,渋谷区渋谷2丁目12番11号松下ビル1階,03-5468-8908,http://www.abasque.com
Afterhours,飲食,喫茶店・カフェ,喫茶店・カフェ,渋谷区富ヶ谷1-7-9,03-3481-5507,
油そば　てつ,飲食,日本料理,ラーメン,渋谷区笹塚2-7-9ライブイン笹塚1階,080-3548-7155,
アミューズメントバーHATAGAYA EGG,飲食,その他(バー・クラブ・スナックなど),バー,渋谷区幡ヶ谷2-12-18幡ヶ谷第二中央ビル203,03-6304-2991,
あやとり,飲食,その他(バー・クラブ・スナックなど),バー,渋谷区恵比寿西1-3-9田中ビル302,080-1245-9215,
南国酒場　アヤパニ,飲食,居酒屋,居酒屋,渋谷区神山町5-3スパイシービル1F,03-5453-1288,
ARALE,飲食,居酒屋,居酒屋,渋谷区鶯谷町7-12GranDuo渋谷1F,03-6455-2378,
ありき,飲食,居酒屋,居酒屋,渋谷区西原3丁目17番4号星と月と空とビル102,080-2049-9294,
アルティカセブン,飲食,その他(バー・クラブ・スナックなど),ライブハウス,渋谷区代々木1-41-3福井ビル2F,070-5360-3593,
Areva,飲食,その他(バー・クラブ・スナックなど),カフェバー,渋谷区上原二丁目48-12東洋代々木上原コーポ103,03-4400-3590,
アロハ豚珍串,飲食,外国料理,その他,渋谷区千駄ヶ谷3-52-3サニー原宿1階,03-3401-6800,
アロンズダイニング,飲食,外国料理,イタリア料理,渋谷区幡ヶ谷1-1-4 1F,070-6558-8171,
OURDAYS,飲食,その他(バー・クラブ・スナックなど),バー,渋谷区笹塚3-40-1,090-4546-5067,
Bar Unkempt,飲食,その他(バー・クラブ・スナックなど),バー,渋谷区富ヶ谷1-14-20代々木公園セレナビル401,03-5738-8156,
庵狐　代官山店,飲食,日本料理,日本料理,渋谷区代官山町13-688DAIKANYAMA1階,03-6416-5189,
庵狐　円山町店,飲食,居酒屋,居酒屋,渋谷区円山町25-4加藤ビル1F,03-5459-4083,
アンコールワット,飲食,外国料理,東南アジア料理,渋谷区代々木1-38-13住研ビル1F,03-3370-3019,
アンジェパティオ,飲食,外国料理,イタリア料理,渋谷区南平台町12-11,03-3476-7717,
按田餃子パワー店,飲食,外国料理,その他,渋谷区西原3-7-4渡部ビル1階,03-6407-9881,
按田餃子代々木上原本店,飲食,外国料理,その他,渋谷区西原3-21-2,03-6407-8813,
あんちゅう,飲食,外国料理,イタリア料理,渋谷区上原2-48-9松崎ビル1,03-6804-8990,https://s.tabelog.com/tokyo/A1318/A131811/13223334/
Antelope,飲食,その他(バー・クラブ・スナックなど),バー,渋谷区広尾5-3-15HHBビル2F,03-4363-8561,
AND THE FRIET,飲食,外国料理,その他,渋谷区広尾5丁目16番1号,03-6434-7297,
andC,飲食,喫茶店・カフェ,喫茶店・カフェ,渋谷区千駄ヶ谷1-22-4吹上ビル1階　催事用,070-3149-9699,
ARMS,飲食,喫茶店・カフェ,喫茶店・カフェ,渋谷区代々木5-64-7神宮白鳳マンション1階,03-3466-5970,
ARMS TAKE OUT & DELIVERY,飲食,喫茶店・カフェ,ファーストフード,渋谷区富ヶ谷1-9-21レイ上原ビル1階,03-3466-5974,
アーモンドホステルアンドカフェ,飲食,喫茶店・カフェ,喫茶店・カフェ,渋谷区元代々木町1-7almond hostel & cafe,050-3628-5577,https://almondhostelandcafe.tokyo
AYUR CEYLON Shibuya,飲食,その他(バー・クラブ・スナックなど),カフェバー,渋谷区円山町22-15,050-6870-5543,https://www.instagram.com/ayurceylon_shibuya/
アールズバー,飲食,その他(バー・クラブ・スナックなど),バー,渋谷区恵比寿南1-2-12ブラウンベセル 地下1階,03-5724-3726,
yinega,飲食,外国料理,無国籍料理,渋谷区渋谷1-10-2志水ビル1F,03-8507-8728,
Yellow,飲食,その他(バー・クラブ・スナックなど),バー,渋谷区恵比寿南1-8-9第一黄色いビル4F,03-5708-5979,
イエローカンパニー恵比寿本店,飲食,日本料理,その他,渋谷区東3-14-19オークヒルズ1階,03-5485-2723,https://www.yellowcompany.jp
イエローハウス,飲食,喫茶店・カフェ,喫茶店・カフェ,渋谷区富ヶ谷1-6-14第2代々木公園ビル1階,050-3695-0383,https://www.instagram.com/yellowhouse_tomigaya
イエローママ,飲食,その他(バー・クラブ・スナックなど),バー,渋谷区道玄坂2-20-26エクシール道玄坂地下一階4号,03-6809-0768,
粋　恵比寿店,飲食,居酒屋,居酒屋,渋谷区恵比寿西1-13-2サンキビル2階,03-6416-3453,
イザカヤあだん,飲食,居酒屋,居酒屋,渋谷区広尾5-15-1日計広尾コーポ1F,03-3446-3295,
居酒屋　いしかり,飲食,居酒屋,居酒屋,渋谷区笹塚1-28-7レアヒビル102,03-3466-3265,
居酒屋海 笹塚店,飲食,居酒屋,居酒屋,渋谷区笹塚2-16-4,03-3375-2283,
居酒屋　喜楽,飲食,居酒屋,居酒屋,渋谷区渋谷3-15-2F93 Shibuya II 5階,03-6427-7215,
居酒屋　九四六屋,飲食,居酒屋,居酒屋,渋谷区道玄坂2ー23ー1小池ビルB1,03-5456-8587,
居酒屋　佐藤,飲食,居酒屋,居酒屋,渋谷区恵比寿西1-8-2ウエストパレスビス103,03-6416-3703,
居酒屋七福,飲食,居酒屋,居酒屋,渋谷区富ヶ谷1-3-13マキビル104,03-3468-7729,
居酒屋　俊樹,飲食,居酒屋,居酒屋,渋谷区上原2-33-2ユニマットブルーポイント4F,03-3460-5225,
居酒屋千,飲食,居酒屋,居酒屋,渋谷区宇田川町26-5育真ビル4階,03-3464-2100,
居酒屋のんきや,飲食,居酒屋,居酒屋,渋谷区神泉町10ー2第5岡崎ビル1階,03-3462-1267,
居酒屋ふくみ,飲食,居酒屋,居酒屋,渋谷区東3-25-3ライオンズプラザ恵比寿B 1,03-3400-7031,
居酒屋メッカ,飲食,居酒屋,居酒屋,渋谷区笹塚2-22-1松原ビル1階,03-3376-0081,
ITACHI,飲食,ステーキ・焼肉,ステーキ,渋谷区円山町1-3skビル　2F,03-3770-3315,
イタチカクー,飲食,外国料理,イタリア料理,渋谷区桜丘町24-3インエステートビルB1,03-6886-2496,
イタリアン　 chim chim,飲食,外国料理,イタリア料理,渋谷区恵比寿南1-9-12ピトレスクビル1階,03-5722-5333,
イタリアンレストランズッカ,飲食,外国料理,イタリア料理,渋谷区桜丘町10-4モドマルシェビル1階,03-6416-4384,
イタリアンレストランLIFE,飲食,外国料理,イタリア料理,渋谷区富ヶ谷1-9-19STビル1階,03-3467-3479,
一堂,飲食,居酒屋,居酒屋,渋谷区千駄ヶ谷1-28-4,03-3402-5580,
181cellar北参道,飲食,外国料理,イタリア料理,渋谷区千駄ヶ谷3-6-1ガレリア原宿1F,03-6447-5618,
１８合同会社,飲食,居酒屋,居酒屋,渋谷区代々木1丁目58番7号ヴェラハイツ代々木店舗103,03-4400-8918,
いちひく,飲食,日本料理,その他,渋谷区神宮前2-20-121FーB号,03-3403-8188,
一食,飲食,日本料理,その他,渋谷区西原1-7-8ツインパレスK1 101,03-6873-9120,
いっぷく処　浅葱,飲食,喫茶店・カフェ,喫茶店・カフェ,渋谷区猿楽町2-11氷川ビル401号室,03-6416-5475,
いづまるキッチン,飲食,日本料理,その他,渋谷区代々木3-13-1スマイルヨヨギ1A,080-6523-7718,
イドコロネ,飲食,居酒屋,ダイニング・バー,渋谷区本町2-33-2初台ワールドマンション2階,080-6868-0504,
イナホノシズク,飲食,居酒屋,居酒屋,渋谷区初台1-11-15南洋ビル1-A,03-5350-2608,
イナホノシズク二号店,飲食,居酒屋,居酒屋,渋谷区初台1-37-1光ビル1F,03-3377-7737,
今尽,飲食,日本料理,その他,渋谷区広尾3-1-26,03-3498-4600,
イルプレージョ,飲食,外国料理,イタリア料理,渋谷区上原1-17-7フレニティハウス2F,03-6407-1271,
いわて屋,飲食,居酒屋,居酒屋,渋谷区千駄ヶ谷3-16-17NOCE KITASANDO 1F,03-6825-4033,
InG,飲食,居酒屋,ダイニング・バー,渋谷区本町2-43-4ヴァーチェストーンハウス1A,090-2757-1276,
in the house,飲食,その他(バー・クラブ・スナックなど),バー,渋谷区神宮前三丁目31番20号,090-6197-6274,
インダストリアルラウンジ,飲食,その他(バー・クラブ・スナックなど),バー,渋谷区恵比寿西1-8-2ウエストパレス205,03-3461-1989,
インド料理サモサ初台店,飲食,外国料理,インド料理,渋谷区本町2-4-101F,03-3377-3378,
E・A・T GRILL＆BAR,飲食,外国料理,その他,渋谷区千駄ヶ谷4丁目10番4号千駄ヶ谷グリーンランドビル1階,03-6447-2218,
イーツファン,飲食,居酒屋,居酒屋,渋谷区道玄坂1-7-8新井ビル3階,03-6455-1829,
Ui食堂,飲食,喫茶店・カフェ,喫茶店・カフェ,渋谷区神山町9-5ホーリーランドAmi1階,03-5738-8920,
Whisky Gibier,飲食,その他(バー・クラブ・スナックなど),バー,渋谷区西原3-21-1 1F2号,03-3466-2640,
WEPwafflefactory,飲食,喫茶店・カフェ,喫茶店・カフェ,渋谷区神山町25-17UpperHillscourt101,03-6416-8242,
ウエトミ×アオギリ,飲食,居酒屋,居酒屋,渋谷区上原1丁目1-21,03-5790-9990,
ウエハラキッチン,飲食,喫茶店・カフェ,喫茶店・カフェ,渋谷区上原3-1-17,03-6804-9390,
上原の酒場　でばちか,飲食,居酒屋,居酒屋,渋谷区上原1-35-6第16菊地ビルB102,03-6451-5547,
上原の酒場　でばやし,飲食,居酒屋,居酒屋,渋谷区上原1-32-18小林ビル2階,03-6407-9782,
UEHARA PARLOR,飲食,喫茶店・カフェ,喫茶店・カフェ,渋谷区上原1-36-12内藤ビル2F,03-5761-6559,
ウォータリングホール,飲食,居酒屋,ビアホール,渋谷区千駄ヶ谷5-26-5代々木シティホームズ103,03-6380-6115,
魚音,飲食,日本料理,日本料理,渋谷区初台1-11-12,03-5371-5055,
UO-SAO,飲食,居酒屋,居酒屋,渋谷区上原1丁目17-11,03-6407-0355,
魚まみれ眞吉恵比寿店,飲食,居酒屋,居酒屋,渋谷区恵比寿南1-11-1松本ビル1階,03-5794-8350,
魚まみれ眞吉渋谷宮益坂店,飲食,居酒屋,居酒屋,渋谷区渋谷1-10-12宮城ビル1階,03-6418-8318,
魚まみれ眞吉神宮前本館場末店,飲食,居酒屋,居酒屋,渋谷区神宮前2-19-16,03-3401-3917,
魚まみれ眞吉代々木八幡店,飲食,居酒屋,居酒屋,渋谷区富ヶ谷1-2-13高松DCビルB1F-A,03-6804-9220,https://tabelog.com/tokyo/A1318/A131810/13215752/
魚ゆう,飲食,日本料理,日本料理,渋谷区神泉町17-16,03-3461-4460,
鰾,飲食,日本料理,日本料理,渋谷区西原3-22-5,03-5790-9377,
ウサギの上り坂,飲食,その他(バー・クラブ・スナックなど),バー,渋谷区代々木1-54-2小林ビル2階,03-6273-5338,
カフェ　ウズナオムオム,飲食,喫茶店・カフェ,喫茶店・カフェ,渋谷区神宮前5丁目17-8原宿XS 203,03-3499-2337,http://www.uznaomom.jp.net
WOODBERRY COFFEE 渋谷店,飲食,喫茶店・カフェ,喫茶店・カフェ,渋谷区東2-20-18,03-5962-7518,
WOODBERRY COFFEE 代官山店,飲食,喫茶店・カフェ,喫茶店・カフェ,渋谷区恵比寿南3-7-1,03-6451-0446,
うな賀,飲食,日本料理,うなぎ,渋谷区本町1丁目2-2榎本ビル2階　第3区画,090-1774-0333,
うなぎ  ふじもと,飲食,日本料理,うなぎ,渋谷区千駄ヶ谷3丁目15番12号,03-3401-6551,
うなとり×宇奈とと　笹塚店,飲食,居酒屋,居酒屋,渋谷区笹塚1-57-16,080-6266-8037,https://s.tabelog.com/tokyo/A1318/A131808/13277010/party/
うにtoいくら,飲食,居酒屋,居酒屋,渋谷区円山町7-5WHARF渋谷道玄坂6階,03-5422-3913,
uni-BAR,飲食,その他(バー・クラブ・スナックなど),バー,渋谷区笹塚3-28-3後藤ビル1F,090-4845-2087,
うめ組,飲食,居酒屋,居酒屋,"渋谷区笹塚2-27-5B,sビル1F",03-6381-6633,
ULTIMO,飲食,外国料理,イタリア料理,渋谷区西原3-24-1アムール代々木上原 104号,090-5419-9700,
urura,飲食,外国料理,フランス料理,渋谷区松濤1丁目29-2　スクエアビル 2F,03-3770-0149,
ouahouah,飲食,喫茶店・カフェ,喫茶店・カフェ,渋谷区恵比寿西2-18-6代官山ウイング102,03-6433-7875,
OOTONG RUM HALL,飲食,その他(バー・クラブ・スナックなど),バー,渋谷区幡ヶ谷2-47-11田口ビル1階,03-6762-5128,
EIGHT COFFEE,飲食,喫茶店・カフェ,喫茶店・カフェ,渋谷区恵比寿1-11-8TCビル1階,080-6621-3150,
EXCITE LUCKY,飲食,居酒屋,ダイニング・バー,渋谷区笹塚3-31-10笹塚サンハイツ,080-5071-7498,
es Cafe Bar & Beauty Salon,飲食,喫茶店・カフェ,その他,渋谷区東3丁目25番6号楠ビル2F,03-6721-7680,
エスグロッソ,飲食,外国料理,イタリア料理,渋谷区道玄坂1-11-3フォースワンビル1F,03-3464-7878,
渋谷エクセルホテル東急　エスタシオンカフェ,飲食,喫茶店・カフェ,喫茶店・カフェ,渋谷区道玄坂1-12-2,03-5457-0133,
Ethnic Dining TSUBAKI GARDEN,飲食,外国料理,インド料理,渋谷区東1-3-1カミニート1F 4号,050-5590-3642,
etain cafe and bar,飲食,喫茶店・カフェ,喫茶店・カフェ,渋谷区東2-15-1trias215 101,090-2335-4325,
エッセ,飲食,外国料理,イタリア料理,渋谷区恵比寿南2-4-19,03-6412-7130,
N9Y　奥渋店,飲食,ステーキ・焼肉,ステーキ,渋谷区宇田川町37-11大久保ビル　1階,03-5738-8315,
エノテカミヤヂ,飲食,外国料理,イタリア料理,渋谷区渋谷2-2-4青山アルコーブ202,03-6427-4393,
evergreen cafe restaurant EBISU,飲食,喫茶店・カフェ,喫茶店・カフェ,渋谷区恵比寿南1-26-1,03-5724-3660,
恵比寿　今市,飲食,居酒屋,居酒屋,渋谷区恵比寿西1-13-6,03-6455-1717,
恵比寿エスクラシコ,飲食,外国料理,イタリア料理,渋谷区恵比寿1-24-11-1Fグラッセ,03-6277-1612,https://es-classico.jp/
恵比寿　牡蠣ツ端,飲食,居酒屋,居酒屋,渋谷区恵比寿南1-9-2AIビルB1F,03-6452-3414,
恵比寿　吉乃坐,飲食,日本料理,日本料理,渋谷区恵比寿4-24-4キエイビル1階,03-5793-5776,https://kichinoza.jp/
恵比寿　黒帯,飲食,居酒屋,居酒屋,渋谷区恵比寿西1-13-6ブラッサムZEN4階,03-6277-5916,https://tabelog.com/tokyo/A1303/A130302/13153105/
EBISU SIX,飲食,その他(バー・クラブ・スナックなど),カフェバー,渋谷区恵比寿3-3-2ニューケイクレセント2f,03-5422-9888,
恵比寿食堂　美星,飲食,居酒屋,居酒屋,渋谷区恵比寿南1-7-8ニューライフ恵比寿203,03-6712-2199,
恵比寿シーシャgreen,飲食,喫茶店・カフェ,その他,渋谷区恵比寿西1-8-10EBISU高橋ビル3F,070-4792-7380,
エビスSTARバー,飲食,その他(バー・クラブ・スナックなど),バー,渋谷区恵比寿南1-8-9第一黄色いビル3階,050-3138-4869,
ebisu diner olive,飲食,その他(バー・クラブ・スナックなど),バー,渋谷区東3-6-9,03-6427-7911,
恵比寿ダルマット,飲食,外国料理,イタリア料理,渋谷区恵比寿西2-7-8Sリトリート 1F/B1F,03-3780-9955,https://www.dal-matto.com/
ebisu NUKA factory.,飲食,日本料理,小料理,渋谷区恵比寿4-10-8エビスビル102,03-5422-8362,
えびすのARALE,飲食,居酒屋,居酒屋,渋谷区恵比寿西1-7-15KATOHビル203,090-5325-2786,
恵比寿　ハジカミ,飲食,居酒屋,居酒屋,渋谷区恵比寿西1-3-9田中ビル1階,03-6427-8755,
恵比寿橋酒場TUGI,飲食,居酒屋,居酒屋,渋谷区広尾1-12-16,03-6277-2332,
EBISUBASHI珊瑚,飲食,外国料理,イタリア料理,渋谷区恵比寿1-16-18,03-6450-3348,
恵比寿BAR  BASE,飲食,その他(バー・クラブ・スナックなど),バー,渋谷区恵比寿1-12-7三恵31ビル4階B号室,090-9821-8158,
恵比寿BAR  BASE2,飲食,その他(バー・クラブ・スナックなど),バー,渋谷区恵比寿1-5-8初鹿野ビル2階,03-5860-2123,
恵比寿ブラッカウズ,飲食,外国料理,その他,渋谷区恵比寿西2-11-9東光ホワイトビル1Fブラッカウズ,03-3477-2914,
恵比寿ホルモン龍村,飲食,ステーキ・焼肉,焼肉,渋谷区恵比寿南1-4-17GinzaK2ビル4階,03-6303-0065,
恵比寿　宮崎ダイニング　ヒムカテラス,飲食,居酒屋,ダイニング・バー,渋谷区恵比寿西1-20-8コンド恵比寿,03-6416-4966,https://g.co/kgs/GKFHLr
えびす焼魚食堂,飲食,日本料理,その他,渋谷区恵比寿3-1-2エビサンビル101,03-6432-5777,
恵比寿横丁　だるまてんぐ,飲食,居酒屋,居酒屋,渋谷区恵比寿1-7-2オークビル1階,03-3440-1250,
恵比寿489,飲食,その他(バー・クラブ・スナックなど),カフェバー,渋谷区恵比寿南2-1-6鳥居ビル5階,070-8470-9256,
エビスルンバ,飲食,その他(バー・クラブ・スナックなど),バー,渋谷区恵比寿南2-3-3第一恵比寿マンション地下15室,090-4960-2634,
恵比寿和顔,飲食,居酒屋,居酒屋,渋谷区恵比寿南1-2-12,03-3715-5554,
EBIZO,飲食,外国料理,その他,渋谷区道玄坂2丁目19-3ライオンズマンション104,03-6416-3105,
エビン代々木・北参道店,飲食,外国料理,インド料理,渋谷区千駄ヶ谷4-27-13,03-6432-9973,
FFF yoyogipark,飲食,外国料理,無国籍料理,渋谷区富ヶ谷1-2-8スタジオリオネビルB1,090-7261-6852,
eponym coffee,飲食,喫茶店・カフェ,喫茶店・カフェ,渋谷区本町4-18-2黒田屋ハイツ1F,03-6300-5519,
エマラウンジ,飲食,外国料理,イタリア料理,渋谷区道玄坂1-14-9ソシアルビル2F,03-3461-6699,
MK  snack & bar,飲食,その他(バー・クラブ・スナックなど),バー,渋谷区桜丘町16-8アトラス桜丘ビル2階,080-4132-2056,
Ms Bar oeld,飲食,その他(バー・クラブ・スナックなど),バー,渋谷区上原1-1-23ステイエム代々木公園1階,090-4679-4876,
LA JUICE&BAR,飲食,その他(バー・クラブ・スナックなど),カフェバー,渋谷区広尾5-1-40プラスリノ広尾3F,080-7509-0612,https://instagram.com/lajuiceandbar?igshid=MzRlODBiNWFlZA==
LA17,飲食,その他(バー・クラブ・スナックなど),バー,渋谷区道玄坂1-19-8斉丸道玄坂ビル2階,03-5428-5078,
L.C.d.B,飲食,喫茶店・カフェ,喫茶店・カフェ,渋谷区代官山町15-8,03-6873-7602,
ELMO+,飲食,外国料理,イタリア料理,渋谷区笹塚1-56-18京王クラウン街笹塚A-2東,03-6300-4362,
円,飲食,その他(バー・クラブ・スナックなど),スナック・パブ・キャバレー,渋谷区幡ヶ谷2-8-5近藤ビル地下1階,03-3374-5571,
遠藤商店,飲食,その他(バー・クラブ・スナックなど),その他,渋谷区代々木3-22-1文化学園,03-3299-2078,
縁家とりつぎ,飲食,居酒屋,居酒屋,渋谷区元代々木町11-1田中ビル1F,03-3468-5389,
えんらい,飲食,居酒屋,居酒屋,渋谷区渋谷2-8-7青山宮野ビル103,03-6805-0343,https://sakaba.co.jp/
A9,飲食,その他(バー・クラブ・スナックなど),バー,渋谷区西原3-22-14西原水垣ビル1階,03-3481-8089,
おいちゃん,飲食,居酒屋,居酒屋,渋谷区神山町9-14白樺ビル102,03-6804-8609,
欧風カレー　café de キュリー,飲食,喫茶店・カフェ,喫茶店・カフェ,渋谷区千駄ヶ谷2-33-1,03-3475-9777,
欧風カレーMURAO,飲食,外国料理,インド料理,渋谷区代々木2-1-1新宿マインズタワーB1,070-5542-0748,
沖縄居酒屋 香の帆,飲食,居酒屋,居酒屋,渋谷区宇田川町10-1パークビル5階,03-6273-9243,
オキナワンダイニング島物語,飲食,居酒屋,ダイニング・バー,渋谷区幡ヶ谷2-8-5近藤ビルB1,03-3374-2095,
奥渋魚力,飲食,日本料理,日本料理,渋谷区神山町40-4,03-3467-6709,
奥渋谷 もつ焼のんき,飲食,居酒屋,居酒屋,渋谷区神山町4-18フィルトップ神山1F,03-6416-8883,https://next-gf.com/store/
オクノシブヤ,飲食,喫茶店・カフェ,喫茶店・カフェ,渋谷区神山町7-15ホワイトハイム大嵩 102,03-6804-9889,https://okunoshibuya.ifreagroup.co.jp/
aux,飲食,外国料理,無国籍料理,渋谷区上原1-2-3auxビル1f,03-6884-7248,
OKEI TAPROOM オケタプ,飲食,居酒屋,ビアホール,渋谷区代々木一丁目52-4ベルテ南新宿B1階,03-5309-2346,
お好み焼きえん　参宮橋2号店,飲食,ステーキ・焼肉,その他,渋谷区代々木4-5-1参宮橋ダイヤビル110号室,03-4361-9525,http://okonomiyaki-en.com/secondshop/
お好み焼きえん　幡ヶ谷店,飲食,居酒屋,居酒屋,渋谷区幡ヶ谷2-8-5,03-6258-4597,
お好み焼きえん　初台店,飲食,日本料理,お好み焼き,渋谷区初台1丁目36-1,03-6822-1610,http://hatsudai.okonomiyaki-en.com/
お好み焼　天現寺亭,飲食,日本料理,お好み焼き,渋谷区広尾5丁目25番6号,03-3444-0538,
お好み焼き　はち,飲食,日本料理,お好み焼き,渋谷区笹塚1-58-13フィエスタ笹塚5階,03-6300-9876,http://okonomiyaki-hachi.com
お好み焼・もんじゃ焼　ええとこ代々木店,飲食,日本料理,お好み焼き,渋谷区千駄ヶ谷5-22-3都営千駄ヶ谷アパート2号棟1階,03-6312-1818,https://yoyogi.eetoko.net/
おこめ茶屋 米米-めめ-,飲食,日本料理,その他,渋谷区笹塚1-56-18京王クラウン街笹塚,03-6300-5073,
おこめどき,飲食,喫茶店・カフェ,喫茶店・カフェ,渋谷区神宮前5丁目29番10号クリプトメリア神宮前ビル1F,03-6803-8956,
お酒とスパイス カンテラ,飲食,居酒屋,ダイニング・バー,渋谷区幡ヶ谷2-12-18幡ヶ谷中央第二ビル,03-3463-1809,
押競満寿,飲食,外国料理,その他,渋谷区元代々木町25-5RAJIKUMAR BLD 1F,03-6804-7256,
ＯＺＹ,飲食,外国料理,その他,渋谷区鶯谷町1-2パル代官山1階,080-4669-6097,
おすし磯部,飲食,日本料理,寿司,渋谷区元代々木町2-11GSハイム第二代々木公園101,03-6885-7515,
オステリア　しん介,飲食,外国料理,イタリア料理,渋谷区恵比寿1-22-10カマスヤビル　B101号室,03-6447-7709,
オステリア スミヴィノ,飲食,外国料理,イタリア料理,,03-3372-7709,https://tabelog.com/tokyo/A1318/A131807/13006890/
オステリア　ラ.リベラ,飲食,外国料理,イタリア料理,渋谷区恵比寿南1-18-11西田ビル1F,03-6452-4853,
Osteria Ricco,飲食,外国料理,イタリア料理,渋谷区幡ヶ谷1-33-6ビューハイム幡ヶ谷102,03-5454-0004,
お惣菜と煎餅もんじゃさとう,飲食,日本料理,その他,渋谷区富ヶ谷1-9-22AIUビル1階,03-6804-9703,
O'denbarうまみ代官山店,飲食,日本料理,その他,渋谷区代官山町13-8キャッスルマンション代官山104,03-6416-9209,
おにぎり原宿三丁目たるら,飲食,日本料理,その他,渋谷区神宮前1-21-2 1F,03-6674-0799,
表参道バル　エルヴエロ,飲食,居酒屋,居酒屋,渋谷区神宮前5-50-6サクセス青山ビル2階,03-6427-7197,
オラスイーツ,飲食,喫茶店・カフェ,パーラー,渋谷区笹塚1-60-7サンコーポビル1f,080-5512-6921,
オリエンタルテーブルアマ恵比寿店,飲食,外国料理,東南アジア料理,渋谷区恵比寿1-4-1恵比寿ア-バンハウス104,03-5420-0557,
オリエンタルテーブルアマ代々木店,飲食,外国料理,東南アジア料理,渋谷区代々木1-32-12パリス　ビル3階,03-3374-3599,
お料理Miee,飲食,日本料理,小料理,渋谷区千駄ヶ谷3-3-3エグゼクティブ原宿B1-C,03-6434-9566,
俺の炉ばた恵比寿,飲食,外国料理,イタリア料理,渋谷区恵比寿西一丁目7番12号MKTビル 2F,03-6416-3991,
音楽茶房Buddy-Buddy,飲食,その他(バー・クラブ・スナックなど),カフェバー,渋谷区本町1-58-6木下ビル　1F,03-6300-6033,
オンザヒル,飲食,外国料理,イタリア料理,渋谷区恵比寿西2-15-9代官山フラット一階,03-6455-0719,
On The Wine,飲食,外国料理,イタリア料理,渋谷区桜丘町30-9桜丘芳和ビルB1,03-6416-5673,
ONZS,飲食,外国料理,フランス料理,渋谷区猿楽町2-14プラスリノ猿楽町3F,03-6712-7041,https://onzs-shibuya.com/
ONZE,飲食,居酒屋,居酒屋,渋谷区笹塚3-19-2,080-1178-6035,
穏田珈琲,飲食,喫茶店・カフェ,喫茶店・カフェ,渋谷区神宮前4-13-2,03-6434-0460,
オーガニック鮨大内,飲食,日本料理,寿司,渋谷区渋谷2丁目8-4佐野ビル1F,03-3407-3543,
Ocho Taqueria Mexican オーチョ タケリア メキシカン,飲食,外国料理,その他,渋谷区神宮前2丁目3-30 B1F第2竹上ビル,03-3470-0308,https://www.instagram.com/ocho_taqueria_mexican/
オーツー,飲食,その他(バー・クラブ・スナックなど),バー,渋谷区幡ヶ谷2-12-17清水荘1F-A,03-4296-3960,
オー・ペシェ・グルマン,飲食,外国料理,フランス料理,渋谷区幡ヶ谷2-24-2須原屋ビル1階,03-6276-6332,http://instagram.com/aupechegourmand.hatagaya
海,飲食,居酒屋,居酒屋,渋谷区笹塚2-16-4アロービル101,03-3375-2283,
海月,飲食,日本料理,その他,渋谷区渋谷2-2-4アルコーブ青山204,03-3486-5778,
海鮮処向井,飲食,日本料理,日本料理,渋谷区神泉町15-61F,080-7652-6625,
海鮮ワイン酒房　VINDUSTRY,飲食,外国料理,イタリア料理,渋谷区神山町4-18フィルトップ神山　2F,03-6804-7034,https://m.facebook.com/vindustryshibuya/
カイトバル,飲食,外国料理,イタリア料理,渋谷区恵比寿西1-7-13スウィングビル1F,03-6416-9930,
Counter Sharing imantokoro,飲食,その他(バー・クラブ・スナックなど),バー,渋谷区宇田川町37-15ARISTO渋谷 Le Comptoir 内,090-3662-3924,https://www.instagram.com/imantokoro/
隠れ酒場　円空,飲食,居酒屋,居酒屋,渋谷区道玄坂1-15-7アネックスサクマ201,03-6416-5290,
カジュアル日本酒バー94,飲食,居酒屋,居酒屋,渋谷区南平台町1-6,03-6416-3993,
カタネカフェ,飲食,喫茶店・カフェ,喫茶店・カフェ,渋谷区西原1-7-5,03-3466-9834,
カタラタス,飲食,その他(バー・クラブ・スナックなど),その他,渋谷区桜丘町16-14ドルチェ渋谷B202,03-3461-6615,
割烹季誠,飲食,日本料理,日本料理,渋谷区幡ヶ谷2-25-3アーバン幡ヶ谷1F,03-6383-3639,https://www.instagram.com/kappou.kise?igsh=cnR4azJtN2xrdHlz&utm_source=qr
かつお食堂,飲食,日本料理,その他,渋谷区鶯谷町7-12B1,03-6877-5324,
かなた,飲食,居酒屋,居酒屋,渋谷区宇田川町31-9ハナテイビル 6階,050-3467-7019,
カフェアンソロジア,飲食,その他(バー・クラブ・スナックなど),カフェバー,渋谷区富ヶ谷1-12-7田村ビル101,03-3485-7865,
Cafe1008,飲食,喫茶店・カフェ,喫茶店・カフェ,渋谷区神宮前1-1-10SCC千駄ヶ谷コミュニティセンター内,080-4078-9273,
Cafe＆Bar1985,飲食,喫茶店・カフェ,喫茶店・カフェ,渋谷区道玄坂2-22-6CREA道玄坂1F,03-6427-0551,
Cafe&bar The4th EBISU,飲食,その他(バー・クラブ・スナックなど),バー,渋谷区恵比寿南2-3-12je1ビル2F,03-5724-3409,
Cafe＆Bar　753～nagomi～,飲食,その他(バー・クラブ・スナックなど),バー,渋谷区笹塚2-14-6ディアレストケイオーB1F,03-3376-5555,
カフェアンドバーニコ,飲食,その他(バー・クラブ・スナックなど),カフェバー,渋谷区千駄ヶ谷4-29-12北参道ダイヤモンドパレス106,03-6384-5957,
Cafe and Bar Margarita,飲食,その他(バー・クラブ・スナックなど),カフェバー,渋谷区幡ヶ谷2-5-4セイジョービル2F,03-6276-2217,https://www.instagram.com/takepal_margarita/?hl=ja
cafe＆Bar Rooster,飲食,その他(バー・クラブ・スナックなど),バー,渋谷区恵比寿南2-2-1込山ビルB1,03-3760-3909,http://www.ebisu-rooster.com
cafe&diningポポラーレ,飲食,外国料理,イタリア料理,渋谷区本町3-44-2カーサS1階,03-5371-3557,
Cafe tomarigi,飲食,喫茶店・カフェ,喫茶店・カフェ,渋谷区大山町46番12号THEONETHIRD大山町401号室,080-4530-0707,
カフェ・ド・チャコ,飲食,喫茶店・カフェ,喫茶店・カフェ,渋谷区恵比寿1-33-10タキセビル1階,03-5860-2110,
カフェナイン,飲食,喫茶店・カフェ,喫茶店・カフェ,渋谷区代々木5-38-6ガーリックビル1階,03-6875-0353,
cafeNABE,飲食,喫茶店・カフェ,喫茶店・カフェ,渋谷区本町2-39-1eフラット1f,03-6276-8333,
cafe nook,飲食,喫茶店・カフェ,喫茶店・カフェ,渋谷区代々木1-37-3岩崎ビル地下1階,03-3373-7009,https://www.facebook.com/yoyogi.cafenook
cafebar home S,飲食,その他(バー・クラブ・スナックなど),カフェバー,渋谷区恵比寿南1-7-8ニューライフ恵比寿204,03-6303-2916,
cafebar LIL,飲食,喫茶店・カフェ,喫茶店・カフェ,渋谷区代々木5-67-8MAKITAKIビル3階,03-5738-8162,
カフェフラッティーザスタンダードトウキョウ,飲食,喫茶店・カフェ,喫茶店・カフェ,渋谷区千駄ヶ谷1-21-4かがみビル1階,03-6271-4568,
Cafe ミカエル,飲食,喫茶店・カフェ,喫茶店・カフェ,渋谷区代々木5-55-5 2F「隠れのみ処諸星」内,090-8047-8480,
Cafe Midori,飲食,喫茶店・カフェ,喫茶店・カフェ,渋谷区神宮前2-3-28,090-9840-1225,
カフェRaiRai,飲食,喫茶店・カフェ,喫茶店・カフェ,渋谷区西原2-28-1,03-3466-5503,
カフェル・ポミエ,飲食,喫茶店・カフェ,喫茶店・カフェ,渋谷区神宮前5-8-2日本看護協会ビル2階,03-6427-9193,
カフェ・レストラン泥人形,飲食,喫茶店・カフェ,喫茶店・カフェ,渋谷区千駄ヶ谷4-20-2民主青年会館　B1,03-3404-3646,
カフェフラッティーザスタンド,飲食,喫茶店・カフェ,喫茶店・カフェ,渋谷区千駄ヶ谷3-33-6101,03-6447-0697,
株式会社ALAWA,飲食,その他(バー・クラブ・スナックなど),バー,渋谷区恵比寿4-9-1武川ビル2階,080-1166-2935,
株式会社宇治園裏参道ガーデン店,飲食,喫茶店・カフェ,喫茶店・カフェ,渋谷区神宮前4-15-2裏参道ガーデン1F壱番,070-4448-0217,
株式会社nsp,飲食,居酒屋,居酒屋,渋谷区宇田川町37-14塚田ビル2階,03-6416-8806,
株式会社太陽食堂,飲食,居酒屋,居酒屋,渋谷区幡ヶ谷2-8-10リッシェル幡ヶ谷103号,03-3374-7350,
株式会社花菱,飲食,日本料理,うなぎ,渋谷区道玄坂2-16-7花菱ビル1階,03-3461-2622,
株式会社　松木家,飲食,日本料理,その他,渋谷区円山町6-8松木家ビル1階　　,03-3461-2651,
Cabotte,飲食,外国料理,フランス料理,渋谷区桜丘町12-5桜丘Kビル　地下1階,03-3462-7790,
comecafe  Osamu bar,飲食,喫茶店・カフェ,喫茶店・カフェ,渋谷区鶯谷町8-10代官山トゥエルブ2 2F-A,090-6538-138,
かもん,飲食,その他(バー・クラブ・スナックなど),バー,渋谷区上原1-35-9,080-6776-1122,
粥麺楽屋喜々,飲食,外国料理,中国料理,渋谷区神宮前2-6-6秀和外苑レジデンス,03-5474-6691,https://tabelog.com/tokyo/A1306/A130603/13020662/
唐揚げ餃子忠吉,飲食,居酒屋,居酒屋,渋谷区本町3丁目8番10号,03-6276-7779,
カラオケスナックМ,飲食,その他(バー・クラブ・スナックなど),スナック・パブ・キャバレー,渋谷区神山町9-14白樺ビル103,070-4531-0717,
Carasawagi Bar,飲食,その他(バー・クラブ・スナックなど),バー,渋谷区笹塚1-57-10笹塚駅前ビル2F,03-5388-9785,https://r.gnavi.co.jp/8grmdk8y0000/?sc_lid=smp_top_01
CALLASTOKYO,飲食,その他(バー・クラブ・スナックなど),カフェバー,渋谷区富ヶ谷2-45-21,070-8354-8282,
辛トォンデジ,飲食,外国料理,韓国料理,渋谷区道玄坂1-20-12MT道玄坂ビル1F,03-3464-6653,
カリヒオ,飲食,外国料理,インド料理,渋谷区幡ヶ谷2-48-7細谷荘1F,03-5371-0125,
カリビアンレストランサニーカフェ,飲食,外国料理,その他,渋谷区広尾1-6-6第一三輪ビル102,03-6456-2217,
CARIMELLO,飲食,外国料理,その他,渋谷区富ヶ谷1-8-7飯島ビル1階,03-5453-8518,
CURRY&SPICE 青い鳥,飲食,外国料理,その他,渋谷区幡ヶ谷2丁目47-12ハウス満盛 2F,03-6276-0082,
かわど,飲食,喫茶店・カフェ,喫茶店・カフェ,渋谷区恵比寿1-8-14大黒ビル1F 恵比寿ストア内 かわど,090-2036-4639,
韓国家庭料理アシア,飲食,外国料理,韓国料理,渋谷区代々木4-5-1ダイヤビル109,03-5371-2005,
韓国語で話せBAR,飲食,その他(バー・クラブ・スナックなど),バー,渋谷区猿楽町2-14プラスリノ猿楽町4階,090-1976-1000,
韓国食堂トォンデジ,飲食,外国料理,韓国料理,渋谷区桜丘町16番地7鈴木ビル1F,03-3770-2939,
韓国料理らーたん,飲食,外国料理,韓国料理,渋谷区笹塚1-58-13フィエスタ笹塚3F,03-5304-4884,
CANTINA REGALO,飲食,外国料理,イタリア料理,渋谷区代々木4-6-2宍戸ビルB1F,03-6383-3384,
カンパイ!BUTTON,飲食,その他(バー・クラブ・スナックなど),カフェバー,渋谷区笹塚1-57-10笹塚駅前ビル2F WAIGAYA内,03-6680-7371,https://instagram.com/canpai_button?igshid=YmMyMTA2M2Y
カーサベッラ,飲食,外国料理,イタリア料理,渋谷区神宮前2-3-30第二竹上ビルB1,03-6804-1495,http://www.hostariacasabella.com/
カーニャパッソ,飲食,居酒屋,ダイニング・バー,渋谷区代々木1-32-9吉川代々木ビルB1F,070-1537-7237,
コズミックダイニング・GAILA,飲食,外国料理,無国籍料理,渋谷区初台1-36-1,03-5388-8437,
GatemoTabum　ガテモタブン,飲食,外国料理,その他,渋谷区上原1-22-5,03-3466-9590,https://www.gatemotabum.com/
GATO,飲食,喫茶店・カフェ,喫茶店・カフェ,渋谷区本町6-38-3松島ビル1階,080-3272-3820,
がらり千駄ヶ谷店,飲食,居酒屋,居酒屋,渋谷区千駄ヶ谷2-6-4がらり千駄ヶ谷店,03-5786-1820,
元祖うな鐡,飲食,日本料理,うなぎ,渋谷区道玄坂道玄坂2-8-8コスモ渋谷館1階,03-3461-9024,http://www.unatetsu.com
元祖シュウマイ酒場　野田焼売店,飲食,居酒屋,居酒屋,渋谷区千駄ヶ谷5-18-1,050-5456-1908,
樹安亭,飲食,喫茶店・カフェ,喫茶店・カフェ,渋谷区千駄ヶ谷5-21-2松友ビル　1F,090-4919-0173,
キガルニワショク弾,飲食,居酒屋,居酒屋,渋谷区上原1-33-12ちとせビル202,03-6804-8935,
きくちや,飲食,居酒屋,居酒屋,渋谷区西原3丁目23-62Fプラド,080-9050-9058,
BAR KIZUKI,飲食,その他(バー・クラブ・スナックなど),バー,渋谷区渋谷1丁目8番地5号グローリア宮益坂10階,03-6434-1309,
KITASANDO COFFEE,飲食,喫茶店・カフェ,喫茶店・カフェ,渋谷区千駄ヶ谷4丁目12-8SSUビル1F,070-9154-5483,
きたぽん酒,飲食,その他(バー・クラブ・スナックなど),バー,渋谷区広尾1-10-5日興パレス広尾プラザ103,03-6882-4800,
喫茶おおいずみ,飲食,喫茶店・カフェ,喫茶店・カフェ,渋谷区笹塚3-19-5大泉商店ビル1F,03-3377-5996,
喫茶室 とし,飲食,喫茶店・カフェ,喫茶店・カフェ,渋谷区恵比寿西1丁目8-2ウエストパレスビル1階,090-8596-6592,
喫茶SMiLE 喫茶スマイル,飲食,その他(バー・クラブ・スナックなど),バー,渋谷区宇田川町11-11柳光ビル本館3F,080-5546-9657,http://www.udagawasmile.com
喫茶ダンボ,飲食,喫茶店・カフェ,喫茶店・カフェ,渋谷区初台1-39-10,03-3379-6799,
喫茶と酒場　代官山ジャンプ,飲食,喫茶店・カフェ,喫茶店・カフェ,渋谷区代官山町13-4セレサ代官山2階,03-6455-1815,
喫茶バー　ナイマ,飲食,喫茶店・カフェ,喫茶店・カフェ,渋谷区上原3-2-2,03-5453-0169,
kitchen&bar MORIS,飲食,居酒屋,ダイニング・バー,渋谷区東2-20-16estマニヴィアB1F,03-6451-1683,http://www.morismoris.com/
キッチンかねじょう,飲食,外国料理,その他,渋谷区幡ヶ谷2-47-1本田ビル1階,03-6276-1514,
キッチンカーAZITO,飲食,その他(バー・クラブ・スナックなど),その他,渋谷区神宮前2丁目31-8,090-7758-8964,
キッチンシロップ,飲食,喫茶店・カフェ,その他,渋谷区幡ヶ谷1-32-15笹峰ぎゃらりー1階,070-1596-0632,
kitchen GCH,飲食,その他(バー・クラブ・スナックなど),その他,渋谷区笹塚3-19-4平野ビル1F,03-5843-5343,
キッチン髙野,飲食,外国料理,中国料理,渋谷区本町4-43-1,090-8808-2772,
キッチン屯,飲食,居酒屋,居酒屋,渋谷区広尾5-19-3マチダビル一階,090-2871-6552,
キッチンハセガワ,飲食,外国料理,その他,渋谷区円山町22-16,03-6416-1081,https://kitchen-hasegawa.com/
キッチンふるはし,飲食,ステーキ・焼肉,その他,渋谷区広尾5-18-2,03-3444-3733,
キッチンわたりがらす,飲食,外国料理,無国籍料理,渋谷区東3-24-14エクセルハイム恵比寿1階,03-3797-1515,
紀風,飲食,日本料理,日本料理,渋谷区恵比寿ターレル恵比寿1階,03-5422-7792,https://www.ebisu-kihuu.com/
きまぐれクミコ,飲食,その他(バー・クラブ・スナックなど),カフェバー,渋谷区道玄坂2-20-26藤和エクシール道玄坂B1-5,03-6427-0838,
気まぐれダイニングBAR PONすけ,飲食,その他(バー・クラブ・スナックなど),バー,渋谷区幡ヶ谷2-20-6第10岩田ビル,03-3374-6460,
キミドリ.,飲食,居酒屋,その他,渋谷区渋谷3丁目12番24号小池ビル1F小池ビル,03-5468-3289,
木本商店,飲食,居酒屋,居酒屋,渋谷区幡ヶ谷3-8-7,03-5351-0848,
CAMELBACK RICH VALLEY,飲食,喫茶店・カフェ,喫茶店・カフェ,渋谷区富ヶ谷1-9-23服部ビル102,03-6407-9969,
CAMELOT,飲食,その他(バー・クラブ・スナックなど),クラブ,渋谷区神南1丁目18番2号フレーム神南坂B1～B3,03-5728-5613,
キュマン,飲食,外国料理,無国籍料理,渋谷区代々木4-11-16,090-6182-2135,
京料理　阿うん,飲食,日本料理,日本料理,渋谷区富ヶ谷 1-33-6代々木パークサイドB1,050-3628-6763,https://www.tablecheck.com/ja/shops/aun/reserve
㐂宵,飲食,居酒屋,居酒屋,渋谷区宇田川町36-16プラザマリーナビル103,03-6427-0748,https://www.instagram.com/777.sake/
清武,飲食,居酒屋,居酒屋,渋谷区松濤1-29-2松涛スクエアビル地下1階,03-6455-0064,
金ちゃん渋谷2号店,飲食,外国料理,韓国料理,渋谷区宇田川町28-15サンマルジェビル5階,03-3461-6655,
金ちゃん渋谷本店,飲食,外国料理,韓国料理,渋谷区宇田川町30-5渋谷JOWビル9階,03-6455-3838,
有限会社きんはる,飲食,居酒屋,居酒屋,渋谷区上原1丁目34番7号和田ビル1階,03-3469-1410,
ぎっちょん,飲食,居酒屋,ダイニング・バー,渋谷区神宮前2-22-1長谷川ビル1F,03-3402-3164,
ギャラリーコンシールシブヤ,飲食,喫茶店・カフェ,喫茶店・カフェ,渋谷区道玄坂1-11-3富士商事ビル4F,03-3463-0720,
Gallery Bar 余白,飲食,その他(バー・クラブ・スナックなど),バー,渋谷区本町2-1-7フォレスト初台102,03-5843-5392,
ギャラリー雪月花タイ料理サムロー神泉,飲食,外国料理,東南アジア料理,渋谷区神泉町14-13ギャラリー雪月花ゆづか　SaamRoa,090-7833-3710,
牛タンいろ葉別邸,飲食,居酒屋,居酒屋,渋谷区千駄ヶ谷5-20-10ほぼ新宿のれん街,03-3354-3130,
牛丸,飲食,ステーキ・焼肉,焼肉,渋谷区宇田川町30-5渋谷JOWビル 8階,03-6712-7871,
QUEEN MAJESTEA,飲食,喫茶店・カフェ,喫茶店・カフェ,渋谷区幡ヶ谷3-16-7Repia-M102,090-3109-0474,
空雅,飲食,ステーキ・焼肉,焼肉,渋谷区恵比寿1-6-7animoebisu 3F,03-6450-3885,
九月堂,飲食,外国料理,中国料理,渋谷区神南1-15-12佐藤ビル2階,03-6327-4056,https://www.kugatsudo.net/
KUKUTANA,飲食,その他(バー・クラブ・スナックなど),その他,渋谷区桜丘町23番17号シティコート桜丘408,070-8435-5540,
串揚げ酒場あすれ,飲食,居酒屋,居酒屋,渋谷区笹塚3-19-2青田ビル1C,090-3585-6528,
串揚げひなた,飲食,居酒屋,居酒屋,渋谷区代々木1-42-2代々木berry102,03-6276-8289,
串いろいろとわっぱ飯　民家,飲食,居酒屋,居酒屋,渋谷区恵比寿南2丁目2番2号K・Tビル,03-3760-2400,
串カツ民屋代々木上原店,飲食,居酒屋,居酒屋,渋谷区上原1-35-2上原銀座ビル2F,03-5453-6070,
串音,飲食,日本料理,とんかつ・串かつ,渋谷区道玄坂2-23-13渋谷デリタワー5階,090-5793-3356,http://kushine.com
串焼き七福,飲食,居酒屋,居酒屋,渋谷区富ヶ谷1-3-12エムプレイス201,03-3469-4989,
串焼ダイニング十兵衛,飲食,居酒屋,ダイニング・バー,渋谷区恵比寿南1-23-5アメリカンブリッジカンパニービル1F,03-3719-2833,
串焼と酒　一佳,飲食,居酒屋,居酒屋,渋谷区恵比寿1-4-1恵比寿アーバンハウス109,03-3444-0801,
串や　馬加羅亭,飲食,居酒屋,居酒屋,渋谷区恵比寿3-4-3第四得丸ビル1階,03-3442-2547,
CUCINA DIESEL FARM,飲食,外国料理,イタリア料理,渋谷区渋谷1-23-16cocoti 1F,03-3409-5670,
CUJORL,飲食,外国料理,その他,渋谷区桜丘町22-8縣ビル1F,03-5784-5818,
クライネヒュッテ,飲食,居酒屋,居酒屋,渋谷区代々木2-11-5アクティブ新宿B1,03-3320-3557,
CLIMB,飲食,居酒屋,ダイニング・バー,渋谷区神宮前1-8-5メナー4F,090-3685-2926,
Crowny cafe Stand,飲食,喫茶店・カフェ,喫茶店・カフェ,渋谷区代々木1-38-6星野ビル1階,03-6300-7766,https://crownycafe.com/
KURA 渋谷店,飲食,外国料理,イタリア料理,渋谷区渋谷1-24-7渋谷フラットビル1F,03-5466-1010,
Craft Curry Brothers BASE 代々木,飲食,日本料理,その他,渋谷区代々木3丁目13-1Smi:re Yoyogi 1階,090-5683-4466,
Craftbeer gau's,飲食,その他(バー・クラブ・スナックなど),カフェバー,渋谷区神山町16-4ヴィラメトロポリス2A,090-1538-8485,
クラフトビール量り売り TAP&CROWLER 渋谷店,飲食,その他(バー・クラブ・スナックなど),バー,渋谷区宇田川町6-20パラシオン渋谷1階,03-6416-5948,https://www.craft-beers.shop
クラフトビール量り売りTAP&TUMBLER恵比寿店,飲食,居酒屋,ビアホール,渋谷区恵比寿恵比寿MFビル1階,03-6456-3235,https://www.instagram.com/taptumbler_/
CLUB HEAVY SICK,飲食,その他(バー・クラブ・スナックなど),ライブハウス,渋谷区西原2-27-4升本ビルB1,03-3466-1445,
クラブ　リズ,飲食,その他(バー・クラブ・スナックなど),スナック・パブ・キャバレー,渋谷区幡ヶ谷2-13-3幡ヶ谷駅前サンクスビル2F,03-3376-6310,
CREAM PAND BAKERs,飲食,喫茶店・カフェ,喫茶店・カフェ,渋谷区恵比寿西2-14-10TWONE代官山1F-B,080-4307-0351,
くるり恵比寿,飲食,居酒屋,居酒屋,渋谷区恵比寿西1-7-9恵比寿タイムハウスビル3階,080-1430-0308,
クレープとエスプレッソと,飲食,喫茶店・カフェ,喫茶店・カフェ,渋谷区神宮前4-13-20,03-6804-6040,
黒毛七厘,飲食,外国料理,その他,渋谷区恵比寿1-23-16第六大浦ビル102,03-6277-3267,
黒豚・地鶏ダイニング　SATSUMA,飲食,居酒屋,居酒屋,渋谷区神宮前1-23-26神宮前123ビル　1階,090-5299-0798,
燻製酒場おりおん,飲食,居酒屋,居酒屋,渋谷区渋谷1-25-10渋谷のんべい横丁,03-6416-3341,
燻製BARオリオン,飲食,その他(バー・クラブ・スナックなど),バー,渋谷区神南1-20-9パークウェイ渋谷2階,03-6416-3341,
クークー,飲食,喫茶店・カフェ,その他,渋谷区西原1-7-8,03-6873-9120,
guenin cafe,飲食,喫茶店・カフェ,喫茶店・カフェ,渋谷区恵比寿1-22-23,070-1266-6789,
グッドグッドノットバッド,飲食,喫茶店・カフェ,喫茶店・カフェ,渋谷区宇田川町4番8号昭和ビル101,03-6388-1286,
gudene,飲食,その他(バー・クラブ・スナックなど),カフェバー,渋谷区渋谷2丁目7番13号ネオメット青山2階,03-3407-5450,
Grunge,飲食,その他(バー・クラブ・スナックなど),バー,渋谷区西原2-28-4宮嶋ビルB1-1,03-6407-0240,
GRATIALLIGO,飲食,その他(バー・クラブ・スナックなど),バー,渋谷区代々木1-45-10NJビル1F,03-6276-7668,
Green Sloth,飲食,その他(バー・クラブ・スナックなど),バー,渋谷区神泉町8-12ザ・シティ渋谷神泉3F,03-6416-4559,https://retty.me/area/PRE13/ARE8/SUB804/100001458269/
グルテンフリーおばんざいLL,飲食,日本料理,小料理,渋谷区西原3-4-5山田ビル4F,080-5866-5927,
グルーキー,飲食,居酒屋,居酒屋,渋谷区恵比寿南1-2-6サンポウ恵比寿ビル301,03-6452-2211,
グレイ,飲食,その他(バー・クラブ・スナックなど),バー,渋谷区恵比寿南2-3-3第一恵比寿マンション地下1階,03-6452-3929,
グレムリン,飲食,居酒屋,ビアホール,渋谷区幡ヶ谷1-3-1ゴールデンセンターB1,03-6300-5723,
軽食喫茶栞,飲食,喫茶店・カフェ,喫茶店・カフェ,渋谷区幡ヶ谷1-3-1幡ヶ谷ゴールデンマンションB1,03-3374-5993,
ケニックカレー,飲食,外国料理,インド料理,渋谷区宇田川町13番9号KN渋谷2ビル4階,03-6884-2188,
KEBAB CAFE,飲食,外国料理,その他,渋谷区道玄坂2-25-10ベニー道玄坂ビル1階,03-3780-1367,
ケバブボックスジェイ,飲食,外国料理,その他,渋谷区神宮前1-8-8コクシー188ビル1F,03-3470-0706,
煙仄,飲食,喫茶店・カフェ,喫茶店・カフェ,渋谷区代々木2-39-1エクランYS2 2F,03-6876-8195,
喧騒,飲食,居酒屋,居酒屋,渋谷区道玄坂1-13-2萬全社ビル3F,090-3996-7666,
KKW.softcream,飲食,喫茶店・カフェ,喫茶店・カフェ,渋谷区富ヶ谷1-8-2代々木ホームズ1階,050-1809-3096,https://softcream-kkw.com/
CASE広尾,飲食,外国料理,その他,渋谷区広尾5-18-2,03-6240-6969,
GET BETTERcoffee&sandwich,飲食,喫茶店・カフェ,喫茶店・カフェ,渋谷区本町2-7-9,03-6300-6045,
現実逃避,飲食,その他(バー・クラブ・スナックなど),バー,渋谷区恵比寿1-22-27マガザン恵比寿8階,03-5422-6955,
Kouji＆ko ITALIAN,飲食,外国料理,イタリア料理,渋谷区桜丘町16-13桜丘フロントⅡビル2F,03-6277-5010,
神戸　みなと屋,飲食,喫茶店・カフェ,喫茶店・カフェ,渋谷区笹塚2-41-20岡田ビル1F,03-6383-3120,
神戸焼肉かんてき　渋谷店,飲食,ステーキ・焼肉,焼肉,渋谷区道玄坂2-7-6,03-3461-1029,
神戸焼肉かんてき　渋谷ハナレ店,飲食,ステーキ・焼肉,焼肉,渋谷区道玄坂2-6-74階,03-6455-0229,
黄金屋渋谷店,飲食,居酒屋,居酒屋,渋谷区道玄坂1-3-11一番ビルB1F,03-5728-8600,
黒牛,飲食,ステーキ・焼肉,焼肉,渋谷区代々木3-1-11パシフィックスクエア代々木,03-6803-1129,https://www.instagram.com/kokugyu_yoyogi/?hl=ja
湖月,飲食,日本料理,日本料理,渋谷区神宮前5-50-10ぴゅあ1,03-3407-3033,https://www.kogetsu.tokyo
KO‐KO,飲食,その他(バー・クラブ・スナックなど),バー,渋谷区道玄坂2-26-5ひまわりビル2F,03-3463-8226,
COCO-agepan,飲食,その他(バー・クラブ・スナックなど),その他,渋谷区神宮前5-17-16101,050-5899-5031,
ココリコ渋谷店,飲食,外国料理,イタリア料理,渋谷区渋谷3-27-11GEMS渋谷5F,03-5485-7621,
こころ-想-,飲食,日本料理,日本料理,渋谷区神宮前6-10-4COMS神宮前1階,03-6427-1336,
こしの,飲食,日本料理,小料理,渋谷区道玄坂2-16-19都路ビル105,03-3770-9888,
コジンシュギ,飲食,居酒屋,ダイニング・バー,渋谷区桜丘町29-5石島ビル201,070-5558-1894,
コスタブラバ,飲食,外国料理,スペイン料理,渋谷区笹塚1-15-5堀内ビル201,03-3465-5255,
COSMOS JUICE TOMIGAYA,飲食,喫茶店・カフェ,喫茶店・カフェ,渋谷区富ヶ谷2-23-5富ヶ谷アルコーブ1F,03-5772-2765,
東風-cochi-,飲食,喫茶店・カフェ,喫茶店・カフェ,渋谷区鶯谷町15-10ロイヤルパレス渋谷103,03-6712-7858,https://www.instagram.com/cochi_shibuya
コップンタイガー,飲食,外国料理,東南アジア料理,渋谷区道玄坂1-11-3富士商事ビル3F,03-6277-5246,
コテ・フー,飲食,外国料理,フランス料理,渋谷区鶯谷町8-10代官山トゥエルブ2 / 1階D区画,03-3461-2024,
コトBAR,飲食,その他(バー・クラブ・スナックなど),バー,渋谷区道玄坂2-7-6三喜ハウス地下1階,03-6416-3817,https://www.facebook.com/cotobar.shibuya
此ノ奥,飲食,居酒屋,居酒屋,渋谷区富ヶ谷1-53-3Fビル1階,090-1111-1616,
coの食卓,飲食,喫茶店・カフェ,喫茶店・カフェ,渋谷区宇田川町5-6渋谷区子育てネウボラ 2F,03-6455-3760,https://www.instagram.com/co_shokutaku/
KOBUSHI BEER LOUNGE & BAR,飲食,その他(バー・クラブ・スナックなど),バー,渋谷区道玄坂2-17-2トップ美奄 2F,050-5373-6373,
駒テラス西参道カフェ,飲食,喫茶店・カフェ,喫茶店・カフェ,渋谷区代々木四丁目17番4号,03-6300-5721,
小麦っ娘,飲食,居酒屋,その他,渋谷区広尾5-2-25本国ビル3階,03-6450-3956,
米子,飲食,居酒屋,居酒屋,渋谷区幡ヶ谷2-5-3,03-6276-5959,
米福,飲食,日本料理,その他,渋谷区恵比寿西1-4-2川田ビルB1F,03-6416-3855,
COYORI,飲食,その他(バー・クラブ・スナックなど),カフェバー,渋谷区広尾5-14-4広尾SKビル2F,070-8315-0902,
小料理割烹祥じ,飲食,日本料理,日本料理,渋谷区笹塚1-21-6,03-6804-9027,
小料理左門,飲食,居酒屋,居酒屋,渋谷区幡ヶ谷2-47-1小路ビル1-D,03-3374-5680,
小料理 百けん,飲食,居酒屋,居酒屋,渋谷区道玄坂2-20-10豊田ビル1階,03-6455-3808,
CONCENT,飲食,喫茶店・カフェ,喫茶店・カフェ,渋谷区本町6-34-8,03-3373-8128,
Concerto,飲食,外国料理,イタリア料理,渋谷区上原1-29-5BIT代々木上原B1,03-6804-8794,
Convivio,飲食,外国料理,イタリア料理,渋谷区千駄ヶ谷3-17-12カミムラビル1F,03-6434-7907,https://convivio.jp/
COZYHOUSE,飲食,その他(バー・クラブ・スナックなど),バー,渋谷区道玄坂2-19-11FABRIC渋谷5F,03-6277-5090,
珈琲家族,飲食,喫茶店・カフェ,喫茶店・カフェ,渋谷区恵比寿南1-2-8雨宮ビル　B1F,03-3710-8124,
珈琲カンタータ,飲食,喫茶店・カフェ,喫茶店・カフェ,渋谷区幡ヶ谷2-15-9,090-7259-8991,
COFFEE KIOSK ROASTER,飲食,喫茶店・カフェ,喫茶店・カフェ,渋谷区千駄ヶ谷5-6-7トーエイハイツ1C,03-6274-8411,https://www.instagram.com/coffeekioskroaster/
CoffeeCrevice,飲食,喫茶店・カフェ,喫茶店・カフェ,渋谷区代々木4-2-9ピーズビル2F,03-3370-7256,
コーヒースタンド烏,飲食,喫茶店・カフェ,喫茶店・カフェ,渋谷区桜丘町30-15ビバリーヒルズ102,03-6416-3918,
珈琲店トップ　駅前店,飲食,喫茶店・カフェ,喫茶店・カフェ,渋谷区道玄坂1-4-19,03-3461-1170,
珈琲店トップ　道玄坂店,飲食,喫茶店・カフェ,喫茶店・カフェ,渋谷区道玄坂2-29-8道玄坂センタービルB1,03-3461-1624,
珈琲風味,飲食,喫茶店・カフェ,喫茶店・カフェ,渋谷区幡ヶ谷3-57-1MKハイツ,03-3378-6635,
コーヒープンクト,飲食,喫茶店・カフェ,喫茶店・カフェ,渋谷区代々木2-12-3プーク人形劇場1階,070-6998-5184,
五音,飲食,居酒屋,居酒屋,渋谷区元代々木町3-7大森ビル1階,03-5738-8645,
極樂食堂(極楽食堂)代々木上原店,飲食,その他(バー・クラブ・スナックなど),カフェバー,渋谷区元代々木町9-4山口ビル1階,03-6804-7797,
ごはん・ごはん,飲食,日本料理,その他,渋谷区西原2-30-2,03-3466-4032,
ごんべえ,飲食,居酒屋,居酒屋,渋谷区宇田川町31-3第三田中ビルB1F,03-3461-8383,
歳月,飲食,外国料理,中国料理,渋谷区恵比寿2丁目17-25ジョイナービル 1F,03-6459-3222,
CIDER SHACK,飲食,居酒屋,ビアホール,渋谷区東1-27-9奥山ビル1F,03-6450-5680,
Cidernaut,飲食,居酒屋,ビアホール,渋谷区神山町16-4堀内ビル,03-6407-8848,
サウダーヂな東京,飲食,その他(バー・クラブ・スナックなど),カフェバー,渋谷区上原1-32-5ロイヤルテラス202,03-6407-9989,
魚きんめ,飲食,居酒屋,居酒屋,渋谷区道玄坂2-6-14HYビル2F,080-3427-8752,
魚十二ヶ月,飲食,居酒屋,居酒屋,渋谷区代々木1-58-7ヴェラハイツ代々木104,03-3370-1142,
魚の兆治,飲食,居酒屋,居酒屋,渋谷区幡ヶ谷1-6-3 1F,03-3373-5355,
魚屋　かどはち,飲食,日本料理,寿司,渋谷区代官山町20-9H　ビルディング代官山　1階,03-6455-2501,
魚屋きいもん,飲食,居酒屋,居酒屋,渋谷区恵比寿1-26-15,03-5420-1232,
坂の上ホタル,飲食,外国料理,その他,渋谷区西原3-21-1ホタルビル2F,03-5738-7334,
酒場ガソリン,飲食,居酒屋,居酒屋,渋谷区幡ヶ谷2-9-16ライベストコート幡ヶ谷206,03-3373-5520,
酒場てづか,飲食,居酒屋,居酒屋,渋谷区道玄坂1-13-1Mビル1階,03-6455-0452,
酒場　まるしゑ,飲食,居酒屋,居酒屋,渋谷区西原3-11-6杉本ビルB1,03-6804-9104,
酒場RESISTANCE,飲食,居酒屋,居酒屋,渋谷区幡ヶ谷2-9-19青木ビル2F,03-6383-3205,
SAKUU,飲食,喫茶店・カフェ,喫茶店・カフェ,渋谷区千駄ヶ谷3-55-18REALGATE Bldg. 1F,03-5422-3069,https://www.jinnan.house
桜ガーデン渋谷 SAKURA GARDEN,飲食,外国料理,その他,渋谷区宇田川町30-5JOWビル5F,03-6427-0545,
sake x oysters BAR　石花,飲食,居酒屋,その他,渋谷区猿楽町6-12,03-6416-1128,
酒とご飯ビオサケダイニングリンリン,飲食,居酒屋,居酒屋,渋谷区道玄坂1-22-11星野ビルB!,080-6542-1892,https://www.instagram.com/biosakedining/
酒と魚の隠れ家兼六,飲食,居酒屋,居酒屋,渋谷区幡ヶ谷2-13-4定石ビル地下1階,03-6276-5175,https://hatagaya-kenroku.com
さけとさかなばとん,飲食,居酒屋,居酒屋,渋谷区笹塚1-24-4三好ビル1F,03-5790-9417,
酒とつまみと〆蕎麦よし川,飲食,日本料理,そば・うどん,渋谷区西原2-28-4宮嶋ビル1階,080-4608-2024,
酒とめし osacu,飲食,居酒屋,居酒屋,渋谷区幡ヶ谷1-33-6ビューハイム幡ヶ谷101,080-6904-0039,
酒と焼肉　ニュートミー,飲食,ステーキ・焼肉,焼肉,渋谷区恵比寿南1-1-3今鉾ビル1階,03-5708-5129,
酒処 おやっとさぁ。,飲食,居酒屋,居酒屋,渋谷区恵比寿西1-7-15エビス加藤ビル2階,03-6416-5283,
酒処小林,飲食,居酒屋,居酒屋,渋谷区西原3-6-1,03-6320-9996,
酒処　富川,飲食,居酒屋,居酒屋,渋谷区道玄坂1-5-5藤木ビルB1,03-5990-4880,
sakeba,飲食,居酒屋,ダイニング・バー,渋谷区渋谷3丁目15-2F93 Shibuya2  7F,03-6427-9142,
酒みさわ,飲食,居酒屋,居酒屋,渋谷区神泉町9-6ファインクレスト渋谷神泉,03-3461-1427,
笹吟,飲食,日本料理,日本料理,渋谷区上原1-32-15 第二小林ビル1F,03-5454-3715,
SASASA dining,飲食,居酒屋,ダイニング・バー,渋谷区笹塚3-19-5大泉商店ビル102,03-6300-0667,
ささづか酒場　はだか電球,飲食,居酒屋,居酒屋,渋谷区笹塚1-56-1NH駅前ビル2F,03-5352-0141,
笹塚ソーススタンド,飲食,居酒屋,居酒屋,渋谷区笹塚2丁目10-6今井ビル16号室,03-5990-6100,
笹塚バルスケッチ,飲食,外国料理,スペイン料理,渋谷区笹塚3-14-1荻野荘1F,03-5309-2878,
笹塚ピザCamp,飲食,外国料理,イタリア料理,渋谷区笹塚1-57-15笹塚店舗2階,090-1423-1307,
笹よし,飲食,日本料理,日本料理,渋谷区幡ヶ谷2-30-2ヒマラヤクラウドビル1階,03-3374-3345,
さつま おてちきや,飲食,居酒屋,居酒屋,渋谷区渋谷2-8-4東和青山ビルB02,03-3400-7071,
sathi渋谷,飲食,外国料理,インド料理,渋谷区渋谷2-5-9パル青山101,03-3409-9667,
SUNNY LOT,飲食,喫茶店・カフェ,喫茶店・カフェ,渋谷区神宮前1-1-8-102,070-1063-8000,https://www.toizm.com/sunnylot
サバス カフェバー アンド シーシャ ガーデン,飲食,その他(バー・クラブ・スナックなど),カフェバー,渋谷区初台2-1-3パラータ初台1F,03-5860-8335,
SUPPLY,飲食,外国料理,イタリア料理,渋谷区幡ヶ谷1-5-6金井ビル　1階,080-4335-3038,
SAM,飲食,外国料理,イタリア料理,渋谷区代々木4-45-5パークテラス参宮橋101,080-1135-0879,
更科,飲食,日本料理,そば・うどん,渋谷区初台1-39-10,03-3370-6034,
茶寮伊勢藤次郎,飲食,日本料理,日本料理,渋谷区渋谷2-21-1渋谷ヒカリエ7階,03-6434-1483,https://tabelog.com/tokyo/A1303/A130301/13140106/
サレ・ポワヴレ・ウノ,飲食,外国料理,フランス料理,渋谷区上原1-12-3サンフラッツFIKビル 1F,03-3466-0866,
彩わ,飲食,日本料理,小料理,渋谷区代々木3-43-1ガーリックビル103,03-6300-0991,
San.,飲食,その他(バー・クラブ・スナックなど),バー,渋谷区上原1-2-1,090-4226-7724,
サンカフェ,飲食,喫茶店・カフェ,喫茶店・カフェ,渋谷区恵比寿4-23-12　茗荷原ビル3階,03-3442-7479,
参宮橋あさや,飲食,日本料理,うなぎ,渋谷区代々木4-6-5,080-3466-3099,
参宮橋いぶさな,飲食,ステーキ・焼肉,ステーキ,渋谷区代々木4-10-7小淵ビル1F,03-6304-2728,
サングリア,飲食,外国料理,イタリア料理,渋谷区桜丘町17-10吉野ビル2階,03-3496-3697,
燦々,飲食,日本料理,日本料理,渋谷区宇田川町37-15ヨネクラハウス　1F,03-6416-8983,
さんじゅうろくどごぶのお昼ご飯,飲食,喫茶店・カフェ,喫茶店・カフェ,渋谷区幡ヶ谷2-13-1平沼ビル201,03-5351-3605,
santafe,飲食,その他(バー・クラブ・スナックなど),バー,渋谷区道玄坂2-7-21F,03-6455-3253,
さんだらぼっち,飲食,その他(バー・クラブ・スナックなど),スナック・パブ・キャバレー,渋谷区幡ヶ谷2-8-5近藤ビル2階,03-3374-2368,
SandoSando,飲食,外国料理,イタリア料理,渋谷区代々木4-50-8参宮橋ゲストハウス1階,03-6687-7713,
サンフォコン,飲食,外国料理,フランス料理,渋谷区西原3-5-3小林ビル1階,070-4383-3567,
三陸,飲食,居酒屋,居酒屋,渋谷区代々木1-39-11MFPR代々木タワー2F,03-3320-8800,
SALA ridente,飲食,外国料理,イタリア料理,渋谷区恵比寿西2-17-22アプリュスII 一階,03-6427-0440,
THAうちあげ,飲食,居酒屋,居酒屋,渋谷区笹塚2-7-9ライブイン笹塚1階,03-5351-0711,
THE OAK LEAF,飲食,その他(バー・クラブ・スナックなど),バー,渋谷区東2-17-12十一ビル　1階,03-6427-2257,
THE GRUB 代々木上原,飲食,居酒屋,ダイニング・バー,渋谷区上原1-32-15第二小林ビル2階,03-6804-8714,
THE COFFEESHOP ROAST WORKS,飲食,喫茶店・カフェ,喫茶店・カフェ,渋谷区富ヶ谷2-22-12Vitre Yoyogi Park 1F,03-6407-1344,
THE THEATRE TABLE,飲食,喫茶店・カフェ,喫茶店・カフェ,渋谷区渋谷2-21-1渋谷ヒカリエ 11F,03-3486-8411,
The6Market,飲食,喫茶店・カフェ,その他,渋谷区上原1-17-10-101横山アパート,03-6314-3176,
THE TEST KITCHEN,飲食,喫茶店・カフェ,喫茶店・カフェ,渋谷区恵比寿4丁目20-4恵比寿ガーデンプレイス グラススクエア B1F POTAL POINT Ebisu E,050-1745-7875,
THE BLUE POSTS,飲食,その他(バー・クラブ・スナックなど),カフェバー,渋谷区恵比寿1-8-14大黒ビル1階 28,070-8496-1242,
The Bake,飲食,その他(バー・クラブ・スナックなど),その他,渋谷区鶯谷町7-6磯田ビル1階,03-5428-3933,
THE LINKING アメリカンダイナー,飲食,ステーキ・焼肉,ステーキ,渋谷区神南1-14-9 第7FMGビル　1F,03-6416-5882,https://yoyaku.tabelog.com/yoyaku/smartphone/net_booking_form/index?rcd=13281122
ZANZIBAR,飲食,その他(バー・クラブ・スナックなど),バー,渋谷区富ヶ谷1-43-23代々木公園ガーデニア102,03-3481-9179,
紫煙,飲食,喫茶店・カフェ,喫茶店・カフェ,渋谷区道玄坂2-7-2東方ビル1F,03-6455-2276,
潮待ち,飲食,居酒屋,居酒屋,渋谷区上原1丁目34-10志賀屋ビル202号室,03-6804-8484,
シガニーベイクアンドコーヒー,飲食,喫茶店・カフェ,喫茶店・カフェ,渋谷区上原1丁目17番7号　フレニティハウス2F,03-6804-7270,
四季ごはん 晴れ間。,飲食,日本料理,日本料理,渋谷区上原1-1-20,03-6804-9980,
志ぐれ,飲食,その他(バー・クラブ・スナックなど),バー,渋谷区神山町10-8グランドゥール1階,03-6770-6589,
ししくら,飲食,日本料理,日本料理,渋谷区恵比寿1-25-3ルヴェドゥプランタン1階,03-6277-3866,
しじゅうから,飲食,その他(バー・クラブ・スナックなど),バー,渋谷区東1-27-5シンエイ東ビル3階,03-6419-7525,
七福,飲食,その他(バー・クラブ・スナックなど),その他,渋谷区上原1-25-9,03-5454-8735,
七福餃子楼,飲食,居酒屋,居酒屋,渋谷区恵比寿南1-8-10,03-6303-0910,
6GRAMSstreet,飲食,居酒屋,ダイニング・バー,渋谷区恵比寿南2-1-11恵比寿A・Mビル1a,03-6303-3156,
シティ倶楽部,飲食,居酒屋,ダイニング・バー,渋谷区代々木2-23-1ニューステイトメナー114,03-5365-2212,
獅天鶏飯,飲食,外国料理,東南アジア料理,渋谷区渋谷3-18-10 大野ビル2号館2F,03-6811-1193,
獅天鶏飯ハナレ,飲食,外国料理,東南アジア料理,渋谷区渋谷1-24-7渋谷フラットビル2F,03-6712-5363,
渋2鮨 & Bar,飲食,日本料理,寿司,渋谷区渋谷2-7-13,03-3407-5777,https://goo.gl/maps/TrMXq5sQLu2imZoH7
shibuya101,飲食,居酒屋,ダイニング・バー,渋谷区宇田川町34-6M&Iビル3F-A,03-6416-4369,
渋谷花魁,飲食,居酒屋,ダイニング・バー,渋谷区道玄坂2丁目22-6ゴールデンヒルズA棟,03-5456-8782,
渋谷カフェ＆テラス BBQ Noan,飲食,喫茶店・カフェ,喫茶店・カフェ,渋谷区宇田川町37番地16レジディア渋谷2F,03-5738-8455,
渋谷神山　聞弦坊,飲食,日本料理,そば・うどん,渋谷区神山町11-17日興パレス渋谷,03-5478-1157,
渋谷GABIGABI,飲食,その他(バー・クラブ・スナックなど),バー,渋谷区道玄坂1-13-3MST道玄坂2階,03-3463-5538,
渋谷ゴルフクラブ,飲食,その他(バー・クラブ・スナックなど),バー,渋谷区円山町25-7ファザーランド渋谷5階,080-4833-4400,
渋谷東急REIホテル　レストラン「ハシュハシュ」,飲食,外国料理,その他,渋谷区渋谷1-24-10,03-3498-0173,https://www.tokyuhotels.co.jp/shibuya-r/restaurant/index.html
渋谷のラジオラジ公ドリンクスタンド,飲食,喫茶店・カフェ,喫茶店・カフェ,渋谷区渋谷2-21-1渋谷Hikarie ヒカリエデッキ 4階,03-6805-0282,
SHIBUYA BALL,飲食,その他(バー・クラブ・スナックなど),バー,渋谷区宇田川町4番9号くれたけビル 4階,03-3476-6533,
渋谷フォルチェ,飲食,居酒屋,ビアホール,渋谷区道玄坂1-5-2渋谷SEDEビル5F,03-3476-7776,
Shibuya　Fromage　倶楽部　,飲食,居酒屋,ダイニング・バー,渋谷区道玄坂2-10-1,03-3464-2030,
渋谷ベルゴ,飲食,外国料理,その他,渋谷区渋谷3-18-7 B1F渋谷東一号館ビル,03-3409-4442,
渋谷マスダ亭,飲食,日本料理,お好み焼き,渋谷区宇田川町22-1マスダ亭,03-3462-0016,
シャイニーアウル表参道,飲食,外国料理,イタリア料理,渋谷区神宮前4-7-1,03-6851-4368,
シャイニーアウル富ヶ谷,飲食,日本料理,その他,渋谷区富ヶ谷1丁目35番23号,03-6772-4385,
写真集食堂　めぐたま,飲食,日本料理,日本料理,渋谷区東　3-2-7,03-6805-1838,
SHUTTERS表参道,飲食,外国料理,イタリア料理,渋谷区神宮前6-28-6キュープラザ原宿3F,03-6712-5077,https://tabelog.com/tokyo/A1306/A130601/13180219/
上海ダイニング嘉麟香(カリンシャン),飲食,外国料理,中国料理,渋谷区神宮前3-41-2岡本ビル2F,03-6434-0985,
上海飯店,飲食,外国料理,中国料理,渋谷区代々木4-10-9上海飯店,03-3370-3939,https://m.facebook.com/shanghaihanten.sangubashi/
上海飲茶猪八戒,飲食,外国料理,中国料理,渋谷区千駄ヶ谷1-7-11姉妹舎ビル1階,03-3401-3775,
シャンブル・アヴェク・ヴュ,飲食,外国料理,フランス料理,渋谷区富ヶ谷2丁目18番16号スカイガーデン代々木公園101,03-3467-6613,
SHARK COFFEE,飲食,喫茶店・カフェ,喫茶店・カフェ,渋谷区宇田川町2-1渋谷ホームズ1F,03-6416-1237,https://www.instagram.com/sharkcoffee_shibuya/
しゅうじ食堂,飲食,日本料理,その他,渋谷区広尾1丁目9ー18雨宮ビル1F,070-8941-3772,
終日one,飲食,喫茶店・カフェ,喫茶店・カフェ,渋谷区上原3-44-11高宏ビル 1F,03-5738-8501,https://shujitsu.com/
酒菜おたま,飲食,居酒屋,居酒屋,渋谷区幡ヶ谷1-9-6リッツ幡ヶ谷101,03-5350-4055,
CHURRASCO GANG 渋谷本店,飲食,居酒屋,居酒屋,渋谷区宇田川町31-1HULIC & New Shibuya　6F,080-7408-7717,
SHUWASHUWA PEACE,飲食,居酒屋,その他,渋谷区幡ヶ谷3-16-3幡ヶ谷ハウス102,03-6300-0313,
旬おばんざいと発酵酒肴　ただ今,飲食,日本料理,日本料理,渋谷区神泉町15-6,03-3461-6336,
旬彩居酒屋　吉の,飲食,居酒屋,居酒屋,渋谷区上原2-33-2ユニマットプルーポイント2階,03-3485-0327,
旬菜魚味家,飲食,日本料理,小料理,渋谷区広尾5-3-12,03-3473-1765,
昌,飲食,居酒屋,居酒屋,渋谷区神宮前6-7-16エムエスビル　B1F,03-3407-1534,
松月庵,飲食,日本料理,そば・うどん,渋谷区千駄ヶ谷4-30-5,03-3402-7836,
笑助,飲食,居酒屋,居酒屋,渋谷区西原3-4-5アミティ代々木上原1F,03-5454-8557,
松濤倶楽部,飲食,その他(バー・クラブ・スナックなど),バー,渋谷区宇田川町37-12眞砂ビル地下一階,03-3465-1932,https://shotoclub.com/
松涛Mar,飲食,外国料理,イタリア料理,渋谷区松涛1-27-7東信松涛マンション101,03-3469-6920,
昭和歌謡居酒屋UFO,飲食,居酒屋,居酒屋,渋谷区千駄ヶ谷4丁目29-12千駄ヶ谷北参道ダイヤモンドパレス104,03-6804-5968,
食酒房ふさ助,飲食,居酒屋,居酒屋,渋谷区恵比寿西2-3-9浦ーMKYエビスビル102,03-3461-1993,
食堂ふくや,飲食,日本料理,日本料理,渋谷区神宮前3-22-4舘野ビル1階A,03-3478-3525,
初代 割烹 高橋,飲食,日本料理,日本料理,渋谷区上原2-48-11ハニハラビルB1F,03-6407-0565,
シルバースター,飲食,その他(バー・クラブ・スナックなど),バー,渋谷区上原1-33-16オーツカビル103,03-3481-0831,
しろふわランドリー　初台南店,飲食,喫茶店・カフェ,喫茶店・カフェ,渋谷区西原1丁目43-1デミシル代々幡　1階105号室,03-4405-6691,
しろふわランドリー笹塚南店,飲食,喫茶店・カフェ,喫茶店・カフェ,渋谷区笹塚1-26-4J&Jハウス1F店舗,03-4405-6691,
しろふわランドリー幡ヶ谷北店,飲食,喫茶店・カフェ,喫茶店・カフェ,渋谷区本町6-38-7アミティ幡ヶ谷1F店舗,03-4405-6691,
しんざ笑もん,飲食,ステーキ・焼肉,焼肉,渋谷区幡ヶ谷2丁目8番10号リッシェル幡ヶ谷101,03-5333-1129,
新宿251,飲食,居酒屋,居酒屋,渋谷区千駄ヶ谷5-32-5GSハイム新宿南口104,03-6380-6303,
神泉 遠藤利三郎商店,飲食,外国料理,フランス料理,渋谷区神泉町11-9ワインアパートメント 1F,03-6455-3460,https://next-gf.com/store/
神泉たつ,飲食,日本料理,小料理,渋谷区神泉町10-16さつきビル1F,03-5422-3366,
シントンキーボタニカル,飲食,外国料理,その他,渋谷区恵比寿南1-14-2 タイムゾーンビル2階,080-2099-1188,
シーウルフダイナー,飲食,外国料理,その他,渋谷区宇田川町3-1東武ホテル1Fシーウルフダイナー,03-6416-3363,
Shisha bar Lilac,飲食,喫茶店・カフェ,喫茶店・カフェ,渋谷区円山町5-14スタービル3階,03-6416-1510,
シーシートーキョー,飲食,居酒屋,居酒屋,渋谷区代々木1-41-12フィルパーク代々木2F,03-4335-0979,
C'sBAR,飲食,その他(バー・クラブ・スナックなど),バー,渋谷区恵比寿西1丁目8-2ウエストパレスビルB1-B,03-6712-7848,
シーモアグラス,飲食,喫茶店・カフェ,喫茶店・カフェ,渋谷区神宮前6-27-8京セラ原宿ビルB1階,03-5469-9469,
ジェラテリアコローレ,飲食,喫茶店・カフェ,その他,渋谷区幡ヶ谷2-18-2キャッスルマンション103,080-8532-3646,
GELATO BRAVO,飲食,喫茶店・カフェ,喫茶店・カフェ,渋谷区恵比寿西1-33-18コート代官山102,080-7139-7770,https://gelabra7770.base.shop/
JB's TOKYO ミヤシタパーク店,飲食,喫茶店・カフェ,ファーストフード,渋谷区神宮前6-20-10MIYASHITA PARK SOUTH 2F,03-6434-1029,
JB’s TOKYO 代々木本店,飲食,喫茶店・カフェ,ファーストフード,渋谷区代々木1-33-3,03-6300-0913,
THE ALDGATE British Pub,飲食,外国料理,その他,渋谷区宇田川町30-4新岩崎ビル3F,03-3462-2983,http://www.the-aldgate.com
jicca,飲食,外国料理,無国籍料理,渋谷区西原2-27-4升本ビル2階,03-5738-2235,
地のものバルMUJO,飲食,居酒屋,ダイニング・バー,渋谷区富ヶ谷1-3-14橋谷ハイツ1F,050-6866-1618,
地ビールbar かえるかふぇ,飲食,喫茶店・カフェ,喫茶店・カフェ,渋谷区神宮前2-15-15カエルカフェ,03-6804-1933,
ジャイヒンド,飲食,外国料理,インド料理,渋谷区笹塚1-56-6クレセントプラザ　笹塚2階,03-3374-0651,
JAPANESE GELATERIA & CAFE ASANOHA,飲食,喫茶店・カフェ,喫茶店・カフェ,渋谷区恵比寿西1-8-11昴Aビル1階,03-3476-7036,https://tabelog.com/tokyo/A1303/A130302/13269617/
ジャンティ,飲食,その他(バー・クラブ・スナックなど),カフェバー,渋谷区代官山町 14-6美容室Praha 2F,080-9983-4449,
ジュリーズスパイス,飲食,外国料理,インド料理,渋谷区笹塚3-19-5,090-5572-3654,
純米酒専門YATA渋谷店,飲食,居酒屋,ダイニング・バー,渋谷区道玄坂1-6-9ILA道玄坂ビル5F,03-3464-0434,https://junmaishu.net/
城ヶ崎おかもと,飲食,居酒屋,その他,渋谷区恵比寿2-9-1EBISFLAT1B,03-5422-7684,
ジンギスカン羊一渋谷店,飲食,ステーキ・焼肉,焼肉,渋谷区道玄坂2-20-9,03-6427-8429,https://www.instagram.com/youichi617/?hl=ja
ジンナンカフェ渋谷,飲食,喫茶店・カフェ,喫茶店・カフェ,渋谷区神南1-17-5クーラビル1F&B1,03-5728-3786,http://jinnancafe.com/shibuya/about.html
Ｇ.Ｇ.Ｃ,飲食,居酒屋,居酒屋,渋谷区富ヶ谷 1-44-4いずみマンション102,03-3469-0453,
粋,飲食,居酒屋,居酒屋,渋谷区富ヶ谷2-18-16,03-3467-1507,
酔香楼,飲食,外国料理,中国料理,渋谷区神山町6-2ホテルニューワシントン 1階,03-3467-2432,
sweetie,飲食,喫茶店・カフェ,その他,渋谷区本町1-38-8,090-3900-7797,https://www.instagram.com/sweetie.myspace.sweets
末ぜん,飲食,日本料理,日本料理,渋谷区猿楽町20-8,03-3461-8234,
skyhigh daikanyama,飲食,喫茶店・カフェ,喫茶店・カフェ,渋谷区鶯谷町19-18ファーストマンション七久保1f,03-6416-0819,
SCARLET,飲食,喫茶店・カフェ,喫茶店・カフェ,渋谷区上原2-42-17,03-6407-8472,
SCOO,飲食,その他(バー・クラブ・スナックなど),バー,渋谷区神宮前2-18-7フードビル103,090-4512-4900,https://instagram.com/scoo.harajuku?igshid=YmMyMTA2M2Y=
祐定,飲食,居酒屋,居酒屋,渋谷区西原2-28-3クローバービル1F,03-5454-0303,
鮨居酒屋しゅん,飲食,日本料理,寿司,渋谷区千駄ヶ谷5-22-1,090-4393-2543,
鮨一喜,飲食,日本料理,寿司,渋谷区渋谷1-5-9N.KEFIA渋谷ビル1F,03-6413-6168,
スシエビス 恵比寿本店,飲食,居酒屋,居酒屋,渋谷区恵比寿4-9-5マンションニュー恵比寿1階,03-6459-3184,https://tabelog.com/tokyo/A1303/A130302/13251807/
スシエビスHana 恵比寿本店,飲食,居酒屋,居酒屋,渋谷区恵比寿西1-8-10高橋ビル1階,03-6416-3630,https://tabelog.com/tokyo/A1303/A130302/13293501/
鮨㐂すしき,飲食,日本料理,寿司,渋谷区道玄坂1-7-9Y-placeビル3階,03-6455-3030,
すし菊地,飲食,日本料理,寿司,渋谷区神泉町20-15モンド本社ビル 1F,03-3780-3943,
寿司酒場 すし屋の秀よし,飲食,日本料理,寿司,渋谷区本町2-2-9後藤ビル1F,03-3377-3888,https://www.instagram.com/ajiyoshi.hatsudai/
寿司さなか,飲食,日本料理,寿司,渋谷区神宮前6-14-1カナザワビル3F,03-3498-3750,
鮨武　本店,飲食,日本料理,寿司,渋谷区西原3-23-1代々木上原羽田ビル1階,03-6407-1880,https://sushitake-uehara.com
鮨武　代々木八幡,飲食,日本料理,寿司,渋谷区富ヶ谷1-53-2辰美ビル3階,090-7356-3648,https://sushitake-hachiman.com
鮨　とみなか,飲食,日本料理,寿司,渋谷区神山町7-11 1階,03-5454-2133,
鮨博一,飲食,日本料理,寿司,渋谷区恵比寿1-22-17オーワビル1F,03-3473-0032,
鮨まつした,飲食,日本料理,寿司,渋谷区恵比寿1丁目29番16号ベルハイム1F,03-6450-4622,
STUNNER,飲食,喫茶店・カフェ,喫茶店・カフェ,渋谷区神宮前3-42-2VORT外苑前3 B1,090-3789-2245,
Stars☆Tokyo,飲食,その他(バー・クラブ・スナックなど),バー,渋谷区広尾1-15-6ヒーロービル一階,03-6459-3760,
stabler,飲食,喫茶店・カフェ,喫茶店・カフェ,渋谷区恵比寿南1-2-2-1A,03-6452-2911,
stelo,飲食,居酒屋,ダイニング・バー,渋谷区元代々木町5-2NYC motoyoyogi 1E区画,050-1722-5820,
ステーキむささび,飲食,ステーキ・焼肉,ステーキ,渋谷区恵比寿4-23-12茗荷原ビル1階,03-6450-2218,
スナック紫喜,飲食,その他(バー・クラブ・スナックなど),スナック・パブ・キャバレー,渋谷区富ヶ谷1-2-13高松DCビルB1F,03-6804-9220,
スナックつむぎ,飲食,その他(バー・クラブ・スナックなど),スナック・パブ・キャバレー,渋谷区道玄坂1-6-2渋谷ファイブビル B1階,070-1216-4409,https://www.instagram.com/snackbar_tsumugi/
スナックRie,飲食,その他(バー・クラブ・スナックなど),スナック・パブ・キャバレー,渋谷区恵比寿1-12-7三恵31ビル4EA号,090-4010-3516,
Spicy Flower,飲食,外国料理,東南アジア料理,渋谷区本町2-46-1第三市田ビル,03-6300-5788,
Spice　Chill,飲食,喫茶店・カフェ,その他,渋谷区恵比寿1-20-1コンフォート恵比寿3F,090-6181-5564,
スパイスバル　コートリー,飲食,外国料理,その他,渋谷区渋谷1-25-10,03-5962-7696,
スパゲッティハシヤ　幡ヶ谷分店,飲食,外国料理,イタリア料理,渋谷区幡ヶ谷2-5-9,03-3373-2660,
Spirare Ebisu,飲食,外国料理,イタリア料理,渋谷区東3-24-7EBIS EAST GALLERY,03-3486-5129,
SPLASH,飲食,その他(バー・クラブ・スナックなど),バー,渋谷区笹塚3-19-6萩原ビル2F,090-4933-7620,
Sputnik,飲食,喫茶店・カフェ,喫茶店・カフェ,渋谷区恵比寿西2-18-6代官山ウイング101,080-4376-0712,
スペアリブハウスハウディ代々木店,飲食,居酒屋,ダイニング・バー,渋谷区代々木1-18-16RES代々木ビルB1,080-3385-3966,https://www.spareribshouse-howdy.com/sp/
スペインバル貴バル,飲食,外国料理,スペイン料理,渋谷区広尾5-19-3マチダビル1c,03-5421-2114,
スペイン料理　シーフード　ワイン　ラスボカス,飲食,外国料理,スペイン料理,渋谷区渋谷渋谷3丁目2-3帝都青山ビルB1,03-3406-0609,
space i,飲食,喫茶店・カフェ,その他,渋谷区本町2-7-10-1階シブヤFハウス10TH,070-9106-1212,
SPACE&CAFE BANKSIA,飲食,喫茶店・カフェ,喫茶店・カフェ,渋谷区神宮前3-20-3石井ビル1F,080-7940-4740,
スペースワイ,飲食,その他(バー・クラブ・スナックなど),バー,渋谷区本町2-14-4SHビル地下,03-6276-6760,
澄音,飲食,その他(バー・クラブ・スナックなど),スナック・パブ・キャバレー,渋谷区神山町17-1第二渡辺ビル3F B,03-3466-0808,
炭火串焼いっせき,飲食,日本料理,焼鳥,渋谷区千駄ヶ谷4-4-13ニュー寿ビル101,03-6447-2102,
炭火串焼まるま,飲食,居酒屋,居酒屋,渋谷区笹塚1-29-7Fファーストビル2階,03-3467-5166,
炭火酒場　すす,飲食,居酒屋,居酒屋,渋谷区幡ヶ谷2-13-4幡ヶ谷定石ビル3階,03-6276-6920,
炭火焼アジアン酒場　アローイ兄弟,飲食,居酒屋,居酒屋,渋谷区千駄ヶ谷5-20-21ほぼ新宿のれん街に区画,03-6380-1940,
炭火焼大衆酒場御厨,飲食,居酒屋,居酒屋,渋谷区笹塚1-24-3,03-6407-0221,
炭火焼鳥　恵比寿　比内亭　はなれ,飲食,居酒屋,居酒屋,渋谷区恵比寿南1-8-4屋宮ビル2階,03-6412-7885,https://tabelog.com/tokyo/A1303/A130302/13296980/
炭火焼鳥　鳥祐,飲食,日本料理,焼鳥,渋谷区渋谷3-15-1F93shibuya1  2階,03-3400-0011,
炭火焼肉じんじん,飲食,ステーキ・焼肉,焼肉,渋谷区神宮前2-3-30第二竹上ビル102,03-6804-2948,
炭焼きこむらど,飲食,居酒屋,居酒屋,渋谷区本町1-22-5山下ビル1階,03-6276-3995,
small alley cafe,飲食,喫茶店・カフェ,喫茶店・カフェ,渋谷区東1-29-11F,03-3406-4169,
ズーガンズー渋谷店,飲食,居酒屋,ダイニング・バー,渋谷区渋谷2-9-11青山シティビルB1,03-3400-1496,https://zoogunzoo.com
西安ビャンビャン麺笹塚店,飲食,外国料理,中国料理,渋谷区笹塚1-55-16　京王クラウン街B106,03-5990-6633,
勢揃坂蕎ぎん清,飲食,日本料理,そば・うどん,渋谷区神宮前2-3-10ヒルトップ神宮前1階,03-3479-1911,
SENNE,飲食,居酒屋,ビアホール,渋谷区幡ヶ谷2-47-1ダイショービル1F及びB1F,03-6300-7444,
セルリアンタワー東急ホテル　ガーデンキッチン「かるめら」,飲食,外国料理,その他,渋谷区桜丘町26-1セルリアンタワー東急ホテル,03-3476-3431,https://www.tokyuhotels.co.jp/cerulean-h/restaurant/caramelo/index.html
セルリアンタワー東急ホテル　ガーデンラウンジ「坐忘」,飲食,喫茶店・カフェ,喫茶店・カフェ,渋谷区桜丘町26-1セルリアンタワー東急ホテル　LBF,03-3476-3439,https://www.tokyuhotels.co.jp/cerulean-h/restaurant/zabou/index.html
セルリアンタワー東急ホテル　シガーバー「R261 CIGAR & ROCK」,飲食,居酒屋,ダイニング・バー,渋谷区桜丘町26-1,03-3476-3526,https://www.tokyuhotels.co.jp/cerulean-h/restaurant/r261/index.html
セルリアンタワー東急ホテル　タワーズバー「ベロビスト」,飲食,その他(バー・クラブ・スナックなど),バー,渋谷区桜丘町26-1,03-3476-3398,https://www.tokyuhotels.co.jp/cerulean-h/restaurant/bellovisto/index.html
セルリアンタワー東急ホテル　鉄板焼 桜-SAKURA-,飲食,ステーキ・焼肉,ステーキ,渋谷区桜丘町26-1,03-3476-3521,https://www.tokyuhotels.co.jp/cerulean-h/restaurant/sakura/index.html
セルリアンタワー東急ホテル　日本料理「Japanese Cuisine 桜丘」,飲食,日本料理,日本料理,渋谷区桜丘町26-1,03-3476-3420,https://www.tokyuhotels.co.jp/cerulean-h/restaurant/sakuragaoka/index.html
セルリアンタワー東急ホテル　料亭「セルリアンタワー数寄屋」,飲食,日本料理,料亭,渋谷区桜丘町26-1,03-3476-3420,https://www.tokyuhotels.co.jp/cerulean-h/restaurant/sukiya/index.html
SERENDIPITY FARMERS  SOFTCREAM,飲食,喫茶店・カフェ,喫茶店・カフェ,渋谷区代々木5-55-5,070-8916-7666,
SEN,飲食,居酒屋,居酒屋,渋谷区神泉町8番地13号アーガス霜田ビル101号室,090-2739-2023,
千駄ヶ谷厨房,飲食,日本料理,その他,渋谷区千駄ヶ谷1-7-12志水ビル1階,03-3478-4333,
千真野,飲食,日本料理,日本料理,渋谷区富ヶ谷1-51-12代々木公園ハウスB101,03-6416-8587,
センロギワ.,飲食,居酒屋,居酒屋,渋谷区恵比寿南1-23-1ABC亜米利加橋ビル 2F,03-4361-4358,
Sevres Cafe,飲食,喫茶店・カフェ,喫茶店・カフェ,渋谷区神宮前4丁目-11-2高野ビルB1F,080-3600-8360,https://www.instagram.com/sevres_cafe/
zenta coffee,飲食,喫茶店・カフェ,喫茶店・カフェ,渋谷区鶯谷町12-6LOKOビル1階,070-2377-0681,https://www.zenta.coffee/
草原,飲食,その他(バー・クラブ・スナックなど),カフェバー,渋谷区初台1-37-7,090-9833-6722,
創作アジアンダイニング 移民の歌,飲食,外国料理,その他,渋谷区神宮前2-31-7ビラグロリアB-1,03-6804-5211,
そうめんそそそ研究室,飲食,日本料理,そば・うどん,渋谷区渋谷2-21-1渋谷ヒカリエ 6F 6-7,03-6450-6795,
そば季寄　武蔵屋,飲食,日本料理,そば・うどん,渋谷区上原1-22-3ムサシビル1階,03-5478-0766,https://www.musashiya-uehara.com/
蕎麦と日本酒八福寿家恵比寿店,飲食,居酒屋,居酒屋,渋谷区恵比寿南1-18-11エビステムズコート　八福寿家,03-5734-1544,
そば處大野屋元代々木町店,飲食,日本料理,そば・うどん,渋谷区元代々木町3-10,03-3467-7513,https://soba-oonoya.gorp.jp/
そば処絆,飲食,日本料理,そば・うどん,渋谷区神山町24―11　ガーデニア神山1F,03-3469-1555,
そば処初台丸屋,飲食,日本料理,そば・うどん,渋谷区初台1-37-11シャトー初台1F,03-3375-2880,
そば処　丸屋,飲食,日本料理,そば・うどん,渋谷区富ヶ谷1-51-1,03-3460-1435,
蕎麦前ごとう,飲食,日本料理,そば・うどん,渋谷区代官山町11-12日進ヒルズ代官山2f,03-6427-8308,
ソラマコーヒー,飲食,喫茶店・カフェ,喫茶店・カフェ,渋谷区神宮前1-12-6ドヒビル1F,03-3423-2370,
Salt恵比寿,飲食,居酒屋,居酒屋,渋谷区恵比寿南1-3-2エルスタンザ恵比寿B1F,03-6451-0176,https://tabelog.com/tokyo/A1303/A130302/13197080/
SOTARTE 代々木上原,飲食,喫茶店・カフェ,喫茶店・カフェ,渋谷区上原1-18-7第五大貴ビル1階,03-6407-9260,
SOWAT,飲食,外国料理,東南アジア料理,渋谷区千駄ヶ谷3-36-2アトラス原宿1階,050-3567-7697,https://www.sowat.jp/
THAI THAN,飲食,外国料理,東南アジア料理,渋谷区恵比寿1-22-10GranDuo恵比寿3 1階,03-6721-7133,
タイ国屋台式料理 スパイスMARKET,飲食,外国料理,東南アジア料理,渋谷区西原1-21-1,03-6416-8550,
大衆居酒屋代々木横丁,飲食,居酒屋,居酒屋,渋谷区代々木1-31-17麻緒ビル101号室,03-3374-7721,
大衆割烹えびす,飲食,居酒屋,居酒屋,渋谷区本町2丁目14番2号,03-3378-1427,
大衆かっぽう和家,飲食,日本料理,焼鳥,渋谷区恵比寿西1-8-4Diビル2F,03-6433-7464,
大衆割烹たがみ,飲食,日本料理,日本料理,渋谷区渋谷 1-6-4せいこうビル 1F,03-3407-9085,
大衆喫茶つばき,飲食,居酒屋,居酒屋,渋谷区恵比寿2-1-4ステージファースト恵比寿二番館102,080-4458-6630,
大衆酒場けいじ,飲食,居酒屋,居酒屋,渋谷区恵比寿南1-8-11タオスビル1階,03-6712-2990,
大衆酒場KoKoRo,飲食,居酒屋,居酒屋,渋谷区笹塚2-43-7,03-6276-6648,
大衆酒場スシスミビ笹塚店,飲食,居酒屋,居酒屋,渋谷区笹塚2-10-7米山ビル1階,03-5990-6555,https://s.tabelog.com/tokyo/A1318/A131808/13280024/
大衆和牛酒場コンロ家代々木店,飲食,居酒屋,居酒屋,渋谷区代々木1-52-5ベルテ南新宿B1F,03-6383-4866,
タイダイニング　プラーローマー,飲食,外国料理,東南アジア料理,渋谷区桜丘町30-15ビバリーヒルズ101,03-6415-4565,
タイ屋台ラオラオ,飲食,外国料理,その他,渋谷区恵比寿4-4-14恵比寿イナビル1階左,03-5793-3773,
台湾料理　故宮,飲食,外国料理,中国料理,渋谷区道玄坂2-23-13渋谷デリタワー4階,03-3462-6051,
BAR TAKATSU,飲食,その他(バー・クラブ・スナックなど),バー,渋谷区道玄坂2-20-26藤和エクシール道玄坂B1-03,03-3464-5200,
タカミヤズ アンド スイーツ,飲食,外国料理,その他,渋谷区広尾5-8-1中矢ビル1階,03-5422-7662,
Taki,飲食,居酒屋,居酒屋,渋谷区桜丘町17-12渋谷ジョンソンビル3F,03-3780-0656,http://shibuya-taki.sakura.ne.jp/
Taki AKANE,飲食,居酒屋,居酒屋,渋谷区道玄坂1-11-1第2大番ビル404,03-3464-5120,http://shibuya-taki.sakura.ne.jp/akane/index.html
滝乃家,飲食,居酒屋,居酒屋,渋谷区神山町4番19号,03-3468-7844,
拓寅,飲食,居酒屋,居酒屋,渋谷区本町6-7-4ルーブル渋谷本町 1F,090-3807-6742,
たくみ,飲食,居酒屋,居酒屋,渋谷区宇田川町30-5渋谷JOWビル 4階,03-6380-5785,
TAKESUE,飲食,外国料理,フランス料理,渋谷区幡ヶ谷2-9-12コートリーブル105,03-6273-5280,
竹もと,飲食,日本料理,小料理,渋谷区笹塚3-13-9ビューノ笹塚102,03-6300-6076,
多古菊,飲食,居酒屋,居酒屋,渋谷区道玄坂1丁目6番2号ファイブビル1階,03-3461-8866,
TAS YARD,飲食,喫茶店・カフェ,喫茶店・カフェ,渋谷区千駄ヶ谷3-3-14メゾンブランシュ101,03-3470-3940,https://tasyard.com
立食い鮨　鮨川,飲食,日本料理,寿司,渋谷区笹塚1-62-6プライムブリス笹塚1F,090-9260-3611,
立呑酒場ななつぼ,飲食,居酒屋,居酒屋,渋谷区千駄ヶ谷3-32-7千駄ヶ谷幸田会館,080-5676-0534,
立飲み　ゆみちゃん,飲食,居酒屋,居酒屋,渋谷区神山町40-1鈴井ビル1階,03-6407-8801,
takk.(music&bar),飲食,その他(バー・クラブ・スナックなど),バー,渋谷区円山町15-6-2F,03-4400-0544,
 Touch wood,飲食,外国料理,フランス料理,渋谷区笹塚3-17-3つるやビル2階,070-9155-7471,
TANA diner,飲食,その他(バー・クラブ・スナックなど),バー,渋谷区元代々木町 9-6TANA diner,090-2908-5168,
たまきんち株式会社,飲食,居酒屋,居酒屋,渋谷区恵比寿西1丁目3番5号アルス恵比寿メイクス106,03-3496-1770,
たまりば代々木本店,飲食,居酒屋,居酒屋,渋谷区代々木1-41-3,03-5350-9455,
たまりばー,飲食,居酒屋,ダイニング・バー,渋谷区代官山町13-8キャッスルマンション代官山114,070-6460-5564,
たもいやんせ渋谷店,飲食,居酒屋,居酒屋,渋谷区神泉町10-10volt渋谷神泉ビル1F,03-3461-4333,https://tamoiyanse.net
タルイテーブルズ,飲食,外国料理,イタリア料理,渋谷区千駄ヶ谷四丁目22番6号,03-6384-5204,
セルリアンタワー東急ホテル　タワーズレストラン「クーカーニョ」,飲食,外国料理,フランス料理,渋谷区桜丘町26-1,03-3476-3404,https://www.tokyuhotels.co.jp/cerulean-h/restaurant/coucagno/index.html
タンジャイミールス,飲食,外国料理,インド料理,渋谷区幡ヶ谷2-7-10松本ビル2F,03-5352-8055,
淡水研究室,飲食,居酒屋,居酒屋,渋谷区代々木1-13-2エンドウビル101,03-3299-3763,
TANTO TANTO OSTERIA　アトレ恵比寿,飲食,外国料理,イタリア料理,渋谷区恵比寿南1-5-5アトレ恵比寿店6F,03-5475-8391,
炭豚豚、武蔵野うどん・みらい家,飲食,日本料理,日本料理,渋谷区笹塚1-15-5堀内ビル,03-5454-1089,
TurnTableRestaurant,飲食,居酒屋,ダイニング・バー,渋谷区神泉町10-3,03-3461-7722,
代官山さん昇,飲食,日本料理,日本料理,渋谷区代官山町8番16号,03-6416-5980,
代官山のんき,飲食,居酒屋,居酒屋,渋谷区代官山町8-15DIビル1F,03-6455-2277,https://next-gf.com/store/
代官山パンケーキカフェ　Clover’s,飲食,喫茶店・カフェ,喫茶店・カフェ,渋谷区代官山町18-8堀井代官山ビル2階,03-3770-2733,
代官山間人,飲食,日本料理,日本料理,渋谷区猿楽町9-8アーバンパーク代官山1・B03,03-3780-0352,
Da-ism,飲食,喫茶店・カフェ,喫茶店・カフェ,渋谷区千駄ヶ谷3-16-17NOCE KITASANDO102,03-6447-4006,
dining＆bar　KITSUNE,飲食,居酒屋,ダイニング・バー,渋谷区東2-20-13シャトレー渋谷B1F,03-5766-5911,
ダイニングバー　クー,飲食,居酒屋,ダイニング・バー,渋谷区宇田川町34-6M&Iビル2F,03-3477-0138,
DINING BAR SCUBA,飲食,その他(バー・クラブ・スナックなど),バー,渋谷区幡ヶ谷1-1-5第一岩田ビル　B1F,03-3376-2684,
DADA　-DARTS AND KARAOKE-,飲食,その他(バー・クラブ・スナックなど),バー,渋谷区代官山町13-4セレサ代官山　地下一階,03-6277-5744,
DA HOUSE,飲食,その他(バー・クラブ・スナックなど),バー,渋谷区恵比寿南2-3-15cocospace恵比寿南2階,03-6303-1256,
darna,飲食,外国料理,その他,渋谷区元代々木町23-4,090-3405-1387,
Dan de CHAYA　だんで茶屋,飲食,喫茶店・カフェ,喫茶店・カフェ,渋谷区代々木5-2-52F,03-5454-4954,
dandelion,飲食,喫茶店・カフェ,その他,渋谷区代官山町13-4ヴォーグ代官山2,03-3464-2685,
チアーアップトーキョーハチ公前店,飲食,居酒屋,ダイニング・バー,渋谷区神南1-23-7第一榮來ビル7F,03-3461-7800,
チェルシー食堂,飲食,居酒屋,その他,渋谷区笹塚3丁目40-1our days Brewery 2F,090-3540-0191,
chicks,飲食,日本料理,ラーメン,渋谷区千駄ヶ谷3-30-4ホワイトキャッスル104,03-6804-5940,
CIMI restorant,飲食,外国料理,その他,渋谷区代々木3-9-5,080-1110-7786,
CHACOあめみや,飲食,ステーキ・焼肉,ステーキ,渋谷区千駄ヶ谷1-7-12,03-3402-6066,
茶々Tokyo,飲食,その他(バー・クラブ・スナックなど),バー,渋谷区西原2-28-4宮嶋ビル102,080-2373-0408,
茶席辰吉,飲食,日本料理,そば・うどん,渋谷区千駄ヶ谷3-60-4林ビル1階,03-5410-5578,
チャングミ,飲食,外国料理,韓国料理,渋谷区宇田川町41-29石井ビル1階,03-3476-1129,
中華スタンドDanDan,飲食,居酒屋,居酒屋,渋谷区幡ヶ谷2-48-2英ビル1B,050-3562-7445,
中華そば天宝,飲食,外国料理,中国料理,渋谷区神南1丁目10番7号テルス神南1F,03-3462-0622,
中華バル和平,飲食,外国料理,中国料理,渋谷区千駄ヶ谷5丁目17番18号,03-3356-1599,
中華風家庭料理　Yamaのuchi,飲食,外国料理,中国料理,渋谷区渋谷1-10-12宮城ビルB2,03-3407-3545,
チュウカメンシュカテンホウ,飲食,外国料理,中国料理,渋谷区富ヶ谷1-3-12エルプレイス富ヶ谷2F,03-6407-0844,
中華料理永楽,飲食,外国料理,中国料理,渋谷区本町2-47-2,03-3376-7307,
中華料理沙羅,飲食,外国料理,中国料理,渋谷区代々木2丁目11番12号,03-3379-3764,
中華料理 聚満園,飲食,外国料理,中国料理,渋谷区西原2-31-7内藤ビル1F,03-5465-2976,
中国四川料理笹華(ハチペイ),飲食,外国料理,中国料理,渋谷区笹塚2丁目22番5号セイワパラシオン笹塚 101号室,03-6300-5665,https://www.hotpepper.jp/strJ001260803/
中国酒菜　好来　代々木店,飲食,外国料理,中国料理,渋谷区千駄ヶ谷5ー24ー3NTTドコモ代々木ビルアネックス2階,03-3356-0988,https://kouraihoujin.owst.jp/
中國名菜龍坊,飲食,外国料理,中国料理,渋谷区恵比寿西1-33-36オクターヴコート代官山B1F,03-6455-0850,
ちょい呑みバー 8カウント,飲食,その他(バー・クラブ・スナックなど),バー,渋谷区桜丘町16-8アトラス桜丘ビルB1,03-3461-8525,https://instagram.com/kyohei8count?igshid=MmIzYWVlNDQ5Yg==
Cyodo,飲食,その他(バー・クラブ・スナックなど),その他,渋谷区本町6-37-10,080-7892-3819,
txokoa,飲食,外国料理,フランス料理,渋谷区神山町40-1鈴井ビル2階,03-5738-7291,
Queen's Collection Chocolate Cafe,飲食,喫茶店・カフェ,喫茶店・カフェ,渋谷区猿楽町25-3,03-6416-1900,https://instagram.com/chococafe_daikanyama?igshid=MjEwN2IyYWYwYw==
Chocolate Pocket,飲食,居酒屋,ダイニング・バー,渋谷区笹塚2-12-13Y2ビル1F,03-5309-2494,
ちょっとさんどカフェ代官山,飲食,喫茶店・カフェ,喫茶店・カフェ,渋谷区代官山町16-2,080-2070-2114,
Chiles Mexican Grill,飲食,外国料理,その他,渋谷区神宮前1-8-24OZ原宿ビル1-A,03-6434-9693,
つきたて餅雅や,飲食,喫茶店・カフェ,ファーストフード,渋谷区恵比寿2-8-13accessBLD4階,070-9135-6662,
月乃ひかり亭,飲食,居酒屋,居酒屋,渋谷区渋谷3-13-9エトワールUビル2階,03-5467-5197,https://r.gnavi.co.jp/p618500/
つくるよ。大野,飲食,外国料理,イタリア料理,,03-3466-0808,http://ohno-buono.jp
土濵笑店,飲食,居酒屋,居酒屋,渋谷区神泉町12-4アーガス神泉ビル2F,03-6416-1027,https://tsuchihama.amamin.jp/
TREEbyNAKEDyoyogipark,飲食,喫茶店・カフェ,喫茶店・カフェ,渋谷区富ヶ谷1丁目10-2CITTA代々木公園1F,050-1743-2539,
ZWEI ein achtel shot bar,飲食,その他(バー・クラブ・スナックなど),バー,渋谷区道玄坂 1-18-7第二仁科屋ビル2F,080-6669-3888,
Tiki's Tokyo,飲食,外国料理,その他,渋谷区神南1-1-1代々木公園BE STAGE 1F,070-3300-0366,
tTure,飲食,その他(バー・クラブ・スナックなど),バー,渋谷区恵比寿西2-8-11グランベル恵比寿IV2階,03-6452-5011,https://www.tablecheck.com/shops/tture-ebisu/reserve
TiTi,飲食,外国料理,フランス料理,渋谷区恵比寿2丁目8-13accessBLD恵比寿1階,070-9232-5619,
ティースイーツラボ・コンテナート,飲食,喫茶店・カフェ,喫茶店・カフェ,渋谷区代々木1-42-14村野ビル1F,03-6778-0198,
T4KITCHEN,飲食,喫茶店・カフェ,喫茶店・カフェ,渋谷区神南1-12-16ASIABUILDING 1F,03-6452-5744,
takeCURRY恵比寿本店,飲食,外国料理,東南アジア料理,渋谷区恵比寿2-12-16リベルタII,03-6277-2370,
定食サトウ,飲食,日本料理,日本料理,渋谷区円山町13ー9メゾン若林B103,03-3477-1611,https://www.instagram.com/teishokusato
手打蕎麦ごとう,飲食,日本料理,そば・うどん,渋谷区上原1-35-9吉野ビル1F,03-6906-8639,
手打ち蕎麦と鴨料理　慈玄,飲食,日本料理,そば・うどん,渋谷区恵比寿　1-24-9,03-3444-7088,
手打ち蕎麦と和食楽,飲食,居酒屋,居酒屋,渋谷区西原3-2-4フロンティア代々木上原3階,070-7781-8950,
鉄板お好焼昇次郎,飲食,日本料理,お好み焼き,渋谷区代々木4-6-5七福ビル2F,03-3375-8636,
鉄板ホルモン和真　幡ヶ谷店,飲食,居酒屋,その他,渋谷区幡ヶ谷2-13-4幡ヶ谷中央ビル102,03-3372-3690,
鉄板焼きくうが,飲食,居酒屋,居酒屋,渋谷区神山町17-1第2渡辺ビル1階,03-6407-1238,
鉄板やきそば・酒場　しぶやき,飲食,居酒屋,居酒屋,渋谷区渋谷3-13-1,03-3400-1154,
鉄板焼Note,飲食,日本料理,日本料理,渋谷区西原3-3-1アラキビルB1F,070-3664-2158,
鉄板焼き半駄ヶ谷,飲食,居酒屋,居酒屋,渋谷区千駄ヶ谷4-10-5矢口ビル1F,03-6721-1073,
鉄板焼バルcam,飲食,居酒屋,ダイニング・バー,渋谷区恵比寿南1-23-8アメリカンブリッジビル2階,03-5935-7620,
鉄板焼 よしむら,飲食,日本料理,お好み焼き,渋谷区広尾5-19-11マリオン広尾ビルB1,03-3280-8839,
寺島商店,飲食,居酒屋,居酒屋,渋谷区本町1-51-10,03-5990-6587,
てんてんてん,飲食,居酒屋,居酒屋,渋谷区本町6-37-6銀河ビル2階,03-6383-3188,
代官山天風,飲食,日本料理,お好み焼き,渋谷区猿楽町1-5代官山ハイム103,03-6315-9035,
天ぷら北川,飲食,日本料理,天ぷら,渋谷区恵比寿南1-17-15VORT恵比寿VI B1-A,090-5410-4691,
天宝,飲食,外国料理,中国料理,渋谷区笹塚2-43-4ハイムマスビル1階,03-3374-0568,
Table by S,飲食,外国料理,その他,渋谷区西原3-23-6プラド2F,03-6407-0780,https://tablebys.tokyo/
Dear All,飲食,喫茶店・カフェ,喫茶店・カフェ,渋谷区笹塚1-59-5バンブー皐月101,03-6300-0502,
dish-tokyogastronomycafe,飲食,外国料理,その他,渋谷区上原1-33-16オーツカビル2F,03-5465-6455,
デトックスダイニング,飲食,居酒屋,ダイニング・バー,渋谷区幡ヶ谷2-6-5梅村ビル1F,03-3379-1205,http://www.detox-dining.com/
Dubois(デュボワ),飲食,外国料理,フランス料理,渋谷区西原2-20-8コーポ小沢1階 Dubois,03-3467-3958,
デルソーレ　渋谷,飲食,居酒屋,居酒屋,渋谷区道玄坂2-28-2MMビル 5F,03-6822-4183,
Delcharlro,飲食,外国料理,イタリア料理,渋谷区恵比寿4-4-14イナビル1階,03-5420-1135,
ト灯,飲食,居酒屋,その他,渋谷区渋谷2-7-14,03-5834-2922,
toi toi toi,飲食,居酒屋,ダイニング・バー,渋谷区本町2-39-1-1F,03-3375-8332,
Twenty eight.st,飲食,その他(バー・クラブ・スナックなど),バー,渋谷区恵比寿西1丁目7‐4エビスファーストビル7F,03-5456-5580,
TUTTI,飲食,外国料理,イタリア料理,渋谷区上原2-42-17,080-6364-3849,
トウカカレー,飲食,日本料理,その他,渋谷区道玄坂1丁目6-10早川ビルB1F,090-8058-6978,
東京ITALIAN AKATSUKA,飲食,外国料理,イタリア料理,渋谷区笹塚2-22-5セイワパラシオン104,03-6300-0630,https://lin.ee/81c6YQp
TOKYO KAKI STAND 渋谷道玄坂,飲食,居酒屋,ダイニング・バー,渋谷区道玄坂2-16-1ミノハナビル1F,03-6427-8099,
東京唐揚げランド,飲食,居酒屋,居酒屋,渋谷区本町4丁目21-2エフビル101,03-6300-4874,
東京基地はなれスペイン坂,飲食,喫茶店・カフェ,喫茶店・カフェ,渋谷区宇田川町16-14松下ビル2F,03-6452-5000,
tokyo salonard cafe : dub,飲食,外国料理,イタリア料理,渋谷区道玄坂1-11-3富士商事ビル2F,03-3463-0724,https://tabelog.com/tokyo/A1303/A130301/13007273/
東京ラーメン　てん,飲食,日本料理,ラーメン,渋谷区本町3-48-21新都心マンション1階,03-3374-0013,
東方美人,飲食,外国料理,中国料理,渋谷区笹塚3-37-41F,080-6543-7679,
とちの樹,飲食,居酒屋,その他,渋谷区神宮前3-1-21坂本ビル2F,03-3403-5375,
杜ト家,飲食,外国料理,無国籍料理,渋谷区本町6-11-1田中ハウス1階,03-3373-5155,
TOMATO,飲食,その他(バー・クラブ・スナックなど),スナック・パブ・キャバレー,渋谷区恵比寿西2-8-9代官山宝ビル3階,080-4191-0193,
富ヶ谷一丁目倶楽部,飲食,その他(バー・クラブ・スナックなど),バー,渋谷区富ヶ谷1-52-2石橋ビル1階,03-5453-5010,
富ヶ谷　酒と焼肉橙,飲食,ステーキ・焼肉,焼肉,渋谷区富ヶ谷1-9-20エスペランサ代々木M1F,03-6804-9629,https://yoyaku.tabelog.com/yoyaku/net_booking_form/index?rcd=13303953
TOMBOY円山町店,飲食,喫茶店・カフェ,喫茶店・カフェ,渋谷区円山町10-13,03-5458-4008,
ともあれ呑もうよ,飲食,居酒屋,居酒屋,渋谷区幡ヶ谷2-48-1三木ビル 1F,03-6304-2422,
巴屋,飲食,日本料理,そば・うどん,渋谷区代々木5-38-1,03-3466-3910,
トモキッチン,飲食,喫茶店・カフェ,喫茶店・カフェ,渋谷区初台1-11-2,03-3370-1493,
トラットリア　ゴデレッチョ,飲食,外国料理,イタリア料理,渋谷区恵比寿西一丁目30番14号エコー代官山1階,03-6416-1548,
トラットリア  ５２２,飲食,外国料理,イタリア料理,渋谷区西原3-20-5ファーストパティオ1F,03-3465-5228,
トラットリアサルサマーレ,飲食,外国料理,イタリア料理,渋谷区恵比寿西1-36-5 2F,03-3496-7272,
トラットリアトマティカ,飲食,外国料理,イタリア料理,渋谷区恵比寿南2-17-5,03-6315-6508,http://www.tomatica.jp/
Trattoria L'astro,飲食,外国料理,イタリア料理,渋谷区恵比寿1-22-13メゾンド・ペルル1階,03-3446-7998,https://tabelog.com/tokyo/A1303/A130302/13228697/
虎の子代々木上原店,飲食,居酒屋,居酒屋,渋谷区上原1-35-6第16菊池ビル201,03-3485-6341,
ToriiAt,飲食,居酒屋,ダイニング・バー,渋谷区鶯谷町1-2パル代官山ビル1F,090-1500-4504,
鳥源氏,飲食,居酒屋,居酒屋,渋谷区道玄坂2-29-18才藤第二ビル4F,03-3476-2016,https://tabelog.com/tokyo/A1303/A130301/13245771/
鳥ゴロー,飲食,居酒屋,その他,渋谷区千駄ヶ谷4丁目10-5矢口ビル2F,03-5411-1750,
とりすみ,飲食,居酒屋,居酒屋,渋谷区道玄坂2-7-5,080-5461-6184,
鶏なか,飲食,居酒屋,居酒屋,渋谷区宇田川町11-11柳光ビル本館1階,03-6455-0096,https://torinaka.owst.jp/
TORIPLETTA,飲食,その他(バー・クラブ・スナックなど),バー,渋谷区上原1-33-16オーツカビル201,03-3468-7055,
鳥屋花,飲食,居酒屋,居酒屋,渋谷区笹塚1-28-7第一レアヒビル101,03-3467-8714,
トレヴィーテ（TreVite）,飲食,外国料理,イタリア料理,渋谷区代々木1-45-3セントオフィス代々木1F,03-5309-2457,
とんかつのげん田,飲食,日本料理,とんかつ・串かつ,渋谷区猿楽町24-7代官山プラザ B1,03-3496-4192,
とんかつ  ふじもと,飲食,日本料理,とんかつ・串かつ,渋谷区千駄ヶ谷3丁目14番2号,03-3401-7228,
トンガコーヒー,飲食,その他(バー・クラブ・スナックなど),カフェバー,渋谷区代々木1-33-1,090-8301-5709,
豚吉もツ焼き酒場,飲食,居酒屋,居酒屋,渋谷区幡ヶ谷2-13-6富士ビルB1,03-6276-6106,
豚忠(トンチュー),飲食,居酒屋,居酒屋,渋谷区千駄ヶ谷3-14-61F,03-6447-1022,
東京ロージー,飲食,その他(バー・クラブ・スナックなど),バー,渋谷区幡ヶ谷2丁目12番17号,050-5879-6769,
トーチカフェ,飲食,外国料理,イタリア料理,渋谷区恵比寿南2-1-12サトウビル2F,03-3712-6888,
どさんこととなり,飲食,居酒屋,居酒屋,渋谷区元代々木町9-7トップリバー川上1階,03-3485-7539,
呑喰らい Don't Cry,飲食,居酒屋,居酒屋,渋谷区恵比寿西1-3-2恵比寿テラスビル 1階A,03-6416-1955,
中戸川,飲食,居酒屋,居酒屋,渋谷区上原1-33-12ちとせビル201,03-6416-8086,
ナタデクリスチアノ,飲食,喫茶店・カフェ,喫茶店・カフェ,渋谷区富ヶ谷1-14-16-103スタンフォードコート,03-6804-9723,
NachuRa,飲食,喫茶店・カフェ,喫茶店・カフェ,渋谷区富ヶ谷1-17-7第二山栄ビル1階,070-4680-4217,
NUTS&MILK,飲食,喫茶店・カフェ,喫茶店・カフェ,渋谷区本町6-38-4-1階店舗,080-6791-0181,
nadoya no kaTte,飲食,喫茶店・カフェ,喫茶店・カフェ,渋谷区西原3丁目19-3,090-3979-0865,
7CAFE,飲食,喫茶店・カフェ,喫茶店・カフェ,渋谷区幡ヶ谷2–13-1平沼ビル102,080-4410-7757,http://7cafe.jp
nanoru namonai,飲食,居酒屋,ダイニング・バー,渋谷区富ヶ谷1-2-12田崎ビル2階,03-6804-9302,
ナマステさくら,飲食,外国料理,インド料理,渋谷区本町6丁目36-5-1F,03-4363-6773,
並木橋　鮨　一,飲食,日本料理,寿司,渋谷区渋谷3-15-5グリームビルB1F,03-6419-7621,
波の家,飲食,日本料理,日本料理,渋谷区恵比寿西1-14-6HAGIWARA BLDG6 3階,03-6427-0166,
なんなん亭,飲食,居酒屋,居酒屋,渋谷区代々木2-13-6YU-WAビル　B1F,03-6276-6905,
no.501,飲食,外国料理,無国籍料理,渋谷区神宮前2丁目5番4-104号,03-6721-0510,
ニギハヤヒティー,飲食,喫茶店・カフェ,喫茶店・カフェ,渋谷区神山町12-2星野ビル1階,080-4655-4120,
Niku gang 渋谷店,飲食,居酒屋,居酒屋,渋谷区道玄坂2-25-10ベニー清建ビル 5F,03-6452-5758,
近江うし焼肉にくTATSU渋谷店,飲食,ステーキ・焼肉,焼肉,渋谷区神南1-20-15神南101ビル　1階,03-5489-2911,
肉とワインの酒場　Wolfun,飲食,居酒屋,ダイニング・バー,渋谷区代々木2-1-1新宿マインズタワーB1,03-5309-2665,
肉バルIchi,飲食,外国料理,イタリア料理,渋谷区笹塚1-28-7第一レアヒビル103,03-6416-8860,https://nikubarichi.com/
肉バルてつ,飲食,居酒屋,ダイニング・バー,渋谷区千駄ヶ谷5丁目20番19号勝栄ビル1-A,03-6380-4004,
肉ビストロHIGHTAIL,飲食,ステーキ・焼肉,ステーキ,渋谷区恵比寿4-23-12茗荷原ビル1階,03-6456-3279,
肉屋の台所　渋谷宮益坂店,飲食,ステーキ・焼肉,焼肉,渋谷区渋谷1-25-6渋谷パークサイド共同ビル5F,03-3409-0291,
二代目鮓桂田,飲食,日本料理,寿司,渋谷区恵比寿西2-17-8アイティーオー代官山一階,03-3770-9880,
二丁目渋谷ゴールデンGUY,飲食,その他(バー・クラブ・スナックなど),ラウンジ,渋谷区道玄坂2-8-8コスモ渋谷会館602号,03-3770-1021,
ニチヨウカレー,飲食,外国料理,インド料理,渋谷区千駄ヶ谷3-27-4小林ビル1F,03-6434-0234,
日本料理いまここ,飲食,日本料理,日本料理,渋谷区円山町25-8ビション道玄坂1階,03-6277-5213,
日本ワインソワレ,飲食,その他(バー・クラブ・スナックなど),バー,渋谷区千駄ヶ谷3丁目24番8号北参道R 1F,03-6300-7624,https://www.instagram.com/soiree.wine/
ニャフェ・メランジェ,飲食,喫茶店・カフェ,その他,渋谷区恵比寿1-7-13　麻仁ビル恵比寿3F,03-5449-4024,
ニューウェルファンカフェ,飲食,外国料理,スペイン料理,渋谷区西原3-24-1アムール代々木上原101,03-6804-8171,
ニューキッチンイロハ,飲食,居酒屋,居酒屋,渋谷区千駄ヶ谷5-20-10ほぼ新宿のれん街,03-3356-8226,
ニューサザンクロス,飲食,その他(バー・クラブ・スナックなど),スナック・パブ・キャバレー,渋谷区道玄坂1-5-5フジキビル　6F,03-6455-2226,
Newzea Platform,飲食,外国料理,その他,渋谷区神山町42-3 3FNewzea Platform,03-5790-9445,
newTRINO,飲食,居酒屋,ダイニング・バー,渋谷区代官山町3-4ダイカンヤマダンダンフィールド102,090-1056-3576,
ニル,飲食,居酒屋,ダイニング・バー,渋谷区東1-25-5フィルパーク渋谷東1F,03-6450-6014,
ニンニクバルにょんにょご,飲食,居酒屋,居酒屋,渋谷区神山町7-8 Kビル渋谷1階,080-4111-0225,
にんにくレストランアホアホ,飲食,居酒屋,居酒屋,渋谷区上原1-34-8ヒガヤビル1階,03-3465-4321,
2031,飲食,外国料理,イタリア料理,渋谷区神山町16-4ヴィラメトロポリス5A,080-7899-4004,
ＮＥＯＮ,飲食,その他(バー・クラブ・スナックなど),スナック・パブ・キャバレー,渋谷区恵比寿南2-3-3第一恵比寿マンション B1F,03-6412-8400,
ねこまど,飲食,その他(バー・クラブ・スナックなど),その他,渋谷区初台1-38-10二名ビル1階,090-1739-3833,
ネパール料理＆BAR マンダラ,飲食,外国料理,東南アジア料理,渋谷区桜丘町16-9DK渋谷ビル3F,03-3463-5181,
のっこい,飲食,居酒屋,居酒屋,渋谷区幡ヶ谷1-4-1花ビル1F,03-3372-6550,
nomad dalla libera,飲食,外国料理,イタリア料理,渋谷区東3丁目20番1号アークプレイス恵比寿2階,03-6452-6993,
呑み喰い亭あいねぇ〜,飲食,居酒屋,居酒屋,渋谷区西原2-28-4宮嶋ビル105,090-6522-0904,
呑み食い処わいわい,飲食,居酒屋,居酒屋,渋谷区神宮前3-38-2高橋ビル1階,03-3402-4139,
呑み処谷,飲食,その他(バー・クラブ・スナックなど),バー,渋谷区宇田川町37-14篠原ビル203,070-1534-6052,
のら,飲食,その他(バー・クラブ・スナックなど),カフェバー,渋谷区渋谷1-25-10のんべい横丁,080-5466-6314,
Noir,飲食,その他(バー・クラブ・スナックなど),バー,渋谷区恵比寿南3-1-25Ice Cube 5F,03-5725-9888,
ノンベエエビス,飲食,居酒屋,居酒屋,渋谷区恵比寿南2-3-3第一恵比寿マンション地下,03-6303-2500,
HIDEAWAY,飲食,喫茶店・カフェ,喫茶店・カフェ,渋谷区千駄ヶ谷4-29-11玉造ビル2　B1F,070-3546-0010,
はいばな　恵比寿,飲食,居酒屋,居酒屋,渋谷区恵比寿南1-1-3今鉾ビル3F,03-3712-0158,
ハイパー,飲食,居酒屋,居酒屋,渋谷区桜丘町16-8アトラス桜丘ビル3階,070-8404-2874,https://instagram.com/hpkt2?igshid=MzRlODBiNWFlZA==
HAUS,飲食,外国料理,イタリア料理,渋谷区神宮前2-14-5HAUS,03-6692-9626,
HauS Bake&Cafe,飲食,喫茶店・カフェ,喫茶店・カフェ,渋谷区広尾5-17-6河上ビル1F,03-6456-4578,
中国料理白鳳,飲食,外国料理,中国料理,渋谷区宇田川町24-1髙木ビル地下1階中国料理白鳳,03-3461-1122,
白龍,飲食,外国料理,中国料理,渋谷区上原2-48-10第二大貴ビル1F,03-3460-2018,
haconiwa.,飲食,その他(バー・クラブ・スナックなど),カフェバー,渋谷区恵比寿1-20-1恵比寿コンフォートビル3階,070-8399-6531,
はじけました,飲食,喫茶店・カフェ,喫茶店・カフェ,渋谷区恵比寿1-13-10恵比寿壱番館102,03-5422-9028,
はじめ,飲食,喫茶店・カフェ,喫茶店・カフェ,渋谷区幡ヶ谷2-5-8伊藤貸店舗北側,03-6381-6172,
HASUO,飲食,外国料理,韓国料理,渋谷区広尾5-10-3フロストバード広尾1階,03-6456-4377,
幡ヶ谷小町食堂,飲食,日本料理,日本料理,渋谷区幡ヶ谷2-20-6,03-3376-6792,https://arc-komachi.jp/
ハタガヤサカバ獣’s,飲食,居酒屋,ダイニング・バー,渋谷区幡ヶ谷2-13-4定石ビル2階,03-6673-1051,
はたがや酒場　はだか電球,飲食,居酒屋,居酒屋,渋谷区幡ヶ谷2-3-9つくしビル2F,03-3377-0141,
幡が谷のらんぽう,飲食,居酒屋,居酒屋,渋谷区幡ヶ谷2-12-17清水荘1-D,03-6304-2240,
幡ヶ谷ベース,飲食,その他(バー・クラブ・スナックなど),バー,渋谷区幡ヶ谷3-11-9,090-3661-7824,
幡ヶ谷ルディ,飲食,その他(バー・クラブ・スナックなど),バー,渋谷区幡ヶ谷2-47-1小路ビルB号室,080-1141-9561,
HACHI,飲食,居酒屋,居酒屋,渋谷区富ヶ谷1丁目53の2辰美ビル2階,03-3481-5828,
八,飲食,その他(バー・クラブ・スナックなど),スナック・パブ・キャバレー,渋谷区初台1-38-11桜内ビル2F,03-6258-2725,
ハチドリ,飲食,喫茶店・カフェ,喫茶店・カフェ,渋谷区西原 1丁目40-18渋谷区スポーツセンター2階,03-6804-7898,
八屋,飲食,喫茶店・カフェ,喫茶店・カフェ,渋谷区千駄ヶ谷3-2-10GSフェイスビル1階,03-6434-9438,https://8ya.jp/
HACHIYAcurry,飲食,外国料理,インド料理,渋谷区神山町10-8グランドゥール101,03-6770-6589,
発酵喫茶と酒場 yuen,飲食,その他(バー・クラブ・スナックなど),カフェバー,渋谷区笹塚3-40-12F,090-9410-7735,https://instagram.com/yuen_hakko
HATTO COFFEE,飲食,喫茶店・カフェ,喫茶店・カフェ,渋谷区神宮前2-18-19the Folks SHOP2,03-6910-5757,
株式会社Ｈａｐｐｙ　Ｓｕｎｎｙ,飲食,喫茶店・カフェ,喫茶店・カフェ,渋谷区西原2丁目35番1号ブランエール代々幡101,090-7091-4469,
初台　こもれび,飲食,日本料理,小料理,渋谷区初台1-35-3,03-6383-3949,
初台　魚ちゃん,飲食,居酒屋,居酒屋,渋谷区本町2-7-10シブヤfハウス1階,03-6276-2552,
初台酒場三丁目,飲食,居酒屋,居酒屋,渋谷区初台1-11-15南洋ビル1F C号室,03-6276-0131,https://hatsudaisakaba3chome.com/
初台　酒と飯橙,飲食,居酒屋,居酒屋,渋谷区本町2-46-1第三市田ビル103,03-6276-7719,https://yoyaku.tabelog.com/yoyaku/net_booking_form/index?rcd=13246076
初台ピンチョス専門バル,飲食,外国料理,スペイン料理,渋谷区本町2-40-3fabric西新宿 1F,080-3250-2882,
初音鮨,飲食,日本料理,寿司,渋谷区西原3-17-10,03-3469-0181,
HATO,飲食,外国料理,無国籍料理,渋谷区初台1-9-7T&Tビル101,03-6770-3944,
鳩やぐら,飲食,居酒屋,居酒屋,渋谷区千駄ヶ谷1-22-4,090-3316-8108,
花咲じいさん,飲食,日本料理,日本料理,渋谷区富ヶ谷1-52-2,03-6804-8810,
花ぜん,飲食,日本料理,その他,渋谷区神宮前5-30-5スカイラーク神宮前1階,03-3499-4906,
ハナワサビ,飲食,日本料理,小料理,渋谷区恵比寿1-8-7三恵8ビル6階,03-3444-5410,
はなわベイビー,飲食,居酒屋,ダイニング・バー,渋谷区幡ヶ谷2-9-3ナカケンビル1階,090-3408-0089,
ハブモアカレー,飲食,外国料理,無国籍料理,渋谷区猿楽町2-13F93 Daikanyama 1F ハブモアカレー,03-6416-1099,
HABURASHIBEERANDPOTATO,飲食,その他(バー・クラブ・スナックなど),バー,渋谷区道玄坂2-9-4道玄坂LEE-ONEビル3階,03-6277-5429,
原宿うどん伊呂波,飲食,日本料理,そば・うどん,渋谷区神宮前4-28-26木村ビル1F,03-6804-5778,
ハラペコ78,飲食,日本料理,お好み焼き,渋谷区恵比寿1-33-8MHビル1F,03-5420-9878,
ハラミが主役,飲食,ステーキ・焼肉,焼肉,渋谷区幡ヶ谷2-7-9仲屋ビルB1,03-3375-0552,
梁,飲食,居酒屋,居酒屋,渋谷区猿楽町12-10DHビル1D,03-3464-0227,
はるか,飲食,居酒屋,居酒屋,渋谷区宇田川町30-5渋谷JOWビル 6階,03-6380-0182,
ハルカブレッズ,飲食,喫茶店・カフェ,喫茶店・カフェ,渋谷区西原1-29-3ドエルアーバン1-A,03-6276-8831,
ハルダモンカレー,飲食,外国料理,インド料理,渋谷区西原3-20-5ファーストパティオ地下1階,080-3554-0033,
ハルディン,飲食,外国料理,スペイン料理,渋谷区代々木3-13-1キャッスルメリー71 スマイル,070-7466-7610,
hale'aina HOA 渋谷,飲食,喫茶店・カフェ,喫茶店・カフェ,渋谷区渋谷2-17-1渋谷アクシュ1F,03-5468-1233,
ハンガリーワインダイニング AZ Finom,飲食,外国料理,その他,渋谷区神宮前2-19-5AZUMAビル B1F,03-5913-8073,http://www.az-group.jp/az-finom/
ハングオーバー,飲食,その他(バー・クラブ・スナックなど),バー,渋谷区宇田川町41-31ユニデン渋谷ビルB1F,070-1592-1216,
韓ぐる,飲食,外国料理,韓国料理,渋谷区幡ヶ谷2-9-20第二DNビル　2F,03-6381-6244,
haf moon club,飲食,その他(バー・クラブ・スナックなど),バー,渋谷区幡ヶ谷2-8-15KODAビル202,03-3370-8242,
BioGaia Kafé,飲食,喫茶店・カフェ,喫茶店・カフェ,渋谷区広尾5-15-1日計広尾コーポ102,03-6447-7320,
biu,飲食,その他(バー・クラブ・スナックなど),バー,渋谷区富ヶ谷1-17-33A TERRACE 5F,080-1059-6030,
BANH MI STAR SHIBUYA by Nha Viet nam,飲食,外国料理,東南アジア料理,渋谷区渋谷3-21-3渋谷ストリーム 2F,03-5962-7962,
BOW,飲食,居酒屋,ダイニング・バー,渋谷区宇田川町41-26パピエビル202,03-6712-7797,
麦酒庵恵比寿店,飲食,居酒屋,居酒屋,渋谷区恵比寿南2-1-5ES215ビル7F,03-3719-3949,
BAGGAGE CAFEMARKET,飲食,喫茶店・カフェ,喫茶店・カフェ,渋谷区神宮前3-14-17荻島ビル1F,050-1504-5115,
bacio69,飲食,その他(バー・クラブ・スナックなど),バー,渋谷区恵比寿南2-3-3BF1,080-5423-4683,
バタフライカフェ,飲食,外国料理,東南アジア料理,渋谷区西原3-21-3シニシビル1F,03-6804-9254,
バッキー,飲食,その他(バー・クラブ・スナックなど),バー,渋谷区道玄坂1-6-5クキビルB1,03-3464-7792,
バノーク コーヒー,飲食,喫茶店・カフェ,喫茶店・カフェ,渋谷区千駄ヶ谷3-7-61F,090-5418-5860,
バハマキッチン,飲食,外国料理,その他,渋谷区宇田川町11-2宇田川柳光ビル 4F,03-6455-2924,
Bubbles,飲食,その他(バー・クラブ・スナックなど),バー,渋谷区円山町7-2EDIFICE渋谷101,03-3496-7820,
BHARATIIndianRESTAURANT,飲食,外国料理,インド料理,渋谷区元代々木町2-9City House Yoyogikoen,03-3481-6646,
BARALCOOL,飲食,その他(バー・クラブ・スナックなど),バー,渋谷区渋谷2-8-4東和青山ビルB01,03-6451-1615,
BARU HiLO,飲食,居酒屋,居酒屋,渋谷区笹塚1-22-9里テラス1階,050-1127-0337,https://instagram.com/baruhilo?igshid=OGQ5ZDc2ODK2ZA==
バルクリブ,飲食,その他(バー・クラブ・スナックなど),バー,渋谷区笹塚3-43-6,090-2551-7908,
バルコモド,飲食,外国料理,イタリア料理,渋谷区恵比寿西1-14-6萩原ビル第6 1階,03-6455-0400,
BAL HARA,飲食,居酒屋,ダイニング・バー,渋谷区恵比寿西2-21-13Fビル　1F,03-6416-3150,
バル　ペピート,飲食,外国料理,スペイン料理,渋谷区恵比寿1-12-5萩原ビル3-1F,03-6277-4114,
ばんざい　和ゆう,飲食,居酒屋,居酒屋,渋谷区本町2-1-1島山ビル　101,090-9235-1788,
BumBleBee,飲食,その他(バー・クラブ・スナックなど),バー,渋谷区恵比寿1-12-5萩原ビル3 地下1階,03-3449-9497,
Bar Tnb,飲食,その他(バー・クラブ・スナックなど),バー,渋谷区千駄ヶ谷エビデンワビル2.5階,090-5179-1704,
Bar Table かば山,飲食,居酒屋,ダイニング・バー,渋谷区幡ヶ谷3-2-6佐藤ビル　1階,03-6276-5655,
バー　ムーンシャイナー,飲食,その他(バー・クラブ・スナックなど),バー,渋谷区宇田川町28-1高山ランド第15ビル9F,03-3461-1618,
バーアルマゲドン,飲食,その他(バー・クラブ・スナックなど),バー,渋谷区円山町10-7リーフ渋谷16 202,070-8968-0428,
BAR　andatt,飲食,その他(バー・クラブ・スナックなど),バー,渋谷区恵比寿西1-4-4ルソレイユ地下1階,03-6452-5770,
Bar and Shisha Vedge,飲食,その他(バー・クラブ・スナックなど),バー,渋谷区神南1-20-8パークウェイテラス4F,03-6697-9479,
Bar & Dining TORRENT（トレント）／SHIBUYA STREAM HOTEL,飲食,外国料理,その他,渋谷区渋谷3-21-3SHIBUYA STREAM HOTEL 4F,03-6427-1358,https://www.tokyuhotels.co.jp/shibuyastream/restaurant/index.html
バーイチイチ,飲食,その他(バー・クラブ・スナックなど),バー,渋谷区恵比寿西2-8-9代官山宝ビル6,080-1765-9845,
Bar 糸,飲食,その他(バー・クラブ・スナックなど),バー,渋谷区恵比寿4-11-8グランヌーノ301,03-6432-5593,
Bar Winny,飲食,その他(バー・クラブ・スナックなど),バー,渋谷区道玄坂2-29-18清水ビル8階,03-6416-0478,
BAR UIGEADAIL,飲食,その他(バー・クラブ・スナックなど),バー,渋谷区笹塚2-16-2ASP笹塚ビル4F,070-9200-3729,https://www.bar-uigeadail.com/
BAR EBIS 29,飲食,その他(バー・クラブ・スナックなど),バー,渋谷区恵比寿1-23-10LCUBE EBIS 5F,090-1700-2829,
バーエボニー,飲食,その他(バー・クラブ・スナックなど),バー,渋谷区道玄坂2-18-2上村ビルB1F,03-6427-0850,
Bar  M13,飲食,その他(バー・クラブ・スナックなど),バー,渋谷区代々木1-32-10ラックビル5階,090-7355-0344,
BarLm.,飲食,その他(バー・クラブ・スナックなど),バー,渋谷区渋谷2丁目12番11号B1F渋谷KKビル,03-6450-5007,
BAR A seat,飲食,その他(バー・クラブ・スナックなど),バー,渋谷区神泉町1-19美幸ビル1階,03-5458-4110,
BAR ŌMORI,飲食,その他(バー・クラブ・スナックなど),バー,渋谷区富ヶ谷1丁目51ー6,080-4772-1211,
BAR風木,飲食,その他(バー・クラブ・スナックなど),バー,渋谷区恵比寿南1-1-4村田ビル3F,03-3760-1101,
Bar希望,飲食,その他(バー・クラブ・スナックなど),バー,渋谷区神山町7-8,03-3465-7577,
Bar QB,飲食,その他(バー・クラブ・スナックなど),バー,渋谷区恵比寿西1-4-8Breeze Ebisu 2階,090-5629-3094,
バーグラベル,飲食,その他(バー・クラブ・スナックなど),バー,渋谷区代々木1-13-2エンドウビル1階,03-3374-8763,
Bar×Grill Lust,飲食,その他(バー・クラブ・スナックなど),バー,渋谷区道玄坂2-23-13渋谷デリタワー8階,03-6455-2258,https://retty.me/area/PRE13/ARE8/SUB806/100001631473/
BAR CORRYVRECKAN,飲食,その他(バー・クラブ・スナックなど),バー,渋谷区富ヶ谷2丁目43ー11永和ビル富ヶ谷3階,080-3504-1815,https://www.instagram.com/barcorryvreckan?igsh=bnp1M290a2hpYTBi&utm_source=qr
ば〜ささめ,飲食,居酒屋,居酒屋,渋谷区円山町1-18峯ビル2階,090-8721-8333,
BAR-SARAKA,飲食,その他(バー・クラブ・スナックなど),バー,渋谷区富ヶ谷1-43-23代々木公園ガーデニア104,070-5573-7405,
BAR31°,飲食,居酒屋,ダイニング・バー,渋谷区円山町1-18ミネビル3F,090-2263-7099,
BAR 30 CLUB,飲食,その他(バー・クラブ・スナックなど),バー,渋谷区道玄坂2-23-11トウショウビル3F,03-3496-7907,
BAR SHIBUYA KALLAS(カラス,飲食,その他(バー・クラブ・スナックなど),バー,渋谷区道玄坂2-23-13渋谷デリタワー10階,03-3461-7833,https://www.instagram.com/p/CkaTA-suVNg/?igshid=YmMyMTA2M2Y=
BARSync,飲食,その他(バー・クラブ・スナックなど),バー,渋谷区恵比寿1-8-7三恵エイトビル102,03-6721-9730,
barSeaRoom(バーシールーム),飲食,その他(バー・クラブ・スナックなど),バー,渋谷区幡ヶ谷1-33-6UH幡ヶ谷102,03-6407-0907,https://instagram.com/barsearoom?igshid=YmMyMTA2M2Y=
Virgin Swan,飲食,その他(バー・クラブ・スナックなど),スナック・パブ・キャバレー,渋谷区恵比寿西1丁目14番6号ハギワラビル6地下1階,03-6416-0200,
Bar CEP・DOR,飲食,その他(バー・クラブ・スナックなど),バー,渋谷区道玄坂1-6-3道玄坂パールビル2F,03-3780-5844,
バーダヴィー,飲食,その他(バー・クラブ・スナックなど),バー,渋谷区神山町5-6酒販会館2階,090-1360-1630,
bar蕾,飲食,その他(バー・クラブ・スナックなど),バー,渋谷区道玄坂1-19-6津田ソシアルビル001 地下一階,080-6315-5779,
BAR TRUST,飲食,その他(バー・クラブ・スナックなど),バー,渋谷区恵比寿1-22-10カマスヤビル地下1階,03-3449-8732,
BARDEBIS,飲食,外国料理,スペイン料理,渋谷区恵比寿1-22-14石井ビルB1F,03-6450-2774,
Bar Dragon Fruit,飲食,その他(バー・クラブ・スナックなど),バー,渋谷区西原3-24-12テラ代々木上原103,03-5454-0021,https://www.bardragonfruit.com/
Bar dritt,飲食,その他(バー・クラブ・スナックなど),バー,渋谷区恵比寿西2-2-6恵比寿ファイブビル101号,03-5489-5532,
BAR　natural,飲食,その他(バー・クラブ・スナックなど),バー,,03-4363-5627,
バーニット,飲食,その他(バー・クラブ・スナックなど),バー,渋谷区西原2-28-4宮嶋ビルB1,03-6407-9626,
barHitari,飲食,その他(バー・クラブ・スナックなど),バー,渋谷区代々木1-10-7シャトレー代々木第一ビル　B1階,080-8358-0730,
BAR日知屋,飲食,その他(バー・クラブ・スナックなど),バー,渋谷区道玄坂1-17-9ヴェラハイツ道玄坂 1F,03-6416-3639,https://g.co/kgs/K8KhHJ
BAR FLAT,飲食,その他(バー・クラブ・スナックなど),バー,渋谷区代々木1-54-2小林ビルB1,070-8308-5313,
BARBUSHITSU,飲食,その他(バー・クラブ・スナックなど),バー,渋谷区恵比寿南1-8-8リアルミホビル3F,090-7230-0075,
Bar Brown Tokyo,飲食,その他(バー・クラブ・スナックなど),バー,渋谷区恵比寿南2-25-3EBISU HANA BLDG B1,03-6303-0301,
バーベベ,飲食,その他(バー・クラブ・スナックなど),バー,渋谷区代々木1-41-3タキガワビル1階,070-4412-6226,https://www.instagram.com/yoyogi.bebe/
Bar Perche,飲食,その他(バー・クラブ・スナックなど),バー,渋谷区神宮前2-3-30第二竹上ビル101,03-6459-2855,
Bar PotStill,飲食,その他(バー・クラブ・スナックなど),バー,渋谷区道玄坂1-20-12MT道玄坂ビルB1,03-5459-2733,
Bar 松虎,飲食,その他(バー・クラブ・スナックなど),バー,渋谷区広尾1-16-2VORT恵比寿II 2F,03-3444-9333,
BAR mArs EBISU,飲食,その他(バー・クラブ・スナックなど),バー,渋谷区恵比寿1-22-27マガザン恵比寿9F,090-7249-0877,
Bar MIZ,飲食,その他(バー・クラブ・スナックなど),バー,渋谷区渋谷2-2-4青山アルコーブ203,03-6433-5906,
BAR木蓮,飲食,その他(バー・クラブ・スナックなど),バー,渋谷区幡ヶ谷2-8-15KODAビル幡ヶ谷303,03-5309-2393,
Bar夜行,飲食,その他(バー・クラブ・スナックなど),バー,渋谷区桜丘町16-2サクラブルーム201,03-3461-2286,
BAR LOUNGE VIVI,飲食,その他(バー・クラブ・スナックなど),バー,渋谷区恵比寿1-12-7三恵31ビル 6階C,03-3441-6119,
バーリムショット,飲食,その他(バー・クラブ・スナックなど),バー,渋谷区笹塚2-41-17滝沢ビルB1,03-6300-4748,
Bar Ring…,飲食,その他(バー・クラブ・スナックなど),バー,渋谷区笹塚2-19-1ザ・シティ笹塚8F,03-5843-5181,
バー・ロカイユ,飲食,その他(バー・クラブ・スナックなど),バー,渋谷区神南1-3-3サンフォーレスト601,03-6452-5606,
Bar Wasabi,飲食,その他(バー・クラブ・スナックなど),バー,渋谷区千駄ヶ谷3ー27ー4 小林ビル 1F,03-6434-0234,
バー・クィール,飲食,その他(バー・クラブ・スナックなど),バー,渋谷区代々木5-55-7N-LAND YOYOGI601号室,03-6407-8910,
パイルカフェ,飲食,外国料理,その他,渋谷区恵比寿西1-8-2ウエストパレスビル207,03-3770-2615,
Pintology,飲食,その他(バー・クラブ・スナックなど),バー,渋谷区笹塚1-33-10香樹ハイツ101,070-4339-5532,https://www.instagram.com/pintologytokyo/
パスタンダードウエハラ,飲食,居酒屋,居酒屋,渋谷区西原3-3-3三誠ビルディング102,03-6407-8100,
パチパチミートカフェ,飲食,喫茶店・カフェ,喫茶店・カフェ,渋谷区幡ヶ谷2丁目1-1都営幡ヶ谷2丁目アパート1号棟116号,080-4461-9235,
パドラーズ,飲食,喫茶店・カフェ,喫茶店・カフェ,渋谷区西原2-26-5,03-5738-7281,
パニーニ一番,飲食,喫茶店・カフェ,喫茶店・カフェ,渋谷区千駄ヶ谷1-21-3明治屋ビル 1階,03-6447-0940,
PUBLIC HOUSE EPILOGUE,飲食,その他(バー・クラブ・スナックなど),その他,渋谷区恵比寿南恵比寿1-6-3ゼネラルビル恵比寿イーストB1,03-3441-3588,
パラドール,飲食,外国料理,スペイン料理,渋谷区恵比寿南2-3-1パイザ恵比寿ビル2F,03-6412-8077,
パリバール,飲食,外国料理,インド料理,渋谷区幡ヶ谷2-7-9-2f,03-6276-7925,
parc,飲食,その他(バー・クラブ・スナックなど),バー,渋谷区宇田川町41-26パピエビル101,03-6427-8092,
パンコントマテ 代々木,飲食,外国料理,イタリア料理,渋谷区代々木1-58-7ヴェラハイツ代々木206,03-6276-7302,
パンツェロッテリア,飲食,外国料理,イタリア料理,渋谷区松濤2-14-12シャンボール松濤105,080-2675-7216,
パンとコーヒーの店ジャムハウス,飲食,喫茶店・カフェ,喫茶店・カフェ,渋谷区西原1-35-8ジャムハウス,03-3468-2807,
parkcafe,飲食,喫茶店・カフェ,その他,渋谷区上原吉野ビルB1F,03-6407-1359,
パークカフェ渋谷区立中央図書館店,飲食,喫茶店・カフェ,その他,渋谷区神宮前1丁目4-1渋谷区立中央図書館,03-6407-1359,
東,飲食,日本料理,小料理,渋谷区西原1-13-5,03-3466-6064,
東松山の秘伝みそだれ　やきとりマルヒ,飲食,居酒屋,居酒屋,渋谷区恵比寿南1-8-4屋宮ビル1階,03-6412-7392,https://tabelog.com/tokyo/A1303/A130302/13301582/
ひがしラウンジ,飲食,喫茶店・カフェ,喫茶店・カフェ,渋谷区東3‐14‐13,03-5466-2681,
ひしゅうや,飲食,居酒屋,居酒屋,渋谷区円山町18番2号藤田ハイツ1F,03-3463-0075,
ひととき,飲食,その他(バー・クラブ・スナックなど),バー,渋谷区円山町27-3円山町ビル2階,080-4406-2455,
ひととき　幡ヶ谷,飲食,居酒屋,居酒屋,渋谷区幡ヶ谷2-8-15KODAビル幡ヶ谷201,090-2470-0908,
日々薬,飲食,その他(バー・クラブ・スナックなど),カフェバー,渋谷区神宮前5-11-8T&Mビル　B1F,03-6434-1226,
日々ごはん 穂の間。,飲食,居酒屋,居酒屋,渋谷区富ヶ谷1-53-2辰美ビル,03-6804-8571,
ヒマラヤカリー参宮橋店,飲食,外国料理,インド料理,渋谷区代々木4-6-1,03-6410-8455,
秘蜜な焼き芋,飲食,喫茶店・カフェ,喫茶店・カフェ,渋谷区神宮前4-7-2,090-3333-8954,
ひょうたん,飲食,居酒屋,居酒屋,渋谷区神宮前3-25-7,03-3478-0582,
広瀬,飲食,日本料理,小料理,渋谷区道玄坂1-13-2MMビル2F,03-5456-8181,
HERO,飲食,その他(バー・クラブ・スナックなど),ラウンジ,渋谷区道玄坂2-8-8コスモ渋谷会館103号,03-3461-2555,
beer bar Cyblume,飲食,その他(バー・クラブ・スナックなど),バー,渋谷区円山町1番3号SKビル1階,080-8119-9566,
ビアブレインハラジュク,飲食,その他(バー・クラブ・スナックなど),バー,渋谷区神宮前2-18-19the Folks BY IOQ 1F SHOP4,080-9664-7170,
ビオ・オジヤン・カフェ原宿本店,飲食,喫茶店・カフェ,喫茶店・カフェ,渋谷区神宮前4-26-28ヤナイビル1F,03-3746-5990,
ビグ,飲食,その他(バー・クラブ・スナックなど),バー,渋谷区道玄坂2-19-14,03-3461-8574,
美神鶏,飲食,居酒屋,居酒屋,渋谷区恵比寿西1-3-10ファイブアネックス2F,03-5459-5700,
ビストロ ココ 路地裏,飲食,外国料理,イタリア料理,渋谷区神宮前2-20-5コンフォール神宮前1F,03-6447-5285,
Bistro&Cafe 十字屋　TOMIGAYA,飲食,喫茶店・カフェ,喫茶店・カフェ,渋谷区富ヶ谷1-14-13メゾンテオブロマ1F,03-6407-9384,
ビストロ　イズミー,飲食,外国料理,フランス料理,渋谷区幡ヶ谷1-9-6リッツ幡ヶ谷102,03-6383-4415,
ビストロエビス,飲食,外国料理,フランス料理,渋谷区東3-15-8小澤ビル101,03-6427-3789,
Bistro Kou,飲食,外国料理,イタリア料理,渋谷区神宮前3-25-7丹治ビル1F,03-3401-3795,
ビストロコージー,飲食,外国料理,無国籍料理,渋谷区初台初台1-7-6,03-3370-3587,
BISTRO SAVEUR　（ビストロサヴェール）,飲食,外国料理,その他,渋谷区恵比寿南1丁目17-17TimeZoneテラスビル3階全号室,03-6452-3168,
ビストロジャズキッサ,飲食,外国料理,フランス料理,渋谷区恵比寿2-1-5佐々木ビルB102,090-8644-2214,
ビストロ神六,飲食,喫茶店・カフェ,喫茶店・カフェ,渋谷区神宮前5-11-8K&TTビル,03-6434-1226,
bistrot SEMAILLES,飲食,外国料理,フランス料理,渋谷区上原1-3-8ル・パルク上原102,070-4466-3968,
ビストロ武生,飲食,居酒屋,居酒屋,渋谷区本町2-32-4はっちょうビル,03-3377-9940,
ビストロデコ／ガレットデコ,飲食,外国料理,フランス料理,渋谷区笹塚3-19-6萩原ビル1階,03-6304-2855,
ビストロとサカバTAKE,飲食,居酒屋,居酒屋,渋谷区富ヶ谷1-14-14スタンフォードアネックスビル1階,03-3467-9333,
ビストロブラウン,飲食,ステーキ・焼肉,ステーキ,渋谷区宇田川町33-10J+RビルJサイド2F,03-6277-5431,
Bistro Horitetsu,飲食,外国料理,フランス料理,渋谷区宇田川町42-15中島ビルB1,03-6427-0200,
Bistro 本当のはじまり,飲食,居酒屋,ダイニング・バー,渋谷区代々木1-52-5ベルテ南新宿B1階,090-8149-2924,
ビストロボルドー,飲食,外国料理,フランス料理,渋谷区円山町12-10　HTマルヤマ,03-6452-5111,
ビババンコ,飲食,外国料理,イタリア料理,渋谷区元代々木町12-7ザサードヨヨギウエハラ1階,03-5452-4425,
VIVE LA VIE,飲食,その他(バー・クラブ・スナックなど),バー,渋谷区渋谷2-4-6サンゼンビルB1,03-5485-5498,
美味飲茶酒樓,飲食,外国料理,中国料理,渋谷区猿楽町11-6サンローゼ代官山204,03-3770-2168,
BE A GOOD  NEIGHBOR SENDAGAYA,飲食,喫茶店・カフェ,喫茶店・カフェ,渋谷区千駄ヶ谷3-51-6,03-5770-3195,https://beagoodneighbor.net
B.M.L,飲食,その他(バー・クラブ・スナックなど),バー,渋谷区宇田川町32-7HULIC &New UDAGAWA11階,03-6416-0990,
ビーグル,飲食,喫茶店・カフェ,喫茶店・カフェ,渋谷区西原3-23-6K'sスクエア1F,03-5790-7663,
BW01,飲食,その他(バー・クラブ・スナックなど),バー,渋谷区恵比寿4-27-7S:vort恵比寿 3F,03-6409-6758,
BeefGarden恵比寿,飲食,ステーキ・焼肉,焼肉,渋谷区恵比寿4-10-8orange恵比寿1F,03-6277-2078,https://tabelog.com/tokyo/A1303/A130302/13195568/
Be full,飲食,その他(バー・クラブ・スナックなど),ラウンジ,渋谷区道玄坂2-8-8コスモ渋谷会館601号,03-3476-4625,
ビール100円たんと,飲食,居酒屋,居酒屋,渋谷区道玄坂1-9-1梅山ビルB1F,080-4736-5793,
BEANS&BEANSぽえむ,飲食,喫茶店・カフェ,喫茶店・カフェ,渋谷区笹塚1-48-14ショッピングモール笹塚21　2F,03-5738-7501,
Pieni Joki Coffee,飲食,喫茶店・カフェ,喫茶店・カフェ,渋谷区笹塚3-14-1荻野荘1F,03-6276-0369,
ピコデガヨ原宿表参道店,飲食,外国料理,その他,渋谷区神宮前6-4-2神宮前Fビル一階,080-3589-6688,
Pigeon,飲食,外国料理,フランス料理,渋谷区上原3-1-3タカダビル1F,03-6427-7615,https://www.pigeonyoyogiuehara.com/
PIZZA SLICE,飲食,外国料理,その他,渋谷区猿楽町1-3 1F,03-5428-5166,
pipal,飲食,外国料理,フランス料理,渋谷区宇田川町42-11プラザ51 1F,03-3464-3857,http://www.pipal.co.jp
ピポンペン,飲食,喫茶店・カフェ,パーラー,渋谷区神山町40-1鈴井ビル 2F,03-6407-8345,
PiNCHO!,飲食,外国料理,スペイン料理,渋谷区桜丘町1-4渋谷サクラステージ　SHIBUYAサイド　1階,03-6416-1106,https://pincho.tokyo/
PDX TAPROOM,飲食,居酒屋,ダイニング・バー,渋谷区神宮前5-30-2第一タカラビル202,03-6450-5455,
ファイブボトルス,飲食,その他(バー・クラブ・スナックなど),カフェバー,渋谷区恵比寿南1-14-1山口ビル101,03-6303-0452,
ファイヤーキングカフェ,飲食,喫茶店・カフェ,喫茶店・カフェ,渋谷区上原1-30-9代々木上原ハイツ,03-3469-7911,
FabuDine.,飲食,居酒屋,ダイニング・バー,渋谷区広尾5-19-12広尾テラス1階,03-6450-3020,
Famiglia,飲食,外国料理,イタリア料理,渋谷区神宮前2-19-15コーポ松園202,03-6875-8944,
ファミリー,飲食,その他(バー・クラブ・スナックなど),バー,渋谷区渋谷1-10-2志水ビルB1,090-8507-8728,
ファンアイス fun.ice!,飲食,喫茶店・カフェ,喫茶店・カフェ,渋谷区代々木5-64-4 1F,080-4342-1522,https://www.facebook.com/fun.iceFromTokyoYoyogi/
ファームマートアンドフレンズ,飲食,喫茶店・カフェ,喫茶店・カフェ,渋谷区代々木3丁目9番5号,070-1381-8042,
FiGARO原宿H-14,飲食,その他(バー・クラブ・スナックなど),バー,渋谷区神宮前2丁目19番13号J2ビル1F,03-3404-1144,
FIL#,飲食,喫茶店・カフェ,喫茶店・カフェ,渋谷区西原1-7-8ツインパレスk.i103,050-5361-8428,
filcream,飲食,喫茶店・カフェ,パーラー,渋谷区千駄ヶ谷1丁目12番4号,03-3401-0171,https://instagram.com/filcream_softcream?igshid=NzZhOTFlYzFmZQ==
風花,飲食,日本料理,小料理,渋谷区恵比寿1-22-10カマスヤビル1F,03-3473-6595,
フェイバリット　シングス,飲食,喫茶店・カフェ,喫茶店・カフェ,渋谷区渋谷2-3-2シグマAGビル1階,03-6820-2724,
FoxTrot,飲食,その他(バー・クラブ・スナックなど),バー,渋谷区恵比寿南2-2-8神山ビル3階,03-6886-3760,
pho321,飲食,外国料理,その他,渋谷区神宮前2-35-9原宿リビン102,03-6432-9586,
福寿司,飲食,日本料理,寿司,渋谷区広尾5-4-15,03-3473-0239,
有限会社福田屋,飲食,日本料理,日本料理,渋谷区広尾5-3-14,03-3473-1817,https://linktr.ee/fukudaya_hiroo
福ノ家,飲食,日本料理,焼鳥,渋谷区本町2-20-5,03-3376-1011,
福はうち,飲食,居酒屋,居酒屋,渋谷区恵比寿南1-4-5けやきビルB1F,03-5721-2980,
福臨門　台湾料理,飲食,外国料理,その他,渋谷区本町2-20-5富裕ビル1F,03-3370-4445,
藤木商店,飲食,居酒屋,居酒屋,渋谷区笹塚1-57-15,03-6276-1435,
フジタカ食堂,飲食,居酒屋,居酒屋,渋谷区笹塚3-17-4桜ビル1F,03-6276-3656,
フジベーグル,飲食,喫茶店・カフェ,その他,渋谷区幡ヶ谷3丁目11-7メゾン明 1F,03-6876-0062,
鮒与,飲食,日本料理,うなぎ,渋谷区上原1-34-8,03-3467-6231,
funicula,飲食,外国料理,イタリア料理,渋谷区西原3-1-1,09-6407-0040,
FREAKY,飲食,その他(バー・クラブ・スナックなど),バー,渋谷区神山町43-2神山町ビル1F,090-2538-0053,
フリーマンカフェ 渋谷,飲食,喫茶店・カフェ,喫茶店・カフェ,渋谷区渋谷1-16-14メトロプラザ2F,03-5766-9111,https://tabelog.com/tokyo/A1303/A130301/13124332/
フリーマン食堂 （FREEMAN SHOKUDO）,飲食,外国料理,その他,渋谷区西原2-27-4升本ビル1F,03-6317-7262,
フルミナ,飲食,喫茶店・カフェ,喫茶店・カフェ,渋谷区渋谷2-8-10ビルグーテ青山3階,080-8513-1466,
FULLMOoN 渋谷本店,飲食,居酒屋,居酒屋,渋谷区渋谷1-13-5大協渋谷ビル 7F,080-4605-8722,
FRUITSONO,飲食,喫茶店・カフェ,喫茶店・カフェ,渋谷区広尾5-25-6シャトー広尾1F,03-6277-3850,
FLORA BOX 85,飲食,外国料理,スペイン料理,渋谷区渋谷1-24-5ドクターズビルB1,03-3486-5116,
FOODISKOREA原宿店,飲食,喫茶店・カフェ,喫茶店・カフェ,渋谷区神宮前1-15-4Barbizon1階B号室,03-6434-0810,
ビストロフジ,飲食,外国料理,フランス料理,渋谷区恵比寿西1-8-2ウエストパレス212,03-6455-1824,
豚肉洋食俱楽部イロハ,飲食,居酒屋,居酒屋,渋谷区千駄ヶ谷5-20-10ほぼ新宿のれん街,03-5925-8950,
ぶたの旨味らーめん　とんくる,飲食,日本料理,ラーメン,渋谷区笹塚2-11-6アーバン2-102,03-5388-4186,
Bookcafe days,飲食,喫茶店・カフェ,喫茶店・カフェ,渋谷区鶯谷町15-10ロイヤルパレス渋谷105,03-3461-1554,
BOOKS BUNNY,飲食,喫茶店・カフェ,喫茶店・カフェ,渋谷区神宮前2-31-8,03-5772-3372,
Blau Mohn,飲食,喫茶店・カフェ,その他,渋谷区上原1-40-3ジャルダン上原内101,03-3467-7406,
BROWNHORSE,飲食,ステーキ・焼肉,ステーキ,渋谷区神宮前2-22-1神宮前court1F,03-6447-2526,
ブラックバードイータリー,飲食,その他(バー・クラブ・スナックなど),カフェバー,渋谷区笹塚2-13-13,090-4172-7980,
ブラッスリー・サリュー,飲食,外国料理,無国籍料理,渋谷区千駄ヶ谷4-5-11SuSLOB北参道101,03-6384-5401,
ブラッセルズビアプロジェクト新宿,飲食,外国料理,イタリア料理,渋谷区代々木2丁目20-16,03-5388-5523,
BRITISH INDIAN CAFE 1930,飲食,喫茶店・カフェ,喫茶店・カフェ,渋谷区神宮前3-27-7,03-6406-0742,
British Golf Lounge,飲食,その他(バー・クラブ・スナックなど),バー,渋谷区円山町28-4ObaビルB館B1F,03-6822-5531,
Blue Tokai Coffee Roasters,飲食,喫茶店・カフェ,喫茶店・カフェ,渋谷区広尾5-3-15サワタカビル1階,080-6288-2172,
ぶーてん,飲食,居酒屋,居酒屋,渋谷区恵比寿1-22-10カマスヤビル101,03-3441-9092,
ブーランジュリーラ・セゾン初台店,飲食,喫茶店・カフェ,ファーストフード,渋谷区初台1-10-7,03-6300-0072,https://www.la-saison.jp
ブーランジュリーラ・セゾン本店,飲食,喫茶店・カフェ,ファーストフード,渋谷区代々木4-6-4,03-3320-3363,https://www.la-saison.jp
PUERTAsakuragaoka,飲食,喫茶店・カフェ,その他,渋谷区桜丘17-12ジョンソンビル2F-R,03-3462-4774,
プティデリリウムタップカフェ新宿,飲食,外国料理,イタリア料理,渋谷区代々木2丁目2-1 新宿サザンテラス内,03-6300-0807,
PUPU MARUCO,飲食,居酒屋,居酒屋,渋谷区富ヶ谷1-2-15代々木八幡ビル,03-6451-5550,
プラステイックオーシャン,飲食,居酒屋,ダイニング・バー,渋谷区恵比寿西1-10-16ウエストパークビル3階,070-8567-2414,https://plasticocean-ebisu.com
plate,飲食,その他(バー・クラブ・スナックなど),バー,渋谷区恵比寿1-31-11ソシア恵比寿1階,03-5422-9015,
Bar Pledge,飲食,その他(バー・クラブ・スナックなど),バー,渋谷区幡ヶ谷1-2-8林ビル2-D,03-6300-5045,
へぎそば昆　北参道店,飲食,日本料理,そば・うどん,渋谷区千駄ヶ谷3-17-5グエルサカエ北参道B1‐A,03-5843-0086,http://www.hegisobakon.jp
Henderson,飲食,外国料理,フランス料理,渋谷区宇田川町41-28茂木ビル101,03-6455-0005,
ヘンプカフェトーキョー,飲食,外国料理,その他,渋谷区東3-17-14クリスティエビス8F,03-6427-1984,
ベイクドフラワー,飲食,喫茶店・カフェ,その他,渋谷区幡ヶ谷3-11-9-E,090-8345-2714,
べがす,飲食,その他(バー・クラブ・スナックなど),その他,渋谷区円山町28-8第18宮廷マンション102,03-6455-0188,
vegewest cafe&bar,飲食,喫茶店・カフェ,喫茶店・カフェ,渋谷区代官山町13-4セレサ代官山102,03-6427-0710,
veggie tempo代々木公園,飲食,外国料理,その他,渋谷区代々木5-67-81F MAKITAKI,03-5738-8727,
ベジホリック,飲食,外国料理,東南アジア料理,渋谷区代官山町19-1白磁館2階A号,03-6427-0591,
Bet代々木上原,飲食,居酒屋,その他,渋谷区西原3-7-5渡部ビル103,03-6407-0245,
ベトナム料理 バインセオサイゴン屋台 恵比寿,飲食,外国料理,東南アジア料理,渋谷区恵比寿西1-4-1福隆ビル1F,03-6455-2253,
ベトナム料理　フォーのお店　ハノイのホイさん,飲食,外国料理,東南アジア料理,渋谷区桜丘町17番6号渋谷協栄ビル 1F,03-3464-8450,https://www.hoi-san.com/
Betterave Bistro Jiro,飲食,外国料理,その他,渋谷区富ヶ谷1-10-5パークサイドコグレ1階,03-5790-9466,
belmare,飲食,外国料理,イタリア料理,渋谷区桜丘町24-2第3富士商事ビル1F,03-3476-3681,
ベルマーレカフェ,飲食,外国料理,イタリア料理,渋谷区桜丘町23-21文化総合センター大和田　1階,03-6416-3010,
Bakery&Cafe Honey,飲食,喫茶店・カフェ,喫茶店・カフェ,渋谷区代々木1-37-21,03-6300-6888,
BASE-CHIC,飲食,外国料理,その他,渋谷区恵比寿2-9-1EBISU FLAT 1-A,03-6277-1902,
BASE,飲食,その他(バー・クラブ・スナックなど),バー,渋谷区松濤2-14-12シャンボール松涛106,03-3460-8666,http://shotobase.com/
北京厨房料理,飲食,外国料理,中国料理,渋谷区宇田川町11-2宇田川柳光ビル2階,03-3770-6881,
PerrosPerras,飲食,その他(バー・クラブ・スナックなど),バー,渋谷区元代々木町9番6号1階,070-3294-0069,
邦人式中華酒館HOI,飲食,外国料理,中国料理,渋谷区恵比寿1-30-9,03-3446-5437,https://tabelog.com/tokyo/A1303/A130302/13007172/
北陸旬鮮かわせ,飲食,日本料理,日本料理,渋谷区宇田川町2-1渋谷ホームズB1,03-6455-1040,
北海道&沖縄酒場シブネコ,飲食,居酒屋,居酒屋,渋谷区円山町23-8円ビル2階,080-2673-4000,
HOTSAND CAFE Forest DAIKANYAMA,飲食,喫茶店・カフェ,喫茶店・カフェ,渋谷区代官山町16-2,050-5867-3697,
Hotel Tanzer,飲食,その他(バー・クラブ・スナックなど),バー,渋谷区道玄坂2-29-18清水ビル7階,03-6809-0768,
HOFF,飲食,喫茶店・カフェ,喫茶店・カフェ,渋谷区初台2-11-11ステータスヒル初台1F,03-6276-0133,
ホブゴブリン渋谷,飲食,その他(バー・クラブ・スナックなど),バー,渋谷区道玄坂1-3-11一番ビル3F,03-6415-4244,
ホルモン・七厘焼 たかだ屋,飲食,ステーキ・焼肉,焼肉,渋谷区代々木1-54-2小林ビル中1階,03-6300-0606,
ホルモン忠吉,飲食,ステーキ・焼肉,焼肉,渋谷区本町3丁目8番10号,03-5388-8911,
ホルモン焼き　夏冬 渋谷宇田川町店,飲食,ステーキ・焼肉,焼肉,渋谷区宇田川町37-14大向塚田ビル2階,03-6416-8712,
ホルモン焼きブタサマ,飲食,ステーキ・焼肉,焼肉,渋谷区代々木1-42-12我妻ビル,03-6276-3945,
whyte cafe,飲食,喫茶店・カフェ,喫茶店・カフェ,渋谷区神宮前3丁目27番7号,03-6876-3976,
WHY BEER ?,飲食,居酒屋,ビアホール,渋谷区上原1-35-5第2上原堂ビル101号室,03-6407-9318,
本格タイ料理バル　プアン　渋谷店,飲食,外国料理,東南アジア料理,渋谷区道玄坂1-5-9ザ・レンガビル2階,03-6455-2096,
香港飲茶点心厨房,飲食,外国料理,中国料理,渋谷区代々木1-42-4,03-6300-6889,
香港ロジ,飲食,外国料理,中国料理,渋谷区神宮前2丁目19番15号コーポ松園102,03-3403-9776,
HORAIYA,飲食,喫茶店・カフェ,喫茶店・カフェ,渋谷区神宮前2-19-10原電ビル1F-C,03-6804-5432,
ボウズ,飲食,外国料理,イタリア料理,渋谷区広尾5-23-2広尾センターハイツ1F,03-5798-4220,
房総ホルモン渋谷本店,飲食,ステーキ・焼肉,焼肉,渋谷区円山町7-11梅北ビル1F,03-6416-9236,
房総ホルモン道玄坂基地店,飲食,ステーキ・焼肉,焼肉,渋谷区道玄坂1-13-1Mビル2F,03-3461-5529,
BOTTA COFFEE,飲食,喫茶店・カフェ,喫茶店・カフェ,渋谷区神宮前3-39-5青山ウエスト1階,080-4009-7117,
BODY&SOUL,飲食,その他(バー・クラブ・スナックなど),ライブハウス,渋谷区宇田川町2-1-B15渋谷ホームズB-15,03-6455-0088,
ボデガス　ガパ,飲食,外国料理,スペイン料理,渋谷区恵比寿西1-4-1VANDAビルB1階,03-5459-5524,
Botrus,飲食,外国料理,イタリア料理,渋谷区千駄ヶ谷4-10-4千駄ヶ谷グリーンランドビル2階,03-6804-5890,
osteria BORNE,飲食,外国料理,イタリア料理,渋谷区円山町5-4フィールA渋谷101,03-6809-0404,
BONTA ITALIA,飲食,外国料理,イタリア料理,渋谷区猿楽町12番35号t+Daikanyama 1F,03-6455-2629,
Bomb Bar Cafe,飲食,その他(バー・クラブ・スナックなど),カフェバー,渋谷区笹塚2-42-17秋元スペース1F,03-5990-6636,https://www.instagram.com/bomb_bar_cafe?igsh=ODRmMG9rNDBjYXI5
bonbons creatifs,飲食,喫茶店・カフェ,喫茶店・カフェ,渋谷区代々木2-30-3 ヨシダペアランドB棟101,03-6385-2587,
ぽつら　ぽつら,飲食,日本料理,日本料理,渋谷区円山町22-11USBビル1階,03-5456-4512,
POTSUNTO,飲食,その他(バー・クラブ・スナックなど),バー,渋谷区広尾1-15-5,090-3080-1967,https://www.instagram.com/bar_potsunto?igsh=MWZuNTQ1MnUwM2Rxeg==
ポピーズ2,飲食,その他(バー・クラブ・スナックなど),バー,渋谷区神宮前2-20-12尾形ビル1F,090-8599-7314,
POPOPEKU,飲食,外国料理,その他,渋谷区本町2-43-4ヴァーチェストーンハウス1A,03-6300-0129,
Poker Room P3,飲食,その他(バー・クラブ・スナックなど),バー,渋谷区恵比寿西1-33-25コリーヌ代官山2階,03-6416-5267,https://p3-poker.com/
ポートオブコール代官山,飲食,喫茶店・カフェ,ファーストフード,渋谷区鶯谷町1-3,03-3461-3463,
PORT TOMIGAYA,飲食,喫茶店・カフェ,喫茶店・カフェ,渋谷区富ヶ谷2-20-1Luisd.T.Bldg. 1F,03-5738-8535,
まいた 渋谷本店,飲食,居酒屋,居酒屋,渋谷区渋谷2-19-17第106東京ビル9F,03-3486-6122,https://r.gnavi.co.jp/h4gfxubf0000/
mai bevi,飲食,居酒屋,ダイニング・バー,渋谷区幡ヶ谷2-48-2英ビル地下1階,03-6300-4222,https://instagram.com/mai_bevi?igshid=YmMyMTA2M2Y=
MyRoom雲母,飲食,居酒屋,その他,渋谷区広尾5-17-4-3F,03-5789-9346,
マイン,飲食,その他(バー・クラブ・スナックなど),その他,渋谷区千駄ヶ谷4-10-5-B1Asway Sendagaya,03-4400-0156,
マグパイカフェ,飲食,喫茶店・カフェ,喫茶店・カフェ,渋谷区神宮前2丁目32番11号J-polestar 1階,080-3418-9110,
孫ヱ門,飲食,居酒屋,居酒屋,渋谷区恵比寿西2-10-2高梨ビル1階,03-3461-3055,
MAGICAMENTE,飲食,外国料理,イタリア料理,渋谷区恵比寿3-41-9恵比寿台ハイツ102,03-6450-2210,https://www.magicamente2011.com/
満寿川,飲食,日本料理,小料理,渋谷区恵比寿南1-8-8,03-3711-1645,
まぜそば七,飲食,日本料理,ラーメン,渋谷区桜丘町16番10号,03-3780-1176,
MATAHARI,飲食,その他(バー・クラブ・スナックなど),バー,渋谷区恵比寿南1-1-3マツダイビル3階,03-6682-2725,
マチルダ,飲食,その他(バー・クラブ・スナックなど),バー,渋谷区初台1-36-1,03-5351-8160,
Matilda coffee&veganbakes,飲食,喫茶店・カフェ,喫茶店・カフェ,渋谷区神宮前3-42-11ローザビアンカ105,080-6590-1839,
まっちょまっちょ,飲食,その他(バー・クラブ・スナックなど),バー,渋谷区道玄坂1-6-2渋谷ファイブビル4F　まっちょまっちょ,080-6346-3045,
まつ家庭料理,飲食,居酒屋,居酒屋,渋谷区千駄ヶ谷3-30-4ホワイトキャッスル,090-5202-7782,
松乃家,飲食,日本料理,そば・うどん,渋谷区本町2-7-11,03-3376-3612,
MATOIYA　表参道店,飲食,ステーキ・焼肉,ステーキ,渋谷区神宮前5-50-6中島ビルB1F,03-6418-2871,
ManaTee,飲食,喫茶店・カフェ,喫茶店・カフェ,渋谷区富ヶ谷1-14-169,03-3466-6831,http://www.hotpepper.jp/strJ001128835/
まにまに / manimani,飲食,喫茶店・カフェ,喫茶店・カフェ,渋谷区笹塚3丁目13番8号エーデルハイム102,070-1267-6055,
ＭＡＮＩＭＡＬ,飲食,喫茶店・カフェ,その他,渋谷区笹塚1丁目57番10号笹塚駅前ビル2F,03-3374-3111,
manu'a  beer club,飲食,その他(バー・クラブ・スナックなど),バー,渋谷区円山町5-14スタービル2F,080-2677-8407,
Mareana,飲食,居酒屋,ダイニング・バー,渋谷区道玄坂2-18-7ヴィラフルデリ201,03-3462-9909,
Mariposa,飲食,その他(バー・クラブ・スナックなど),バー,渋谷区神山町40-2　2F,03-4335-9234,
マリーアイランガニー,飲食,外国料理,その他,渋谷区宇田川町34一6M&Iビル5階B号,03-6455-3216,
マリースコット,飲食,その他(バー・クラブ・スナックなど),バー,渋谷区笹塚2-27-5B’s笹塚ビル　1階,090-8502-0013,
まるカフェ,飲食,外国料理,東南アジア料理,渋谷区初台1-11-12,080-7460-2528,
maruta,飲食,日本料理,日本料理,渋谷区神山町17-1第二渡辺ビル3A,03-5738-7083,
マンサルヴァ,飲食,外国料理,イタリア料理,渋谷区恵比寿4-23-7恵比寿レーベン2F,03-5447-3300,
マンマーノ,飲食,喫茶店・カフェ,その他,渋谷区西原3丁目6番5号MH代々木上原 1F,03-6416-8022,
marger burger,飲食,喫茶店・カフェ,ファーストフード,渋谷区千駄ヶ谷4-26-3,080-4090-1811,
マーノラボ,飲食,外国料理,その他,渋谷区上原1-3-7,090-9379-4424,
麻辣火鍋専門店越智,飲食,外国料理,中国料理,渋谷区代々木3-29-5　2階2-A,03-5843-5385,
味甘CLUB,飲食,喫茶店・カフェ,喫茶店・カフェ,渋谷区神宮前4-15-2裏参道ガーデン1階,090-8656-2111,
Miki’s Art Cafe,飲食,外国料理,無国籍料理,渋谷区幡ヶ谷3-16-3コーポ保科1階,080-7013-4570,
三亀勢,飲食,居酒屋,居酒屋,渋谷区代々木2丁目26番2号第2桑野ビル,03-3374-9130,
ミジュリ,飲食,外国料理,韓国料理,渋谷区笹塚1丁目29番3号ファーストビル4F,03-5738-1431,
ミスター・フレンドリーカフェ,飲食,喫茶店・カフェ,喫茶店・カフェ,渋谷区恵比寿西2-18-6-SPビル1F,03-3780-4778,
水炊き　波多野,飲食,日本料理,日本料理,渋谷区円山町7-2edifice渋谷103,03-6455-0010,
ミズノボル,飲食,日本料理,ラーメン,渋谷区宇田川町29-3,03-5428-2351,
MISOYA.,飲食,日本料理,日本料理,渋谷区西原3-1-1,090-7519-2904,
味音,飲食,日本料理,お好み焼き,渋谷区代々木1-44-12R&Hビル1階,03-3373-8744,http://www.okonomiyaki-ajito.com/
Mi Choripan,飲食,外国料理,その他,渋谷区上原2-4-8,03-5790-9300,
mixnack,飲食,その他(バー・クラブ・スナックなど),バー,渋谷区円山町3-1小木曽ビル1F左,03-6416-1178,
midダイニング,飲食,喫茶店・カフェ,喫茶店・カフェ,渋谷区元代々木町55-7桜苑ビル,03-3466-9896,
味道本色,飲食,外国料理,中国料理,渋谷区代々木1丁目43-1,03-6276-3598,
みどり食堂,飲食,喫茶店・カフェ,その他,渋谷区千駄ヶ谷2-15-7大野ビル1階,03-6812-9043,
ミニインドレストラン,飲食,外国料理,インド料理,渋谷区代々木1-37-3早川ビルB1,03-6276-4439,
ミニオン,飲食,外国料理,無国籍料理,渋谷区渋谷3-14-5,03-6450-5678,
Minoaka Deli&Cafe,飲食,喫茶店・カフェ,喫茶店・カフェ,渋谷区神宮前2-6-10COLAL Bldg. 1F,03-6384-5324,https://minoaka2024.jp/?fbclid=PAAaayxFgtdKLoYWuNRJqf3K-JpU8wtFQMyIg3fWk0BGttuQTSn_WtbKzFszg
mimet,飲食,喫茶店・カフェ,喫茶店・カフェ,渋谷区富ヶ谷1-9-201F,03-5738-8241,
宮崎酒房くわ,飲食,居酒屋,居酒屋,渋谷区恵比寿2-11-7グリーンハイツ101,03-6450-4719,
ミヤザキ商店はなれ,飲食,居酒屋,居酒屋,渋谷区幡ヶ谷1-2-7松井ビル　1階,03-6276-3883,
MIYASHITA CAFE +softcream,飲食,喫茶店・カフェ,喫茶店・カフェ,渋谷区神宮前6-20-10MIYASHITA PARK  South 2F 20200,03-6712-5650,http://instagram.com/miyashitacafe_shibuya
雅,飲食,その他(バー・クラブ・スナックなど),バー,渋谷区笹塚2-11-8泰山荘103号室,03-3299-2992,
みやび屋幡ヶ谷店,飲食,居酒屋,居酒屋,渋谷区幡ヶ谷2-9-20サカエビル1階,03-6300-5080,
music bar 45,飲食,その他(バー・クラブ・スナックなど),バー,渋谷区桜丘町17-10吉野ビル2F,03-5784-4565,https://linktr.ee/musicbar45
miubar,飲食,その他(バー・クラブ・スナックなど),バー,渋谷区本町6-36-5 2F,03-5350-8277,
ミラン・ナタラジ渋谷店,飲食,外国料理,インド料理,渋谷区神南1-22-7岩本ビル3F,03-6416-9022,
ミリバール,飲食,その他(バー・クラブ・スナックなど),バー,渋谷区宇田川町33-10J+Rビル　サイドJ 3F A,03-5458-0989,
MIL TACOS 笹塚店,飲食,外国料理,その他,渋谷区笹塚3-17-4,03-6673-3966,
1500(ミレチンクエチェント),飲食,外国料理,イタリア料理,渋谷区元代々木町4-2,03-5738-8821,
MIGO Daikanyama,飲食,外国料理,その他,渋谷区代官山町13-8,070-9162-3535,
MEAT＆OYSTER kairi,飲食,外国料理,イタリア料理,渋谷区道玄坂1-11-1第二大番ビル203,03-6809-0634,
ミートタケシ,飲食,居酒屋,居酒屋,渋谷区上原1-32-15第二小林ビル2F,03-6456-8800,
MUKAN78,飲食,日本料理,ラーメン,渋谷区本町2-7-12キッチンゲートNo3,070-9033-2989,
椋鳥,飲食,その他(バー・クラブ・スナックなど),バー,渋谷区鶯谷町8-8イートス代官山B1,080-3069-7052,
MUGE,飲食,居酒屋,居酒屋,渋谷区富ヶ谷1-9-20リンデン代々木公園1F,03-6407-0916,
MU Coffee,飲食,喫茶店・カフェ,喫茶店・カフェ,渋谷区猿楽町12-35t+Daikanyama1F,070-8420-0853,
MUJOあさひる,飲食,日本料理,日本料理,渋谷区富ヶ谷1-3-14,050-3699-4511,
む鉄砲,飲食,居酒屋,居酒屋,渋谷区宇田川町41-28茂木ビル1階,03-3462-6732,
munasawagi Bar,飲食,その他(バー・クラブ・スナックなど),バー,渋谷区笹塚1-58-13フィエスタ笹塚6F,03-6876-0583,https://munasawagi.gorp.jp/
Munu,飲食,外国料理,イタリア料理,渋谷区笹塚3-9-3105,070-8575-6712,
ムーンドッグ,飲食,喫茶店・カフェ,喫茶店・カフェ,渋谷区千駄ヶ谷3-26-5金子裕俊,03-5843-1332,
MEXIPON TOKYO,飲食,外国料理,その他,渋谷区幡ヶ谷2-47-1ダイショービル1F,03-6300-0406,
maison tacos,飲食,外国料理,その他,渋谷区鉢山町1-7矢島ビル,080-1262-2977,
MAISON BIEN-ETRE,飲食,喫茶店・カフェ,喫茶店・カフェ,渋谷区上原1-17-11-3F,03-5738-8827,
メデルデリ,飲食,喫茶店・カフェ,喫茶店・カフェ,渋谷区恵比寿西1-17-1プルミエール恵比寿1F,03-6427-8580,
Melt,飲食,居酒屋,ダイニング・バー,渋谷区恵比寿西1丁目4番地7号Lier Ebisu 2F,03-5422-3647,https://www.instagram.com/meltebisu/
メルローズ•アベニュー,飲食,居酒屋,ダイニング・バー,渋谷区円山町25-7菊屋in渋谷1階,03-5458-5566,
麺kawakei,飲食,居酒屋,居酒屋,渋谷区円山町18-2林ビル1F103号室,03-6712-7622,
麺喜やしま,飲食,日本料理,そば・うどん,渋谷区円山町10-13サンライズ渋谷101,03-6455-1533,
麺菜家 北斗 原宿店,飲食,外国料理,中国料理,渋谷区神宮前1-17-1ルポンテビル1階,03-3405-9015,
麺酒家 タケイメン,飲食,日本料理,ラーメン,渋谷区本町6-15-9菊地ハイツ102,090-1870-0601,
麺と小皿　精華,飲食,日本料理,ラーメン,渋谷区初台2-5-3,03-3370-5908,
麺処　竹川,飲食,日本料理,ラーメン,渋谷区円山町7-2edifice渋谷103,03-6455-0010,
麺屋アシタマ,飲食,日本料理,ラーメン,渋谷区富ヶ谷1-53-3ウッディービル1階,03-6804-7120,https://instagram.com/ashitama.yoyogihachiman?igshid=OGQ5ZDc2ODk2ZA==
麺屋　大和田,飲食,日本料理,ラーメン,渋谷区道玄坂1-5-5フジキビル1階,03-6712-7770,
麺屋籠谷,飲食,日本料理,ラーメン,渋谷区幡ヶ谷2-48-4,090-8183-4832,
麺屋　琥珀,飲食,日本料理,ラーメン,渋谷区初台1-34-1,03-6276-6226,
麺屋ニシムクサムライ,飲食,日本料理,ラーメン,渋谷区幡ヶ谷2-56-1コーポラス幡ヶ谷,03-6276-2505,
麺りあんby江戸屋,飲食,日本料理,ラーメン,渋谷区笹塚2ー10ー6今井ストアービル1階,090-8505-6225,
モガカフェ,飲食,外国料理,無国籍料理,渋谷区宇田川町4-9くれたけビル2階,03-3464-6090,
Mokita,飲食,外国料理,イタリア料理,渋谷区西原3-4-5山田ビル101,070-9262-6812,
MOKUBAZA,飲食,外国料理,その他,渋谷区神宮前2-28-12一階,03-3404-2606,
もしも食堂,飲食,外国料理,イタリア料理,渋谷区道玄坂1-2-3東急プラザ6F,03-6455-1215,
Modern Thai CIEL,飲食,外国料理,東南アジア料理,渋谷区千駄ヶ谷4-22-4メゾンドボナール　1F,03-6434-9219,
モチチ,飲食,外国料理,中国料理,渋谷区幡ヶ谷3-11-9角田ビル1階,090-6569-0242,
もっとやるき恵比寿店,飲食,居酒屋,居酒屋,渋谷区恵比寿西1-9-1第2ともえビルB1,03-5458-0325,
モツ酒場kogane,飲食,居酒屋,居酒屋,渋谷区神宮前3-42-15メグビル1F,03-6271-4953,
もつ鍋旦過,飲食,居酒屋,居酒屋,渋谷区神宮前2-15-2,03-6447-2324,
MOTOYA Book Cafe Gallery,飲食,喫茶店・カフェ,喫茶店・カフェ,渋谷区初台2-24-7,03-6362-2082,https://www.mo-to-ya.com/
MOMINOKI HOUSE,飲食,日本料理,その他,渋谷区神宮前2-18-5大網ビル1f,03-3405-9144,
MOMO Stand Tokyo,飲食,外国料理,東南アジア料理,渋谷区広尾5-18-8-1F,03-5860-2240,
ももたろう,飲食,居酒屋,ダイニング・バー,渋谷区幡ヶ谷1-5-4大坂屋ビル1階,03-6276-3745,
諸星,飲食,その他(バー・クラブ・スナックなど),バー,渋谷区代々木5-55-5松尾店舗B-2階,080-8918-3047,
門,飲食,日本料理,その他,渋谷区千駄ヶ谷2丁目32-3外苑キリンビル1階,03-4400-0322,
モンキーカフェ,飲食,喫茶店・カフェ,喫茶店・カフェ,渋谷区猿楽町12-8-1F,03-5728-6260,
モンゴル料理　青空,飲食,外国料理,その他,渋谷区幡ヶ谷2-7-9仲ビル2階,03-6300-9189,
紋寿司,飲食,日本料理,寿司,渋谷区幡ヶ谷2-12-17,03-3377-8308,
MONTEMEAT,飲食,外国料理,東南アジア料理,渋谷区代々木2-14-1新宿松本ビル地下1F,03-6300-7809,
焼ジビエ罠　手止メ宮益坂,飲食,居酒屋,居酒屋,渋谷区渋谷2-8-6宮野ビル1F,03-5774-1188,
焼鳥一番,飲食,日本料理,焼鳥,渋谷区笹塚2-10-6今井ビル　101号,080-3706-8076,
焼鳥弥栄,飲食,日本料理,焼鳥,渋谷区上原1-34-10志賀屋ビル1F,090-6865-5167,
やきとりがっちょん,飲食,居酒屋,居酒屋,渋谷区本町6-15-9菊地ハイツ101,090-4725-6728,
焼鳥ワイン星乃,飲食,居酒屋,居酒屋,渋谷区円山町25-7ファザーランド渋谷　3階,03-3770-5225,
焼トンの　なかみや,飲食,居酒屋,居酒屋,渋谷区笹塚1-57-10笹塚駅前ビル205,03-3379-6610,
やきとん　やまじ,飲食,居酒屋,居酒屋,渋谷区幡ヶ谷3-11-9角田ビル1F,03-6276-8929,
焼肉一七三本店,飲食,ステーキ・焼肉,焼肉,渋谷区恵比寿西1-9-2YAMAビル1F,03-6277-5528,
焼肉一七三向山,飲食,ステーキ・焼肉,焼肉,渋谷区恵比寿南1-13-3GOLDビル5F,03-6452-4646,
焼肉可禮亜,飲食,ステーキ・焼肉,焼肉,渋谷区本町1-17-10AFプラザ　 1階,03-3378-4129,
焼肉串ろっきー渋谷店,飲食,ステーキ・焼肉,焼肉,渋谷区道玄坂2-19-11FABRIC渋谷　1F,03-6427-0485,
焼肉　寿亭,飲食,ステーキ・焼肉,焼肉,渋谷区道玄坂2-9-2ブルマン正実ビルB1,03-3462-2989,
焼肉スタンド　肉と麦,飲食,ステーキ・焼肉,焼肉,渋谷区幡ヶ谷1-33-1シティ幡ヶ谷1階,03-6407-9833,https://tabelog.com/tokyo/A1318/A131807/13265855/
焼肉店にくる,飲食,ステーキ・焼肉,焼肉,渋谷区笹塚1-10-6,03-6804-9298,
焼肉処カルネ,飲食,ステーキ・焼肉,焼肉,渋谷区西原3-11-9ホウショウビル地下1階,03-6407-1429,
焼肉29TOWN,飲食,ステーキ・焼肉,焼肉,渋谷区広尾5-17-45Project 2F,03-6432-5066,
焼肉の清香園,飲食,ステーキ・焼肉,焼肉,渋谷区宇田川町37-14篠原ビル1F,03-3466-1369,
焼肉の三是,飲食,ステーキ・焼肉,焼肉,渋谷区幡ヶ谷2-52-31F,03-6300-4329,
焼肉はたがや,飲食,ステーキ・焼肉,焼肉,渋谷区幡ヶ谷1-2-8林ビル1F,03-5333-2410,
焼肉BAL MANAぶぅちゃん,飲食,その他(バー・クラブ・スナックなど),その他,渋谷区本町4-13-10板垣マンション1階,03-6258-2755,
焼肉ホルモン酒場　けむり,飲食,ステーキ・焼肉,焼肉,渋谷区道玄坂1-5-4YOビル,090-8220-1408,
焼肉もーとん,飲食,ステーキ・焼肉,焼肉,渋谷区笹塚1-56-6笹塚楽ビル1階,03-3299-0291,
野趣家,飲食,居酒屋,居酒屋,渋谷区神宮前5-51-8ラ・ポルト青山B1F,03-5464-0111,
柳屋そば店,飲食,日本料理,そば・うどん,渋谷区笹塚笹塚2-11-4,090-8945-5569,
やむなし松濤,飲食,居酒屋,居酒屋,渋谷区宇田川町37-12眞砂ビル階,03-6407-1265,
山形蕎麦茶寮月の山,飲食,日本料理,そば・うどん,渋谷区代々木1-25-5BIZSMART代々木1F,03-6276-3220,
山せみ,飲食,日本料理,そば・うどん,渋谷区上原1-17-14上原ハウス001,03-3460-6463,
山手茶屋,飲食,喫茶店・カフェ,その他,渋谷区富ヶ谷2-6-14サワーコーポ1F,03-3485-0963,
山とフニクラ,飲食,喫茶店・カフェ,喫茶店・カフェ,渋谷区上原1-19-7上原ハウス101,03-6407-9048,
ヤングスナック-芹奈-,飲食,居酒屋,ダイニング・バー,渋谷区道玄坂2-19-11JP道玄坂ビル2F,03-6416-0383,
ヤングスナック-芹奈- はなれ,飲食,居酒屋,ダイニング・バー,渋谷区道玄坂2-25-5島田ビル3F,03-6416-3878,
HUIT,飲食,居酒屋,ダイニング・バー,渋谷区道玄坂2-17-1渋谷野武士ビル1F,070-9037-1628,
有限会社初音,飲食,その他(バー・クラブ・スナックなど),カフェバー,渋谷区本町2丁目7番地9号,03-3376-4634,
有限会社うね女,飲食,日本料理,日本料理,渋谷区幡ヶ谷2丁目13番6号富士ビル2階,03-3374-2367,
有限会社千寿司,飲食,日本料理,寿司,渋谷区千駄ヶ谷3-14-1,03-3408-0267,
有限会社大穀,飲食,日本料理,ラーメン,渋谷区東1丁目27番9号,03-3409-3480,
有限会社大炊宴,飲食,居酒屋,居酒屋,渋谷区神宮前3丁目24番1号鈴木ビル1F,03-3405-5858,
有限会社真木,飲食,その他(バー・クラブ・スナックなど),スナック・パブ・キャバレー,渋谷区上原2丁目48番12号東洋代々木上原コーポ　104,03-3460-3863,
有限会社丸善村野商店,飲食,居酒屋,居酒屋,渋谷区代々木1-42-13,03-3370-4784,
有限会社もくもく,飲食,外国料理,中国料理,渋谷区広尾5丁目2番26号M2ビル広尾,03-3442-9489,
有限会社やぶ善,飲食,日本料理,そば・うどん,渋谷区本町2丁目12番2号,03-3376-6911,
有昌ASTAGE,飲食,外国料理,その他,渋谷区代官山町7-5ル・キューブ代官山 2階,03-6687-5225,
有楽町かきだ,飲食,日本料理,寿司,渋谷区代々木2-2-1小田急ホテルセンチュリーサザンタワー19F,080-7164-5210,
ユニ,飲食,喫茶店・カフェ,喫茶店・カフェ,渋谷区神宮前5-10-1GYRE4F,03-6803-8699,
uni sendagaya,飲食,喫茶店・カフェ,喫茶店・カフェ,渋谷区千駄ヶ谷1-7-4ヒルトップスクエア1F,03-6434-9090,
ユマニテ,飲食,外国料理,フランス料理,渋谷区上原1-1-20JPビル2階,090-5523-1085,
ゆめの庵,飲食,日本料理,日本料理,渋谷区恵比寿西1-15-2アパルトマンイトウ1F,03-3770-4727,
ゆりかご千駄ヶ谷店,飲食,居酒屋,居酒屋,渋谷区千駄ヶ谷4-21-5エイトビル2F,03-3404-6028,
四一一はなれ,飲食,日本料理,日本料理,渋谷区恵比寿4-9-15ハギワラビル5 3階,03-6277-3354,
よこや,飲食,居酒屋,居酒屋,渋谷区幡ヶ谷2-1-5弓ビルB1F,03-3379-6388,
吉崎食堂,飲食,居酒屋,居酒屋,渋谷区恵比寿南T.ナカムラビルB1,03-5704-8867,
夜ノ森 恵比寿,飲食,居酒屋,居酒屋,渋谷区東1丁目27-5シンエイ東ビル1F,03-3400-0234,
よもきち商店,飲食,日本料理,日本料理,渋谷区代々木田尻ビル1F,03-6276-8189,
代々木上原 方程式,飲食,日本料理,寿司,渋谷区西原3-4-5アミティ代々木上原2F,03-6804-8929,
代々木　ウミドリ,飲食,居酒屋,居酒屋,渋谷区千駄ヶ谷5-20-10ほぼ新宿のれん街倉庫別館E区画,03-6274-8545,
代々木苑,飲食,ステーキ・焼肉,焼肉,渋谷区富ヶ谷1-52-2石橋ビル2階,03-3469-2941,
代々木酒場,飲食,居酒屋,居酒屋,渋谷区千駄ヶ谷4-29-12107,03-3470-5178,
代々木鳥松,飲食,居酒屋,居酒屋,渋谷区代々木1-42-7ハナモパレス1F,03-6383-3698,
代々木八幡日本料理かぶら,飲食,日本料理,日本料理,渋谷区富ヶ谷1-3-13マキビル1F,090-3598-0586,
代々木八幡 BISTRO NONKI,飲食,外国料理,イタリア料理,渋谷区富ヶ谷1-3-16クレッシェンド代々木公園ビル101号室,03-6407-0708,https://next-gf.com/store/
代々木バル,飲食,居酒屋,居酒屋,渋谷区代々木1-37-3早川ビル2階,03-6383-3664,
代々木parabola,飲食,外国料理,イタリア料理,渋谷区代々木1-14-5和田ハイツ105,03-6276-0650,
ヨヨナム,飲食,外国料理,東南アジア料理,渋谷区代々木5丁目66-4,03-6407-1545,
418KAMIYAMA,飲食,外国料理,その他,渋谷区神山町4-18セレンディピティ1階,03-5790-9901,http://www.418kamiyama.com
ライオンシェア,飲食,外国料理,インド料理,渋谷区代々木3-1-7ライオンズマンション代々木,03-3320-9020,
Life son,飲食,外国料理,イタリア料理,渋谷区代々木4-5-13レインボービル1階,03-6276-1115,
ripen,飲食,外国料理,フランス料理,渋谷区西原2-32-11パァクサクラハウス102,03-4500-0350,
ラウンジバー檸檬,飲食,その他(バー・クラブ・スナックなど),バー,渋谷区代々木2-23-1ニューステイトメナー123,03-6383-4533,
LaCave,飲食,その他(バー・クラブ・スナックなど),その他,渋谷区西原1-50-8Grandstory代々木上原B1F,03-6451-5566,
楽酒屋ごえん代々木上原店,飲食,居酒屋,居酒屋,渋谷区上原2-48-11ハニハラビル1F,03-3485-7622,
楽食楽酒まこと,飲食,居酒屋,居酒屋,渋谷区本町3-21-6パレスK&K1F,03-6276-8266,
LUG HATAGAYA,飲食,喫茶店・カフェ,喫茶店・カフェ,,03-6300-4616,
RACCOS　BAR,飲食,居酒屋,居酒屋,渋谷区幡ヶ谷1丁目7佐藤ビル1階,03-3320-3883,
ラコッコラ,飲食,外国料理,イタリア料理,渋谷区神宮前3-42-3林ビル2階,03-6804-5772,
RAJA,飲食,外国料理,インド料理,渋谷区代々木4-2-8ピースビル1階,03-5351-0833,
ラストオーダーバー,飲食,その他(バー・クラブ・スナックなど),バー,渋谷区本町6-10-1YKステージ 101,090-8840-9014,
Lasebiラセビ,飲食,居酒屋,居酒屋,渋谷区西原3丁目17番4号星と月と空とビル101,080-2049-9294,
らせら,飲食,居酒屋,居酒屋,渋谷区道玄坂1-20-12地下1階MT道玄坂ビル,03-3770-7522,
LATURE French Restaurant,飲食,外国料理,フランス料理,渋谷区渋谷2丁目2番2号青山ルカビルB1F,03-6450-5297,
ラチュレ　レストラン,飲食,外国料理,フランス料理,渋谷区渋谷2丁目2番2号青山ルカビル2F,03-6450-6623,
LATTEST SENDAGAYA,飲食,喫茶店・カフェ,喫茶店・カフェ,渋谷区千駄ヶ谷3-16-9,03-5539-8594,
ラ・テッラ,飲食,外国料理,イタリア料理,渋谷区恵比寿西二丁目17番5号サンビレッジ代官山　地下1階,03-6416-3120,
LaLaChai,飲食,外国料理,東南アジア料理,渋谷区幡ヶ谷2-18-4カナデール幡ヶ谷1F,03-6383-4431,
ララ・リボン,飲食,その他(バー・クラブ・スナックなど),カフェバー,渋谷区東3-24-14エクセルハイム恵比寿1階,03-5469-3334,
Laundry,飲食,喫茶店・カフェ,喫茶店・カフェ,渋谷区本町6-37-10,090-5200-6752,https://www.instagram.com/laundry_koffiehuis/
ラーイマーイ千駄ヶ谷キッチン,飲食,外国料理,その他,渋谷区千駄ヶ谷3-37-6,03-3470-4538,
ラーメン・つけ麺・桜ん坊,飲食,居酒屋,居酒屋,渋谷区桜丘町16-8アトラス桜丘ビル,03-3463-0123,
りあん,飲食,日本料理,ラーメン,渋谷区笹塚2-19-3大成ビル,090-1660-8489,
ricocurryキッチンカー,飲食,喫茶店・カフェ,その他,渋谷区千駄ヶ谷3-8-14-1階,090-5260-5208,
ricopua,飲食,喫茶店・カフェ,その他,渋谷区千駄ヶ谷3-8-14-1階,090-5260-5208,
rico間借り,飲食,喫茶店・カフェ,その他,渋谷区神宮前 2-23-4 1F,090-5260-5208,
リストランテマッサ,飲食,外国料理,イタリア料理,渋谷区恵比寿1-23-22小林鉄工ビル1F,03-5793-3175,
ＲＥＩＳＭ　ＳＴＡＮＤ,飲食,喫茶店・カフェ,喫茶店・カフェ,渋谷区鶯谷町6-6グリーンハイツ鶯谷2F,03-6861-6670,
リズラボキッチン,飲食,喫茶店・カフェ,喫茶店・カフェ,渋谷区神宮前4-15-2,090-7482-3521,
リゾットカフェ東京基地　渋谷店,飲食,喫茶店・カフェ,喫茶店・カフェ,渋谷区宇田川町28-1高山ランド第15ビル7F,03-3770-8960,http://www.1or8-kichi.com
リトルケイブ,飲食,喫茶店・カフェ,喫茶店・カフェ,渋谷区代々木2-6-8新宿exビル7F,03-6875-6434,
リトルナップコーヒースタンド,飲食,喫茶店・カフェ,喫茶店・カフェ,渋谷区代々木5-65-4,03-3466-0074,
リトルナップコーヒーロースターズ,飲食,喫茶店・カフェ,喫茶店・カフェ,渋谷区富ヶ谷2丁目43番15号,03-5738-8045,
Living　,飲食,その他(バー・クラブ・スナックなど),バー,渋谷区富ヶ谷1-9-14堀口ビル102,080-4459-0011,
Lib,飲食,その他(バー・クラブ・スナックなど),バー,渋谷区恵比寿1-25-112F,03-6459-3586,
Re:boot,飲食,その他(バー・クラブ・スナックなど),バー,渋谷区本町2-39-2サワハウス1F,03-6826-9122,
RIMSHOT ETHEREAL,飲食,その他(バー・クラブ・スナックなど),バー,渋谷区笹塚2-41-17滝沢ビルB1,03-6258-4643,
龍華園,飲食,外国料理,中国料理,渋谷区幡ヶ谷1-33-1シャトーフタバ2F,03-3467-2681,https://www.google.com/amp/s/www.hotpepper.jp/strJ001176546/amp/
Ryukyu Chinese Dining TAMA,飲食,居酒屋,居酒屋,渋谷区渋谷2-3-2藤本ビル　2F,03-3486-5577,
りゅうげつ,飲食,喫茶店・カフェ,その他,渋谷区恵比寿南1-2-12ブラウンベセルB1,03-5724-3729,
龍口酒家チャイナハウス,飲食,外国料理,中国料理,渋谷区幡ヶ谷1-3-1ゴールデンセンタービルB1,03-5388-8178,
Ryuda,飲食,日本料理,日本料理,渋谷区千駄ヶ谷4-29-12北参道ダイヤモンドパレス111,03-6804-6002,
料理店吉田,飲食,外国料理,フランス料理,渋谷区富ヶ谷1-14-12YTビル代々木公園1階,03-6240-6789,
料理人のいる魚屋ガシラ,飲食,日本料理,日本料理,渋谷区道玄坂1丁目19番5号,090-5219-0535,
利代,飲食,日本料理,そば・うどん,渋谷区代々木2-26-2第二桑野ビル1F,03-3320-8469,
麟,飲食,日本料理,小料理,渋谷区笹塚1-16-5酒井ビル一階,03-6407-0442,
リンコルン,飲食,外国料理,東南アジア料理,渋谷区富ヶ谷1-44-7サンライズビルB1F,03-6407-0039,
凛音,飲食,居酒屋,居酒屋,渋谷区恵比寿西1-8-13エムロード戸田3F,03-3496-9855,
りんりんりん。,飲食,居酒屋,ダイニング・バー,渋谷区初台1-36-11階C,080-4378-1443,
ル　スフレ,飲食,喫茶店・カフェ,喫茶店・カフェ,渋谷区代々木3-39-15代々木ヴィラージュ1F,03-6276-7820,
ル　ボークープ,飲食,外国料理,フランス料理,渋谷区上原3-10-3蒼天ビル1F,03-5738-7952,
ルクラビレッジbyHimalayaCurry,飲食,外国料理,無国籍料理,渋谷区千駄ヶ谷3-15-12,03-3408-1750,
ルサンプル,飲食,外国料理,フランス料理,渋谷区猿楽町5-10猿楽ISビル1階,03-6455-1392,
LUCIAN,飲食,外国料理,イタリア料理,渋谷区代々木2-5-1羽田ビル 1F,090-3206-3485,
LUCEROKARAOKE＆BAR,飲食,その他(バー・クラブ・スナックなど),バー,渋谷区恵比寿南2-3-15ココスペース7F,050-3204-2130,https://lusero-karaokebar.business.site/?utm_source=gmb&utm_medium=referral
ルナエガット,飲食,外国料理,イタリア料理,渋谷区神泉町9番12号カサデチェーロ101号室,03-5990-4991,
Luna piena,飲食,外国料理,インド料理,渋谷区千駄ヶ谷4ー19ー12モンパルテ北参道 B1,080-5175-3664,
LE BISTRO,飲食,外国料理,フランス料理,,03-6635-1030,
ルプリュース広尾,飲食,外国料理,フランス料理,渋谷区広尾5-3-14T&Mビル2F,03-6721-7382,
ルポン恵比寿,飲食,居酒屋,居酒屋,渋谷区恵比寿西1-7-13日基ビル1F A号,03-6277-5866,
るるしぶや,飲食,喫茶店・カフェ,喫茶店・カフェ,渋谷区桜丘町3-4渋谷サクラステージ　SAKURAサイド2F,03-6416-1722,
Le Comptoirル・コントワール渋谷店チーズ・ナチュラルワイン,飲食,その他(バー・クラブ・スナックなど),バー,渋谷区宇田川町37-15,050-3551-3715,
REI,飲食,外国料理,中国料理,渋谷区元代々木町10-8関ビル1階,03-6416-8803,
麗郷,飲食,外国料理,その他,渋谷区富ヶ谷1-14-18ハウス池田 1F,03-3485-3052,
LATTEST OMOTESANDO Espresso Bar,飲食,喫茶店・カフェ,喫茶店・カフェ,渋谷区神宮前3丁目5番2号EFビルディング1F,03-3478-6276,
和洋惣菜バル　Rain,飲食,居酒屋,居酒屋,渋谷区幡ヶ谷2-13-4幡ヶ谷中央ビル1階,090-6143-5230,
レインボーパンケーキ,飲食,喫茶店・カフェ,喫茶店・カフェ,渋谷区神宮前4-28-4,03-6434-0466,
レイスチームドバン,飲食,喫茶店・カフェ,その他,渋谷区西原3-1-4トライアングル1階,03-6451-5523,
レグリエ,飲食,外国料理,フランス料理,渋谷区広尾1-4-10鴻貴ビル1階,03-6450-4455,https://regulier-restaurant.com/
Les amis d'Ami,飲食,外国料理,無国籍料理,渋谷区広尾5-19-11U-Branch広尾,090-3346-1151,
REST,飲食,喫茶店・カフェ,喫茶店・カフェ,渋谷区代々木3-6-7,03-5843-5580,
restaurant Goût,飲食,外国料理,フランス料理,渋谷区富ヶ谷2-14-6伸和ビル101,080-3084-0900,https://gout.therestaurant.jp/
レストランケン,飲食,日本料理,その他,渋谷区代々木1-45-7-1階,03-3375-9683,
レストランこうだ,飲食,日本料理,その他,渋谷区元代々木町49-23セブンスターマンション代々木八幡1F,03-3469-5519,
レストランコニシ,飲食,喫茶店・カフェ,その他,渋谷区広尾1-9-20日恵ビル,03-3449-8292,
レストランシェリュイ,飲食,外国料理,フランス料理,渋谷区猿楽町20-15,03-3461-0070,
レストランみのる,飲食,喫茶店・カフェ,その他,渋谷区千駄ヶ谷5-12-6,090-8048-3309,
Restaurant La Chambre,飲食,外国料理,フランス料理,渋谷区西原3-7-5渡部ビル2F,03-5738-1084,http://www.restaurant-lachambre2007.com/
レストラン　ル　ボヌール,飲食,外国料理,フランス料理,渋谷区富ヶ谷1-14-20代々木公園セレナビル1階,03-3467-6161,
レストラン　ル・リール,飲食,外国料理,イタリア料理,渋谷区千駄ヶ谷4-19-12モンパルテ北参道B1F,03-6447-4171,https://www.leverdurier.jp/lerire/
レタープレスレターズカンティーン,飲食,喫茶店・カフェ,喫茶店・カフェ,渋谷区富ヶ谷2-20-2,03-6407-0015,
LAITIER(レティエ),飲食,喫茶店・カフェ,喫茶店・カフェ,渋谷区千駄ヶ谷1-22-7Sビル1F,03-6455-5262,
れんげ食堂　幡ケ谷店,飲食,外国料理,中国料理,渋谷区幡ヶ谷2-52-3,03-3374-2776,
LOCAVORE,飲食,外国料理,フランス料理,渋谷区上原1-35-6水上ビル1-C,03-5790-9918,https://www.instagram.com/locavore_uehara/
rogamasteak arcanum,飲食,ステーキ・焼肉,ステーキ,渋谷区円山町6-6,03-6416-9544,
ロク,飲食,外国料理,フランス料理,渋谷区代々木4-1-6山下荘1F,03-6276-8454,
六号酒場,飲食,居酒屋,ダイニング・バー,渋谷区幡ヶ谷2-9-12コートリーブル103,080-1134-3719,https://japanese-izakaya-restaurant-3510.business.site/
六調,飲食,居酒屋,ダイニング・バー,渋谷区渋谷1丁目12-24707渋谷ビル5階,050-3593-0608,
ロジェカフェ,飲食,外国料理,フランス料理,渋谷区恵比寿1-7-3協栄マンション201,03-3455-1700,
ROSTRO,飲食,喫茶店・カフェ,喫茶店・カフェ,渋谷区富ヶ谷1-14-20サウスピア1階,03-5452-1450,
ロス・バルバドス,飲食,外国料理,その他,渋谷区宇田川町41-26パピエビル104,03-3496-7157,
ロスレイエスマーゴス,飲食,外国料理,スペイン料理,渋谷区代々木5-55-7,03-3469-8231,
ロッカビアンカ,飲食,外国料理,イタリア料理,渋谷区笹塚2-1-14スタープラザ笹塚1F,03-6883-4836,
ロックのこころ,飲食,その他(バー・クラブ・スナックなど),バー,渋谷区宇田川町10-1パークビル3F,03-6712-7697,
ロティシェリュイ,飲食,喫茶店・カフェ,喫茶店・カフェ,渋谷区代官山町17-5代官山アドレスE203,03-5428-6448,
炉端座八戸,飲食,居酒屋,居酒屋,渋谷区笹塚3-18-8板垣ビル1F,03-3374-7722,
LOCUS,飲食,喫茶店・カフェ,喫茶店・カフェ,渋谷区渋谷2-11-14ステージ青山　2階,03-6427-3426,
ローカルインディア恵比寿本店,飲食,外国料理,インド料理,渋谷区恵比寿南1-23-8アメリカンブリッジビル2階,03-3793-1656,
ワイストーキョー,飲食,その他(バー・クラブ・スナックなど),カフェバー,,090-9353-2108,https://www.instagram.com/wythetokyo/
Y`sC COFFEE STAND,飲食,喫茶店・カフェ,喫茶店・カフェ,渋谷区代々木4-37-7YRビル1階,090-7836-7853,
"Wild,Bushy",飲食,その他(バー・クラブ・スナックなど),バー,渋谷区西原1-21-16パラスト西原105,090-9289-7614,
Wailele,飲食,居酒屋,ビアホール,渋谷区道玄坂1-7-8 新井ビル2F,070-6987-1981,https://cervezagym.hatenablog.com/
Y.Y.G. Brewery & Beer Kitchen,飲食,居酒屋,ビアホール,渋谷区代々木2-18-3オーチュー第一ビル1F/7F,03-6276-5550,
Wine食堂 久,飲食,居酒屋,ダイニング・バー,渋谷区幡ヶ谷2-56-1コーポラス幡ヶ谷101,03-3375-7252,https://www.instagram.com/winesyokudo9
ワイン酒場ウラッチェ!,飲食,居酒屋,ダイニング・バー,渋谷区円山町5-2第二伊藤ビル1階,03-3780-1557,
ワイン食堂がっと,飲食,外国料理,フランス料理,渋谷区円山町17-2久保木荘1階,03-3464-5568,
ワインバルRough,飲食,外国料理,フランス料理,渋谷区道玄坂2-17-2トップ美奄1階,03-6427-8684,
77696E65626172,飲食,その他(バー・クラブ・スナックなど),バー,渋谷区富ヶ谷1-37-1ロナーYS ビル 1F,090-7206-0004,https://www.instagram.com/77696E65626172
Wine Bar entendu!,飲食,外国料理,フランス料理,渋谷区恵比寿西1-10-14バルビゾン88 9階,03-6303-3910,
Wine Bar ETSUBO,飲食,外国料理,イタリア料理,渋谷区恵比寿南2-13-14茶屋坂T&Kビル2F,03-6303-3435,
wine bar M,飲食,外国料理,フランス料理,渋谷区恵比寿西1-3-5アルス恵比寿メイクス2F,03-3464-1788,https://www.wine-m.jp
ワインビストロアンフォラ,飲食,外国料理,フランス料理,渋谷区千駄ヶ谷1-7-12 志水ビル2階,080-1879-2412,https://winebistro-amphora.com/
和幻　初台本店,飲食,日本料理,日本料理,渋谷区本町2-1-9アップルアイレジデンス1F,03-5309-2398,
WAGYUYAKINIKU IBUSANA,飲食,ステーキ・焼肉,焼肉,渋谷区代々木4-10-7小淵ビル1F,03-6304-2728,
ワゴンリ,飲食,居酒屋,ダイニング・バー,渋谷区宇田川町25-3 2階,03-3461-2521,
和食イノベーティブ「かさじま」,飲食,その他(バー・クラブ・スナックなど),バー,渋谷区本町2-39-1,03-6304-2848,
和食おやまだ,飲食,日本料理,日本料理,渋谷区恵比寿南1-13-11ヴェール1F,03-6412-7566,
和食くずみ,飲食,日本料理,日本料理,渋谷区初台1丁目38番10号第2近江ビル1F,03-3376-0923,https://www.instagram.com/junichik10
和食と串揚げ六角亭,飲食,日本料理,とんかつ・串かつ,渋谷区恵比寿西1-36-51F,03-3780-4784,
和食処繁,飲食,日本料理,日本料理,渋谷区幡ヶ谷2-48-3,03-6300-5316,
和田丸,飲食,居酒屋,居酒屋,渋谷区円山町22-18　桃山コーポ2階,03-3496-3435,
和のかし巡,飲食,日本料理,その他,渋谷区上原3-2-1,03-5738-8050,
世界一のカキフライと肴　わぶ,飲食,日本料理,日本料理,渋谷区代々木2-19-12唐沢第二ビル1階,03-3379-2486,https://wabu.jp/?fbclid=PAAaZWnmSJWCEDFY-UxMO3gj0ZuvAvg_ykchoxX46Mj5CF07N5w8f_jBcMBJU
和楽,飲食,居酒屋,居酒屋,渋谷区神泉町10-2第五岡崎ビルB1,03-3461-7871,
Wonder YoYogi Park,飲食,その他(バー・クラブ・スナックなど),バー,渋谷区富ヶ谷1-8-7飯島ビル2階,090-2385-8258,
One Trick Pony,飲食,その他(バー・クラブ・スナックなど),バー,渋谷区道玄坂1-11-1第二大番ビル502,03-6455-2558,
ワールドフードラボ,飲食,外国料理,無国籍料理,渋谷区千駄ヶ谷5-23-2イノスビル1F,03-6273-2125,
YEBISU BAR STAND　恵比寿ガーデンプレイス店,飲食,居酒屋,ダイニング・バー,渋谷区恵比寿4-20-5恵比寿ガーデンプレイス エントランスパビリオン棟1階,03-4400-5165,
恵比壽ビヤホール,飲食,居酒屋,ビアホール,渋谷区恵比寿南1-1-1ヒューマックス恵比寿ビル B1F,03-3719-0557,
Vaji spice,飲食,外国料理,その他,渋谷区代々木5-63-10,03-6407-0772,
VANNO,飲食,外国料理,イタリア料理,渋谷区本町2-28-4サンエムマンション3-101,03-6383-3427,
vineria HIRANO,飲食,外国料理,イタリア料理,渋谷区千駄ヶ谷 2-5-5ウィルコート1F,03-5772-6230,http://facebook.com/vineriahirano.com
ヴィノテカ　モモ,飲食,外国料理,その他,渋谷区初台1-51-5アクス初台102,03-3320-5779,
Villaggio,飲食,外国料理,イタリア料理,渋谷区幡ヶ谷2-48-1三木ビル1F,03-6276-0010,http://villaggio.business.site
VinSanto,飲食,その他(バー・クラブ・スナックなど),バー,渋谷区恵比寿西2-1-7,03-3464-4641,
VINO,飲食,外国料理,イタリア料理,渋谷区渋谷1-11-3正栄ビル,03-3409-9575,
Vegeater,飲食,その他(バー・クラブ・スナックなど),その他,渋谷区東1-14-12常盤松マンション1F,090-8590-1144,https://vegeater.jp/
ヴェントゥーノトウキョウ,飲食,外国料理,フランス料理,渋谷区宇田川町24-1高木ビルディング地下1階,03-3477-1199,
